station,valid,tmpf,dwpf,relh,drct,sknt,p01i,alti,mslp,vsby,gust,skyc1,skyc2,skyc3,skyc4,skyl1,skyl2,skyl3,skyl4,wxcodes,ice_accretion_1hr,ice_accretion_3hr,ice_accretion_6hr,peak_wind_gust,peak_wind_drct,peak_wind_time,feel,metar,snowdepth
LFAT,LFAT,2019-09-12 00:00,64.40,62.60,93.88,270.00,9.00,0.00,30.27,M,6.21,M,BKN,OVC,M,M,700.00,1100.00,M,M,M,M,M,M,M,M,M,64.40,LFAT 120000Z AUTO 27009KT 240V300 9999 BKN007 OVC011 18/17 Q1025,M
LFAT,LFAT,2019-09-12 00:30,64.40,62.60,93.88,270.00,7.00,0.00,30.27,M,6.21,M,BKN,OVC,M,M,800.00,1300.00,M,M,M,M,M,M,M,M,M,64.40,LFAT 120030Z AUTO 27007KT 240V330 9999 BKN008 OVC013 18/17 Q1025,M
LFAT,LFAT,2019-09-12 01:00,64.40,62.60,93.88,270.00,8.00,0.00,30.27,M,4.97,M,OVC,M,M,M,600.00,M,M,M,M,M,M,M,M,M,M,64.40,LFAT 120100Z AUTO 27008KT 230V300 8000 OVC006 18/17 Q1025,M
LFAT,LFAT,2019-09-12 01:30,64.40,62.60,93.88,270.00,8.00,0.00,30.27,M,6.21,M,BKN,OVC,M,M,700.00,1500.00,M,M,M,M,M,M,M,M,M,64.40,LFAT 120130Z AUTO 27008KT 9999 BKN007 OVC015 18/17 Q1025,M
LFAT,LFAT,2019-09-12 02:00,64.40,62.60,93.88,270.00,7.00,0.00,30.30,M,6.21,M,SCT,BKN,OVC,M,800.00,1700.00,2400.00,M,M,M,M,M,M,M,M,64.40,LFAT 120200Z AUTO 27007KT 230V310 9999 SCT008 BKN017 OVC024 18/17 Q1026,M
LFAT,LFAT,2019-09-12 02:30,64.40,62.60,93.88,270.00,9.00,0.00,30.30,M,6.21,M,BKN,OVC,M,M,700.00,1400.00,M,M,M,M,M,M,M,M,M,64.40,LFAT 120230Z AUTO 27009KT 9999 BKN007 OVC014 18/17 Q1026,M
LFAT,LFAT,2019-09-12 03:00,64.40,62.60,93.88,270.00,8.00,0.00,30.30,M,6.21,M,BKN,OVC,M,M,600.00,1000.00,M,M,M,M,M,M,M,M,M,64.40,LFAT 120300Z AUTO 27008KT 240V310 9999 BKN006 OVC010 18/17 Q1026,M
LFAT,LFAT,2019-09-12 03:30,64.40,62.60,93.88,270.00,6.00,0.00,30.30,M,6.21,M,BKN,BKN,OVC,M,800.00,1500.00,3500.00,M,M,M,M,M,M,M,M,64.40,LFAT 120330Z AUTO 27006KT 230V310 9999 BKN008 BKN015 OVC035 18/17 Q1026,M
LFAT,LFAT,2019-09-12 04:00,64.40,62.60,93.88,270.00,7.00,0.00,30.30,M,6.21,M,BKN,OVC,M,M,900.00,1900.00,M,M,M,M,M,M,M,M,M,64.40,LFAT 120400Z AUTO 27007KT 9999 BKN009 OVC019 18/17 Q1026,M
LFAT,LFAT,2019-09-12 04:30,64.40,60.80,88.09,270.00,8.00,0.00,30.30,M,6.21,M,BKN,OVC,M,M,900.00,3500.00,M,M,M,M,M,M,M,M,M,64.40,LFAT 120430Z AUTO 27008KT 240V300 9999 BKN009 OVC035 18/16 Q1026,M
LFAT,LFAT,2019-09-12 05:00,64.40,60.80,88.09,270.00,9.00,0.00,30.30,M,6.21,M,BKN,BKN,M,M,1100.00,1800.00,M,M,M,M,M,M,M,M,M,64.40,LFAT 120500Z AUTO 27009KT 240V300 9999 BKN011 BKN018 18/16 Q1026,M
LFAT,LFAT,2019-09-12 05:30,64.40,60.80,88.09,270.00,7.00,0.00,30.33,M,6.21,M,FEW,OVC,M,M,1000.00,3400.00,M,M,M,M,M,M,M,M,M,64.40,LFAT 120530Z AUTO 27007KT 240V310 9999 FEW010 OVC034 18/16 Q1027 TEMPO BKN007,M
LFAT,LFAT,2019-09-12 06:00,62.60,59.00,88.00,300.00,8.00,0.00,30.33,M,6.21,M,FEW,SCT,BKN,M,1100.00,2200.00,2800.00,M,M,M,M,M,M,M,M,62.60,LFAT 120600Z AUTO 30008KT 260V330 9999 FEW011 SCT022 BKN028 17/15 Q1027 TEMPO BKN007,M
LFAT,LFAT,2019-09-12 06:30,64.40,59.00,82.62,290.00,7.00,0.00,30.33,M,6.21,M,FEW,OVC,M,M,1800.00,2600.00,M,M,M,M,M,M,M,M,M,64.40,LFAT 120630Z AUTO 29007KT 250V330 9999 FEW018 OVC026 18/15 Q1027 TEMPO BKN007,M
LFAT,LFAT,2019-09-12 07:00,64.40,59.00,82.62,300.00,6.00,0.00,30.36,M,6.21,M,SCT,BKN,BKN,M,1600.00,2600.00,3500.00,M,M,M,M,M,M,M,M,64.40,LFAT 120700Z AUTO 30006KT 9999 SCT016 BKN026 BKN035 18/15 Q1028 TEMPO BKN007,M
LFAT,LFAT,2019-09-12 07:30,64.40,59.00,82.62,300.00,7.00,0.00,30.36,M,6.21,M,FEW,BKN,BKN,M,1500.00,2100.00,3200.00,M,M,M,M,M,M,M,M,64.40,LFAT 120730Z AUTO 30007KT 9999 FEW015 BKN021 BKN032 18/15 Q1028 TEMPO BKN007,M
LFAT,LFAT,2019-09-12 08:00,66.20,60.80,82.74,280.00,7.00,0.00,30.39,M,6.21,M,SCT,BKN,BKN,M,1700.00,2200.00,3100.00,M,M,M,M,M,M,M,M,66.20,LFAT 120800Z AUTO 28007KT 250V330 9999 SCT017 BKN022 BKN031 19/16 Q1029 TEMPO BKN007,M
LFAT,LFAT,2019-09-12 08:30,66.20,60.80,82.74,290.00,6.00,0.00,30.39,M,6.21,M,BKN,OVC,M,M,1900.00,2500.00,M,M,M,M,M,M,M,M,M,66.20,LFAT 120830Z AUTO 29006KT 260V320 9999 BKN019 OVC025 19/16 Q1029 TEMPO BKN012,M
LFAT,LFAT,2019-09-12 09:00,66.20,60.80,82.74,270.00,7.00,0.00,30.39,M,6.21,M,BKN,OVC,M,M,1700.00,2200.00,M,M,M,M,M,M,M,M,M,66.20,LFAT 120900Z AUTO 27007KT 240V310 9999 BKN017 OVC022 19/16 Q1029 TEMPO BKN012,M
LFAT,LFAT,2019-09-12 09:30,66.20,60.80,82.74,260.00,8.00,0.00,30.39,M,6.21,M,BKN,OVC,M,M,1700.00,4500.00,M,M,M,M,M,M,M,M,M,66.20,LFAT 120930Z AUTO 26008KT 230V310 9999 BKN017 OVC045 19/16 Q1029 TEMPO BKN012,M
LFAT,LFAT,2019-09-12 10:00,66.20,60.80,82.74,260.00,8.00,0.00,30.42,M,6.21,M,OVC,M,M,M,1400.00,M,M,M,M,M,M,M,M,M,M,66.20,LFAT 121000Z AUTO 26008KT 220V300 9999 OVC014 19/16 Q1030 NOSIG,M
LFAT,LFAT,2019-09-12 10:30,68.00,62.60,82.86,260.00,8.00,0.00,30.42,M,6.21,M,BKN,OVC,M,M,1200.00,4500.00,M,M,M,M,M,M,M,M,M,68.00,LFAT 121030Z AUTO 26008KT 230V320 9999 BKN012 OVC045 20/17 Q1030 NOSIG,M
LFAT,LFAT,2019-09-12 11:00,66.20,62.60,88.18,260.00,9.00,0.00,30.42,M,6.21,M,BKN,OVC,M,M,800.00,1300.00,M,M,M,M,M,M,M,M,M,66.20,LFAT 121100Z AUTO 26009KT 230V300 9999 BKN008 OVC013 19/17 Q1030 TEMPO BKN012,M
LFAT,LFAT,2019-09-12 11:30,66.20,62.60,88.18,260.00,8.00,0.00,30.42,M,6.21,M,OVC,M,M,M,700.00,M,M,M,M,M,M,M,M,M,M,66.20,LFAT 121130Z AUTO 26008KT 220V310 9999 OVC007 19/17 Q1030 TEMPO BKN012,M
LFAT,LFAT,2019-09-12 12:00,66.20,62.60,88.18,260.00,9.00,0.00,30.42,M,6.21,M,BKN,OVC,M,M,700.00,1300.00,M,M,M,M,M,M,M,M,M,66.20,LFAT 121200Z AUTO 26009KT 230V290 9999 BKN007 OVC013 19/17 Q1030 NOSIG,M
LFAT,LFAT,2019-09-12 12:30,66.20,62.60,88.18,260.00,10.00,0.00,30.42,M,6.21,M,OVC,M,M,M,700.00,M,M,M,M,M,M,M,M,M,M,66.20,LFAT 121230Z AUTO 26010KT 240V300 9999 OVC007 19/17 Q1030 NOSIG,M
LFAT,LFAT,2019-09-12 13:00,66.20,62.60,88.18,260.00,8.00,0.00,30.42,M,6.21,M,BKN,OVC,M,M,700.00,1300.00,M,M,M,M,M,M,M,M,M,66.20,LFAT 121300Z AUTO 26008KT 220V300 9999 BKN007 OVC013 19/17 Q1030 NOSIG,M
LFAT,LFAT,2019-09-12 13:30,66.20,64.40,93.92,260.00,8.00,0.00,30.42,M,6.21,M,OVC,M,M,M,700.00,M,M,M,M,M,M,M,M,M,M,66.20,LFAT 121330Z AUTO 26008KT 230V290 9999 OVC007 19/18 Q1030 NOSIG,M
LFAT,LFAT,2019-09-12 14:00,66.20,64.40,93.92,260.00,9.00,0.00,30.42,M,6.21,M,OVC,M,M,M,500.00,M,M,M,M,M,M,M,M,M,M,66.20,LFAT 121400Z AUTO 26009KT 220V280 9999 OVC005 19/18 Q1030 NOSIG,M
LFAT,LFAT,2019-09-12 14:30,66.20,64.40,93.92,260.00,8.00,0.00,30.42,M,6.21,M,BKN,BKN,OVC,M,600.00,1200.00,2100.00,M,M,M,M,M,M,M,M,66.20,LFAT 121430Z AUTO 26008KT 220V290 9999 BKN006 BKN012 OVC021 19/18 Q1030 NOSIG,M
LFAT,LFAT,2019-09-12 15:00,66.20,62.60,88.18,250.00,10.00,0.00,30.42,M,6.21,M,BKN,OVC,M,M,800.00,2800.00,M,M,M,M,M,M,M,M,M,66.20,LFAT 121500Z AUTO 25010KT 210V300 9999 BKN008 OVC028 19/17 Q1030 TEMPO BKN012,M
LFAT,LFAT,2019-09-12 15:30,66.20,62.60,88.18,250.00,9.00,0.00,30.42,M,6.21,M,BKN,BKN,BKN,M,1000.00,2300.00,2800.00,M,M,M,M,M,M,M,M,66.20,LFAT 121530Z AUTO 25009KT 220V290 9999 BKN010 BKN023 BKN028 19/17 Q1030 NOSIG,M
LFAT,LFAT,2019-09-12 16:00,66.20,62.60,88.18,260.00,10.00,0.00,30.42,M,6.21,M,BKN,OVC,M,M,1000.00,2900.00,M,M,M,M,M,M,M,M,M,66.20,LFAT 121600Z AUTO 26010KT 230V300 9999 BKN010 OVC029 19/17 Q1030 NOSIG,M
LFAT,LFAT,2019-09-12 16:30,66.20,60.80,82.74,260.00,9.00,0.00,30.42,M,6.21,M,SCT,OVC,M,M,1200.00,2900.00,M,M,M,M,M,M,M,M,M,66.20,LFAT 121630Z AUTO 26009KT 220V290 9999 SCT012 OVC029 19/16 Q1030 TEMPO BKN012,M
LFAT,LFAT,2019-09-12 17:00,66.20,60.80,82.74,250.00,9.00,0.00,30.42,M,6.21,M,BKN,M,M,M,3200.00,M,M,M,M,M,M,M,M,M,M,66.20,LFAT 121700Z AUTO 25009KT 220V300 9999 BKN032 19/16 Q1030 TEMPO BKN012,M
LFAT,LFAT,2019-09-12 17:30,64.40,60.80,88.09,250.00,7.00,0.00,30.42,M,6.21,M,FEW,OVC,M,M,1200.00,2500.00,M,M,M,M,M,M,M,M,M,64.40,LFAT 121730Z AUTO 25007KT 220V290 9999 FEW012 OVC025 18/16 Q1030 TEMPO BKN012,M
LFAT,LFAT,2019-09-12 18:00,64.40,60.80,88.09,240.00,9.00,0.00,30.42,M,6.21,M,FEW,OVC,M,M,1300.00,2700.00,M,M,M,M,M,M,M,M,M,64.40,LFAT 121800Z AUTO 24009KT 9999 FEW013 OVC027 18/16 Q1030 TEMPO BKN012,M
LFAT,LFAT,2019-09-12 18:30,64.40,62.60,93.88,250.00,9.00,0.00,30.42,M,6.21,M,SCT,OVC,M,M,1100.00,3000.00,M,M,M,M,M,M,M,M,M,64.40,LFAT 121830Z AUTO 25009KT 220V280 9999 SCT011 OVC030 18/17 Q1030,M
LFAT,LFAT,2019-09-12 19:00,64.40,62.60,93.88,250.00,9.00,0.00,30.42,M,6.21,M,FEW,OVC,M,M,1000.00,3200.00,M,M,M,M,M,M,M,M,M,64.40,LFAT 121900Z AUTO 25009KT 220V290 9999 FEW010 OVC032 18/17 Q1030,M
LFAT,LFAT,2019-09-12 19:30,64.40,62.60,93.88,250.00,9.00,0.00,30.42,M,6.21,M,FEW,OVC,M,M,900.00,3100.00,M,M,M,M,M,M,M,M,M,64.40,LFAT 121930Z AUTO 25009KT 220V280 9999 FEW009 OVC031 18/17 Q1030,M
LFAT,LFAT,2019-09-12 20:00,64.40,60.80,88.09,260.00,9.00,0.00,30.45,M,6.21,M,BKN,OVC,M,M,1100.00,3100.00,M,M,M,M,M,M,M,M,M,64.40,LFAT 122000Z AUTO 26009KT 220V310 9999 BKN011 OVC031 18/16 Q1031,M
LFAT,LFAT,2019-09-12 20:30,64.40,62.60,93.88,260.00,9.00,0.00,30.45,M,6.21,M,BKN,OVC,M,M,1000.00,3000.00,M,M,M,M,M,M,M,M,M,64.40,LFAT 122030Z AUTO 26009KT 220V290 9999 BKN010 OVC030 18/17 Q1031,M
LFAT,LFAT,2019-09-12 21:00,64.40,62.60,93.88,260.00,9.00,0.00,30.45,M,6.21,M,OVC,M,M,M,1000.00,M,M,M,M,M,M,M,M,M,M,64.40,LFAT 122100Z AUTO 26009KT 230V290 9999 OVC010 18/17 Q1031,M
LFAT,LFAT,2019-09-12 21:30,64.40,62.60,93.88,260.00,10.00,0.00,30.45,M,6.21,M,BKN,OVC,M,M,1100.00,2500.00,M,M,M,M,M,M,M,M,M,64.40,LFAT 122130Z AUTO 26010KT 230V300 9999 BKN011 OVC025 18/17 Q1031,M
LFAT,LFAT,2019-09-12 22:00,64.40,60.80,88.09,260.00,10.00,0.00,30.45,M,6.21,M,BKN,BKN,OVC,M,1100.00,2000.00,2500.00,M,M,M,M,M,M,M,M,64.40,LFAT 122200Z AUTO 26010KT 230V290 9999 BKN011 BKN020 OVC025 18/16 Q1031,M
LFAT,LFAT,2019-09-12 22:30,64.40,60.80,88.09,260.00,9.00,0.00,30.45,M,6.21,M,FEW,OVC,M,M,1000.00,1800.00,M,M,M,M,M,M,M,M,M,64.40,LFAT 122230Z AUTO 26009KT 230V290 9999 FEW010 OVC018 18/16 Q1031,M
LFAT,LFAT,2019-09-12 23:00,64.40,60.80,88.09,280.00,11.00,0.00,30.45,M,6.21,M,OVC,M,M,M,1700.00,M,M,M,M,M,M,M,M,M,M,64.40,LFAT 122300Z AUTO 28011KT 250V320 9999 OVC017 18/16 Q1031,M
LFAT,LFAT,2019-09-12 23:30,64.40,59.00,82.62,280.00,10.00,0.00,30.45,M,6.21,20.00,OVC,M,M,M,1500.00,M,M,M,M,M,M,M,M,M,M,64.40,LFAT 122330Z AUTO 28010G20KT 240V320 9999 OVC015 18/15 Q1031,M
LFBT,LFBT,2019-09-12 00:00,53.60,50.00,87.56,180.00,4.00,0.00,30.45,M,6.21,M,M,M,M,M,M,M,M,M,M,M,M,M,M,M,M,53.60,LFBT 120000Z AUTO 18004KT CAVOK 12/10 Q1031 NOSIG,M
LFBT,LFBT,2019-09-12 00:30,51.80,50.00,93.55,190.00,3.00,0.00,30.45,M,6.21,M,M,M,M,M,M,M,M,M,M,M,M,M,M,M,M,51.80,LFBT 120030Z AUTO 19003KT CAVOK 11/10 Q1031 NOSIG,M
LFBT,LFBT,2019-09-12 01:00,53.60,51.80,93.60,150.00,5.00,0.00,30.42,M,6.21,M,M,M,M,M,M,M,M,M,M,M,M,M,M,M,M,53.60,LFBT 120100Z AUTO 15005KT CAVOK 12/11 Q1030 NOSIG,M
LFBT,LFBT,2019-09-12 01:30,51.80,50.00,93.55,150.00,4.00,0.00,30.42,M,6.21,M,M,M,M,M,M,M,M,M,M,M,M,M,M,M,M,51.80,LFBT 120130Z AUTO 15004KT CAVOK 11/10 Q1030 NOSIG,M
LFBT,LFBT,2019-09-12 02:00,51.80,50.00,93.55,180.00,3.00,0.00,30.42,M,6.21,M,M,M,M,M,M,M,M,M,M,M,M,M,M,M,M,51.80,LFBT 120200Z AUTO 18003KT CAVOK 11/10 Q1030 NOSIG,M
LFBT,LFBT,2019-09-12 02:30,51.80,48.20,87.47,170.00,4.00,0.00,30.42,M,6.21,M,M,M,M,M,M,M,M,M,M,M,M,M,M,M,M,51.80,LFBT 120230Z AUTO 17004KT CAVOK 11/09 Q1030 NOSIG,M
LFBT,LFBT,2019-09-12 03:00,50.00,48.20,93.50,170.00,3.00,0.00,30.42,M,6.21,M,M,M,M,M,M,M,M,M,M,M,M,M,M,M,M,49.27,LFBT 120300Z AUTO 17003KT CAVOK 10/09 Q1030 NOSIG,M
LFBT,LFBT,2019-09-12 03:30,50.00,48.20,93.50,170.00,4.00,0.00,30.42,M,6.21,M,M,M,M,M,M,M,M,M,M,M,M,M,M,M,M,48.44,LFBT 120330Z AUTO 17004KT CAVOK 10/09 Q1030 NOSIG,M
LFBT,LFBT,2019-09-12 04:00,50.00,50.00,100.00,170.00,6.00,0.00,30.42,M,6.21,M,M,M,M,M,M,M,M,M,M,M,M,M,M,M,M,47.21,LFBT 120400Z AUTO 17006KT CAVOK 10/10 Q1030 NOSIG,M
LFBT,LFBT,2019-09-12 04:30,50.00,48.20,93.50,170.00,5.00,0.00,30.42,M,6.21,M,M,M,M,M,M,M,M,M,M,M,M,M,M,M,M,47.77,LFBT 120430Z AUTO 17005KT CAVOK 10/09 Q1030 NOSIG,M
LFBT,LFBT,2019-09-12 05:00,50.00,48.20,93.50,160.00,3.00,0.00,30.45,M,6.21,M,M,M,M,M,M,M,M,M,M,M,M,M,M,M,M,49.27,LFBT 120500Z AUTO 16003KT CAVOK 10/09 Q1031 NOSIG,M
LFBT,LFBT,2019-09-12 05:30,50.00,48.20,93.50,160.00,3.00,0.00,30.45,M,6.21,M,M,M,M,M,M,M,M,M,M,M,M,M,M,M,M,49.27,LFBT 120530Z AUTO 16003KT CAVOK 10/09 Q1031 NOSIG,M
LFBT,LFBT,2019-09-12 06:00,50.00,48.20,93.50,170.00,4.00,0.00,30.45,M,6.21,M,M,M,M,M,M,M,M,M,M,M,M,M,M,M,M,48.44,LFBT 120600Z AUTO 17004KT CAVOK 10/09 Q1031 NOSIG,M
LFBT,LFBT,2019-09-12 06:30,51.80,50.00,93.55,170.00,4.00,0.00,30.45,M,6.21,M,M,M,M,M,M,M,M,M,M,M,M,M,M,M,M,51.80,LFBT 120630Z AUTO 17004KT CAVOK 11/10 Q1031 NOSIG,M
LFBT,LFBT,2019-09-12 07:00,55.40,51.80,87.65,160.00,4.00,0.00,30.47,M,6.21,M,M,M,M,M,M,M,M,M,M,M,M,M,M,M,M,55.40,LFBT 120700Z AUTO 16004KT 140V200 CAVOK 13/11 Q1032 NOSIG,M
LFBT,LFBT,2019-09-12 07:30,59.00,53.60,82.25,150.00,4.00,0.00,30.47,M,6.21,M,M,M,M,M,M,M,M,M,M,M,M,M,M,M,M,59.00,LFBT 120730Z AUTO 15004KT 120V180 CAVOK 15/12 Q1032 NOSIG,M
LFBT,LFBT,2019-09-12 08:00,60.80,53.60,77.14,180.00,5.00,0.00,30.47,M,6.21,M,M,M,M,M,M,M,M,M,M,M,M,M,M,M,M,60.80,LFBT 120800Z AUTO 18005KT 130V200 CAVOK 16/12 Q1032 NOSIG,M
LFBT,LFBT,2019-09-12 08:30,62.60,53.60,72.38,180.00,3.00,0.00,30.47,M,6.21,M,M,M,M,M,M,M,M,M,M,M,M,M,M,M,M,62.60,LFBT 120830Z AUTO 18003KT 140V230 CAVOK 17/12 Q1032 NOSIG,M
LFBT,LFBT,2019-09-12 09:00,64.40,53.60,67.95,M,2.00,0.00,30.47,M,6.21,M,M,M,M,M,M,M,M,M,M,M,M,M,M,M,M,64.40,LFBT 120900Z AUTO VRB02KT CAVOK 18/12 Q1032 NOSIG,M
LFBT,LFBT,2019-09-12 09:30,68.00,55.40,64.04,350.00,4.00,0.00,30.47,M,6.21,M,M,M,M,M,M,M,M,M,M,M,M,M,M,M,M,68.00,LFBT 120930Z AUTO 35004KT 260V060 CAVOK 20/13 Q1032 NOSIG,M
LFBT,LFBT,2019-09-12 10:00,68.00,53.60,59.97,30.00,3.00,0.00,30.47,M,6.21,M,M,M,M,M,M,M,M,M,M,M,M,M,M,M,M,68.00,LFBT 121000Z AUTO 03003KT 310V100 CAVOK 20/12 Q1032 NOSIG,M
LFBT,LFBT,2019-09-12 10:30,69.80,53.60,56.38,M,2.00,0.00,30.47,M,6.21,M,M,M,M,M,M,M,M,M,M,M,M,M,M,M,M,69.80,LFBT 121030Z AUTO VRB02KT CAVOK 21/12 Q1032 NOSIG,M
LFBT,LFBT,2019-09-12 11:00,71.60,51.80,49.64,M,4.00,0.00,30.47,M,6.21,M,M,M,M,M,M,M,M,M,M,M,M,M,M,M,M,71.60,LFBT 121100Z AUTO VRB04KT CAVOK 22/11 Q1032 NOSIG,M
LFBT,LFBT,2019-09-12 11:30,73.40,51.80,46.71,M,5.00,0.00,30.47,M,6.21,M,M,M,M,M,M,M,M,M,M,M,M,M,M,M,M,73.40,LFBT 121130Z AUTO VRB05KT CAVOK 23/11 Q1032 NOSIG,M
LFBT,LFBT,2019-09-12 12:00,75.20,51.80,43.97,M,6.00,0.00,30.47,M,6.21,M,M,M,M,M,M,M,M,M,M,M,M,M,M,M,M,75.20,LFBT 121200Z AUTO VRB06KT CAVOK 24/11 Q1032 NOSIG,M
LFBT,LFBT,2019-09-12 12:30,75.20,51.80,43.97,10.00,5.00,0.00,30.45,M,6.21,M,M,M,M,M,M,M,M,M,M,M,M,M,M,M,M,75.20,LFBT 121230Z AUTO 01005KT 300V060 CAVOK 24/11 Q1031 NOSIG,M
LFBT,LFBT,2019-09-12 13:00,77.00,53.60,44.25,M,3.00,0.00,30.45,M,6.21,M,M,M,M,M,M,M,M,M,M,M,M,M,M,M,M,77.00,LFBT 121300Z AUTO VRB03KT CAVOK 25/12 Q1031 NOSIG,M
LFBT,LFBT,2019-09-12 13:30,75.20,53.60,46.98,20.00,5.00,0.00,30.45,M,6.21,M,M,M,M,M,M,M,M,M,M,M,M,M,M,M,M,75.20,LFBT 121330Z AUTO 02005KT 320V080 CAVOK 24/12 Q1031 NOSIG,M
LFBT,LFBT,2019-09-12 14:00,75.20,53.60,46.98,40.00,8.00,0.00,30.45,M,6.21,M,M,M,M,M,M,M,M,M,M,M,M,M,M,M,M,75.20,LFBT 121400Z AUTO 04008KT 350V080 CAVOK 24/12 Q1031 NOSIG,M
LFBT,LFBT,2019-09-12 14:30,77.00,53.60,44.25,80.00,6.00,0.00,30.42,M,6.21,M,M,M,M,M,M,M,M,M,M,M,M,M,M,M,M,77.00,LFBT 121430Z AUTO 08006KT 010V150 CAVOK 25/12 Q1030 NOSIG,M
LFBT,LFBT,2019-09-12 15:00,77.00,55.40,47.25,20.00,6.00,0.00,30.42,M,6.21,M,M,M,M,M,M,M,M,M,M,M,M,M,M,M,M,77.00,LFBT 121500Z AUTO 02006KT 350V050 CAVOK 25/13 Q1030 NOSIG,M
LFBT,LFBT,2019-09-12 15:30,77.00,51.80,41.42,50.00,4.00,0.00,30.42,M,6.21,M,NSC,M,M,M,M,M,M,M,M,M,M,M,M,M,M,77.00,LFBT 121530Z AUTO 05004KT 360V110 9999 NSC 25/11 Q1030 NOSIG,M
LFBT,LFBT,2019-09-12 16:00,77.00,53.60,44.25,40.00,4.00,0.00,30.42,M,6.21,M,M,M,M,M,M,M,M,M,M,M,M,M,M,M,M,77.00,LFBT 121600Z AUTO 04004KT 330V110 CAVOK 25/12 Q1030 NOSIG,M
LFBT,LFBT,2019-09-12 16:30,75.20,51.80,43.97,60.00,6.00,0.00,30.42,M,6.21,M,M,M,M,M,M,M,M,M,M,M,M,M,M,M,M,75.20,LFBT 121630Z AUTO 06006KT 020V110 CAVOK 24/11 Q1030 NOSIG,M
LFBT,LFBT,2019-09-12 17:00,75.20,51.80,43.97,50.00,5.00,0.00,30.42,M,6.21,M,M,M,M,M,M,M,M,M,M,M,M,M,M,M,M,75.20,LFBT 121700Z AUTO 05005KT 020V100 CAVOK 24/11 Q1030 NOSIG,M
LFBT,LFBT,2019-09-12 17:30,73.40,51.80,46.71,50.00,4.00,0.00,30.42,M,6.21,M,M,M,M,M,M,M,M,M,M,M,M,M,M,M,M,73.40,LFBT 121730Z AUTO 05004KT 020V090 CAVOK 23/11 Q1030 NOSIG,M
LFBT,LFBT,2019-09-12 18:00,71.60,51.80,49.64,M,3.00,0.00,30.42,M,6.21,M,M,M,M,M,M,M,M,M,M,M,M,M,M,M,M,71.60,LFBT 121800Z AUTO VRB03KT CAVOK 22/11 Q1030 NOSIG,M
LFBT,LFBT,2019-09-12 18:30,66.20,55.40,68.15,220.00,4.00,0.00,30.42,M,6.21,M,M,M,M,M,M,M,M,M,M,M,M,M,M,M,M,66.20,LFBT 121830Z AUTO 22004KT CAVOK 19/13 Q1030 NOSIG,M
LFBT,LFBT,2019-09-12 19:00,60.80,55.40,82.37,200.00,5.00,0.00,30.42,M,6.21,M,M,M,M,M,M,M,M,M,M,M,M,M,M,M,M,60.80,LFBT 121900Z AUTO 20005KT CAVOK 16/13 Q1030 NOSIG,M
LFBT,LFBT,2019-09-12 19:30,60.80,55.40,82.37,170.00,4.00,0.00,30.42,M,6.21,M,M,M,M,M,M,M,M,M,M,M,M,M,M,M,M,60.80,LFBT 121930Z AUTO 17004KT CAVOK 16/13 Q1030 NOSIG,M
LFBT,LFBT,2019-09-12 20:00,59.00,55.40,87.83,180.00,6.00,0.00,30.45,M,6.21,M,M,M,M,M,M,M,M,M,M,M,M,M,M,M,M,59.00,LFBT 122000Z AUTO 18006KT CAVOK 15/13 Q1031 NOSIG,M
LFBT,LFBT,2019-09-12 20:30,59.00,55.40,87.83,180.00,6.00,0.00,30.45,M,6.21,M,M,M,M,M,M,M,M,M,M,M,M,M,M,M,M,59.00,LFBT 122030Z AUTO 18006KT CAVOK 15/13 Q1031 NOSIG,M
LFBT,LFBT,2019-09-12 21:00,59.00,53.60,82.25,160.00,3.00,0.00,30.45,M,6.21,M,M,M,M,M,M,M,M,M,M,M,M,M,M,M,M,59.00,LFBT 122100Z AUTO 16003KT CAVOK 15/12 Q1031 NOSIG,M
LFBT,LFBT,2019-09-12 21:30,57.20,53.60,87.74,170.00,3.00,0.00,30.45,M,6.21,M,M,M,M,M,M,M,M,M,M,M,M,M,M,M,M,57.20,LFBT 122130Z AUTO 17003KT CAVOK 14/12 Q1031 NOSIG,M
LFBT,LFBT,2019-09-12 22:00,57.20,53.60,87.74,160.00,3.00,0.00,30.45,M,6.21,M,M,M,M,M,M,M,M,M,M,M,M,M,M,M,M,57.20,LFBT 122200Z AUTO 16003KT CAVOK 14/12 Q1031 NOSIG,M
LFBT,LFBT,2019-09-12 22:30,57.20,53.60,87.74,150.00,3.00,0.00,30.45,M,6.21,M,M,M,M,M,M,M,M,M,M,M,M,M,M,M,M,57.20,LFBT 122230Z AUTO 15003KT CAVOK 14/12 Q1031 NOSIG,M
LFBT,LFBT,2019-09-12 23:00,59.00,55.40,87.83,120.00,3.00,0.00,30.42,M,6.21,M,M,M,M,M,M,M,M,M,M,M,M,M,M,M,M,59.00,LFBT 122300Z AUTO 12003KT CAVOK 15/13 Q1030 NOSIG,M
LFBT,LFBT,2019-09-12 23:30,55.40,51.80,87.65,170.00,3.00,0.00,30.42,M,6.21,M,M,M,M,M,M,M,M,M,M,M,M,M,M,M,M,55.40,LFBT 122330Z AUTO 17003KT CAVOK 13/11 Q1030 NOSIG,M
LFBA,LFBA,2019-09-12 00:00,59.00,51.80,76.98,260.00,5.00,0.00,30.39,M,6.21,M,M,M,M,M,M,M,M,M,M,M,M,M,M,M,M,59.00,LFBA 120000Z AUTO 26005KT CAVOK 15/11 Q1029,M
LFBA,LFBA,2019-09-12 00:30,59.00,50.00,72.01,270.00,4.00,0.00,30.39,M,6.21,M,M,M,M,M,M,M,M,M,M,M,M,M,M,M,M,59.00,LFBA 120030Z AUTO 27004KT CAVOK 15/10 Q1029,M
LFBA,LFBA,2019-09-12 01:00,59.00,51.80,76.98,260.00,5.00,0.00,30.39,M,6.21,M,M,M,M,M,M,M,M,M,M,M,M,M,M,M,M,59.00,LFBA 120100Z AUTO 26005KT CAVOK 15/11 Q1029,M
LFBA,LFBA,2019-09-12 01:30,57.20,50.00,76.82,270.00,5.00,0.00,30.39,M,6.21,M,M,M,M,M,M,M,M,M,M,M,M,M,M,M,M,57.20,LFBA 120130Z AUTO 27005KT CAVOK 14/10 Q1029,M
LFBA,LFBA,2019-09-12 02:00,57.20,50.00,76.82,270.00,4.00,0.00,30.39,M,6.21,M,M,M,M,M,M,M,M,M,M,M,M,M,M,M,M,57.20,LFBA 120200Z AUTO 27004KT CAVOK 14/10 Q1029,M
LFBA,LFBA,2019-09-12 02:30,57.20,51.80,82.12,270.00,5.00,0.00,30.39,M,6.21,M,M,M,M,M,M,M,M,M,M,M,M,M,M,M,M,57.20,LFBA 120230Z AUTO 27005KT CAVOK 14/11 Q1029,M
LFBA,LFBA,2019-09-12 03:00,57.20,51.80,82.12,260.00,5.00,0.00,30.39,M,6.21,M,M,M,M,M,M,M,M,M,M,M,M,M,M,M,M,57.20,LFBA 120300Z AUTO 26005KT CAVOK 14/11 Q1029,M
LFBA,LFBA,2019-09-12 03:30,55.40,50.00,81.99,270.00,4.00,0.00,30.39,M,6.21,M,M,M,M,M,M,M,M,M,M,M,M,M,M,M,M,55.40,LFBA 120330Z AUTO 27004KT CAVOK 13/10 Q1029,M
LFBA,LFBA,2019-09-12 04:00,53.60,48.20,81.87,M,2.00,0.00,30.39,M,6.21,M,M,M,M,M,M,M,M,M,M,M,M,M,M,M,M,53.60,LFBA 120400Z AUTO VRB02KT CAVOK 12/09 Q1029,M
LFBA,LFBA,2019-09-12 04:30,55.40,51.80,87.65,230.00,5.00,0.00,30.39,M,6.21,M,M,M,M,M,M,M,M,M,M,M,M,M,M,M,M,55.40,LFBA 120430Z AUTO 23005KT CAVOK 13/11 Q1029,M
LFBA,LFBA,2019-09-12 05:00,55.40,50.00,81.99,220.00,5.00,0.00,30.42,M,6.21,M,M,M,M,M,M,M,M,M,M,M,M,M,M,M,M,55.40,LFBA 120500Z AUTO 22005KT 190V250 CAVOK 13/10 Q1030,M
LFBA,LFBA,2019-09-12 05:30,53.60,48.20,81.87,320.00,3.00,0.00,30.42,M,6.21,M,M,M,M,M,M,M,M,M,M,M,M,M,M,M,M,53.60,LFBA 120530Z AUTO 32003KT CAVOK 12/09 Q1030,M
LFBA,LFBA,2019-09-12 06:00,51.80,50.00,93.55,320.00,2.00,0.00,30.42,M,6.21,M,M,M,M,M,M,M,M,M,M,M,M,M,M,M,M,51.80,LFBA 120600Z AUTO 32002KT CAVOK 11/10 Q1030 NOSIG,M
LFBA,LFBA,2019-09-12 06:30,53.60,51.80,93.60,260.00,2.00,0.00,30.45,M,6.21,M,M,M,M,M,M,M,M,M,M,M,M,M,M,M,M,53.60,LFBA 120630Z AUTO 26002KT CAVOK 12/11 Q1031 NOSIG,M
LFBA,LFBA,2019-09-12 07:00,55.40,51.80,87.65,320.00,3.00,0.00,30.45,M,6.21,M,M,M,M,M,M,M,M,M,M,M,M,M,M,M,M,55.40,LFBA 120700Z AUTO 32003KT CAVOK 13/11 Q1031 NOSIG,M
LFBA,LFBA,2019-09-12 07:30,59.00,53.60,82.25,300.00,4.00,0.00,30.45,M,6.21,M,M,M,M,M,M,M,M,M,M,M,M,M,M,M,M,59.00,LFBA 120730Z AUTO 30004KT 270V330 CAVOK 15/12 Q1031 NOSIG,M
LFBA,LFBA,2019-09-12 08:00,60.80,51.80,72.20,290.00,5.00,0.00,30.45,M,6.21,M,M,M,M,M,M,M,M,M,M,M,M,M,M,M,M,60.80,LFBA 120800Z AUTO 29005KT 260V320 CAVOK 16/11 Q1031 NOSIG,M
LFBA,LFBA,2019-09-12 08:30,64.40,51.80,63.60,310.00,7.00,0.00,30.45,M,6.21,M,M,M,M,M,M,M,M,M,M,M,M,M,M,M,M,64.40,LFBA 120830Z AUTO 31007KT 280V340 CAVOK 18/11 Q1031 NOSIG,M
LFBA,LFBA,2019-09-12 09:00,66.20,51.80,59.74,310.00,5.00,0.00,30.47,M,6.21,M,M,M,M,M,M,M,M,M,M,M,M,M,M,M,M,66.20,LFBA 120900Z AUTO 31005KT 280V340 CAVOK 19/11 Q1032 NOSIG,M
LFBA,LFBA,2019-09-12 09:30,68.00,51.80,56.13,320.00,4.00,0.00,30.47,M,6.21,M,M,M,M,M,M,M,M,M,M,M,M,M,M,M,M,68.00,LFBA 120930Z AUTO 32004KT 270V360 CAVOK 20/11 Q1032 NOSIG,M
LFBA,LFBA,2019-09-12 10:00,71.60,51.80,49.64,310.00,4.00,0.00,30.47,M,6.21,M,M,M,M,M,M,M,M,M,M,M,M,M,M,M,M,71.60,LFBA 121000Z AUTO 31004KT 240V350 CAVOK 22/11 Q1032 NOSIG,M
LFBA,LFBA,2019-09-12 10:30,73.40,50.00,43.69,M,4.00,0.00,30.45,M,6.21,M,M,M,M,M,M,M,M,M,M,M,M,M,M,M,M,73.40,LFBA 121030Z AUTO VRB04KT CAVOK 23/10 Q1031 NOSIG,M
LFBA,LFBA,2019-09-12 11:00,77.00,50.00,38.74,M,3.00,0.00,30.45,M,6.21,M,M,M,M,M,M,M,M,M,M,M,M,M,M,M,M,77.00,LFBA 121100Z AUTO VRB03KT CAVOK 25/10 Q1031 NOSIG,M
LFBA,LFBA,2019-09-12 11:30,77.00,50.00,38.74,290.00,4.00,0.00,30.45,M,6.21,M,M,M,M,M,M,M,M,M,M,M,M,M,M,M,M,77.00,LFBA 121130Z AUTO 29004KT 210V360 CAVOK 25/10 Q1031 NOSIG,M
LFBA,LFBA,2019-09-12 12:00,78.80,50.00,36.51,280.00,5.00,0.00,30.45,M,6.21,M,M,M,M,M,M,M,M,M,M,M,M,M,M,M,M,78.80,LFBA 121200Z AUTO 28005KT 210V010 CAVOK 26/10 Q1031 NOSIG,M
LFBA,LFBA,2019-09-12 12:30,80.60,48.20,32.18,310.00,5.00,0.00,30.42,M,6.21,M,M,M,M,M,M,M,M,M,M,M,M,M,M,M,M,79.71,LFBA 121230Z AUTO 31005KT 220V010 CAVOK 27/09 Q1030 NOSIG,M
LFBA,LFBA,2019-09-12 13:00,80.60,48.20,32.18,340.00,6.00,0.00,30.42,M,6.21,M,M,M,M,M,M,M,M,M,M,M,M,M,M,M,M,79.71,LFBA 121300Z AUTO 34006KT 300V010 CAVOK 27/09 Q1030 NOSIG,M
LFBA,LFBA,2019-09-12 13:30,82.40,48.20,30.35,280.00,6.00,0.00,30.42,M,6.21,M,M,M,M,M,M,M,M,M,M,M,M,M,M,M,M,80.80,LFBA 121330Z AUTO 28006KT 230V340 CAVOK 28/09 Q1030 NOSIG,M
LFBA,LFBA,2019-09-12 14:00,82.40,46.40,28.36,350.00,6.00,0.00,30.42,M,6.21,M,M,M,M,M,M,M,M,M,M,M,M,M,M,M,M,80.64,LFBA 121400Z AUTO 35006KT 270V050 CAVOK 28/08 Q1030 NOSIG,M
LFBA,LFBA,2019-09-12 14:30,82.40,48.20,30.35,360.00,7.00,0.00,30.39,M,6.21,M,M,M,M,M,M,M,M,M,M,M,M,M,M,M,M,80.80,LFBA 121430Z AUTO 36007KT 310V080 CAVOK 28/09 Q1029 NOSIG,M
LFBA,LFBA,2019-09-12 15:00,82.40,48.20,30.35,10.00,6.00,0.00,30.39,M,6.21,M,M,M,M,M,M,M,M,M,M,M,M,M,M,M,M,80.80,LFBA 121500Z AUTO 01006KT 340V050 CAVOK 28/09 Q1029 NOSIG,M
LFBA,LFBA,2019-09-12 15:30,82.40,48.20,30.35,300.00,6.00,0.00,30.36,M,6.21,M,M,M,M,M,M,M,M,M,M,M,M,M,M,M,M,80.80,LFBA 121530Z AUTO 30006KT 240V010 CAVOK 28/09 Q1028 NOSIG,M
LFBA,LFBA,2019-09-12 16:00,82.40,48.20,30.35,30.00,4.00,0.00,30.36,M,6.21,M,M,M,M,M,M,M,M,M,M,M,M,M,M,M,M,80.80,LFBA 121600Z AUTO 03004KT 320V070 CAVOK 28/09 Q1028 NOSIG,M
LFBA,LFBA,2019-09-12 16:30,82.40,48.20,30.35,350.00,6.00,0.00,30.36,M,6.21,M,M,M,M,M,M,M,M,M,M,M,M,M,M,M,M,80.80,LFBA 121630Z AUTO 35006KT 280V020 CAVOK 28/09 Q1028 NOSIG,M
LFBA,LFBA,2019-09-12 17:00,82.40,50.00,32.46,280.00,5.00,0.00,30.36,M,6.21,M,M,M,M,M,M,M,M,M,M,M,M,M,M,M,M,80.99,LFBA 121700Z AUTO 28005KT 230V320 CAVOK 28/10 Q1028 NOSIG,M
LFBA,LFBA,2019-09-12 17:30,82.40,50.00,32.46,260.00,4.00,0.00,30.39,M,6.21,M,M,M,M,M,M,M,M,M,M,M,M,M,M,M,M,80.99,LFBA 121730Z AUTO 26004KT CAVOK 28/10 Q1029 NOSIG,M
LFBA,LFBA,2019-09-12 18:00,78.80,50.00,36.51,250.00,4.00,0.00,30.39,M,6.21,M,M,M,M,M,M,M,M,M,M,M,M,M,M,M,M,78.80,LFBA 121800Z AUTO 25004KT CAVOK 26/10 Q1029 NOSIG,M
LFBA,LFBA,2019-09-12 18:30,75.20,51.80,43.97,260.00,5.00,0.00,30.39,M,6.21,M,M,M,M,M,M,M,M,M,M,M,M,M,M,M,M,75.20,LFBA 121830Z AUTO 26005KT CAVOK 24/11 Q1029 NOSIG,M
LFBA,LFBA,2019-09-12 19:00,73.40,50.00,43.69,240.00,4.00,0.00,30.39,M,6.21,M,M,M,M,M,M,M,M,M,M,M,M,M,M,M,M,73.40,LFBA 121900Z AUTO 24004KT CAVOK 23/10 Q1029 NOSIG,M
LFBA,LFBA,2019-09-12 19:30,69.80,50.00,49.37,250.00,4.00,0.00,30.39,M,6.21,M,M,M,M,M,M,M,M,M,M,M,M,M,M,M,M,69.80,LFBA 121930Z AUTO 25004KT CAVOK 21/10 Q1029 NOSIG,M
LFBA,LFBA,2019-09-12 20:00,68.00,51.80,56.13,280.00,2.00,0.00,30.39,M,6.21,M,M,M,M,M,M,M,M,M,M,M,M,M,M,M,M,68.00,LFBA 122000Z AUTO 28002KT CAVOK 20/11 Q1029 NOSIG,M
LFBA,LFBA,2019-09-12 20:30,66.20,50.00,55.88,M,3.00,0.00,30.39,M,6.21,M,M,M,M,M,M,M,M,M,M,M,M,M,M,M,M,66.20,LFBA 122030Z AUTO VRB03KT CAVOK 19/10 Q1029,M
LFBA,LFBA,2019-09-12 21:00,64.40,51.80,63.60,250.00,3.00,0.00,30.39,M,6.21,M,M,M,M,M,M,M,M,M,M,M,M,M,M,M,M,64.40,LFBA 122100Z AUTO 25003KT 220V290 CAVOK 18/11 Q1029,M
LFBA,LFBA,2019-09-12 21:30,64.40,50.00,59.50,260.00,3.00,0.00,30.39,M,6.21,M,M,M,M,M,M,M,M,M,M,M,M,M,M,M,M,64.40,LFBA 122130Z AUTO 26003KT CAVOK 18/10 Q1029,M
LFBA,LFBA,2019-09-12 22:00,62.60,51.80,67.75,240.00,3.00,0.00,30.39,M,6.21,M,M,M,M,M,M,M,M,M,M,M,M,M,M,M,M,62.60,LFBA 122200Z AUTO 24003KT CAVOK 17/11 Q1029,M
LFBA,LFBA,2019-09-12 22:30,66.20,51.80,59.74,240.00,4.00,0.00,30.39,M,6.21,M,M,M,M,M,M,M,M,M,M,M,M,M,M,M,M,66.20,LFBA 122230Z AUTO 24004KT CAVOK 19/11 Q1029,M
LFBA,LFBA,2019-09-12 23:00,60.80,51.80,72.20,260.00,2.00,0.00,30.39,M,6.21,M,M,M,M,M,M,M,M,M,M,M,M,M,M,M,M,60.80,LFBA 122300Z AUTO 26002KT CAVOK 16/11 Q1029,M
LFBA,LFBA,2019-09-12 23:30,59.00,51.80,76.98,M,3.00,0.00,30.39,M,6.21,M,M,M,M,M,M,M,M,M,M,M,M,M,M,M,M,59.00,LFBA 122330Z AUTO VRB03KT CAVOK 15/11 Q1029,M
LFBC,LFBC,2019-09-12 00:00,55.40,53.60,93.65,350.00,3.00,0.00,30.42,M,6.21,M,M,M,M,M,M,M,M,M,M,M,M,M,M,M,M,55.40,LFBC 120000Z AUTO 35003KT CAVOK 13/12 Q1030,M
LFBC,LFBC,2019-09-12 00:30,55.40,53.60,93.65,350.00,2.00,0.00,30.42,M,6.21,M,M,M,M,M,M,M,M,M,M,M,M,M,M,M,M,55.40,LFBC 120030Z AUTO 35002KT CAVOK 13/12 Q1030,M
LFBC,LFBC,2019-09-12 01:00,53.60,51.80,93.60,350.00,5.00,0.00,30.42,M,6.21,M,M,M,M,M,M,M,M,M,M,M,M,M,M,M,M,53.60,LFBC 120100Z AUTO 35005KT CAVOK 12/11 Q1030,M
LFBC,LFBC,2019-09-12 01:30,53.60,51.80,93.60,350.00,5.00,0.00,30.42,M,6.21,M,M,M,M,M,M,M,M,M,M,M,M,M,M,M,M,53.60,LFBC 120130Z AUTO 35005KT CAVOK 12/11 Q1030,M
LFBC,LFBC,2019-09-12 02:00,53.60,53.60,100.00,360.00,4.00,0.00,30.42,M,6.21,M,M,M,M,M,M,M,M,M,M,M,M,M,M,M,M,53.60,LFBC 120200Z AUTO 36004KT CAVOK 12/12 Q1030,M
LFBC,LFBC,2019-09-12 02:30,53.60,53.60,100.00,360.00,4.00,0.00,30.42,M,6.21,M,M,M,M,M,M,M,M,M,M,M,M,M,M,M,M,53.60,LFBC 120230Z AUTO 36004KT CAVOK 12/12 Q1030,M
LFBC,LFBC,2019-09-12 03:00,53.60,53.60,100.00,10.00,3.00,0.00,30.39,M,6.21,M,NSC,M,M,M,M,M,M,M,BCFG,M,M,M,M,M,M,53.60,LFBC 120300Z AUTO 01003KT 9999 0700 R24/1000D BCFG NSC 12/12 Q1029,M
LFBC,LFBC,2019-09-12 03:30,48.20,46.40,93.45,0.00,0.00,0.00,30.42,M,0.87,M,SCT,M,M,M,600.00,M,M,M,BCFG,M,M,M,M,M,M,48.20,LFBC 120330Z AUTO 00000KT 1400 1300 R24/1100U BCFG SCT006 09/08 Q1030,M
LFBC,LFBC,2019-09-12 04:00,50.00,48.20,93.50,0.00,0.00,0.00,30.42,M,1.12,M,FEW,M,M,M,500.00,M,M,M,BCFG,M,M,M,M,M,M,50.00,LFBC 120400Z AUTO 00000KT 1800 0650 R24/0800D BCFG FEW005 10/09 Q1030,M
LFBC,LFBC,2019-09-12 04:30,50.00,48.20,93.50,0.00,0.00,0.00,30.42,M,1.55,M,SCT,M,M,M,500.00,M,M,M,BR,M,M,M,M,M,M,50.00,LFBC 120430Z AUTO 00000KT 2500 R24/1000U BR SCT005 10/09 Q1030,M
LFBC,LFBC,2019-09-12 05:00,48.20,48.20,100.00,0.00,0.00,0.00,30.42,M,6.21,M,BKN,M,M,M,300.00,M,M,M,M,M,M,M,M,M,M,48.20,LFBC 120500Z AUTO 00000KT 9999 2900 BKN003 09/09 Q1030 TEMPO 0300 BCFG,M
LFBC,LFBC,2019-09-12 05:30,51.80,51.80,100.00,350.00,2.00,0.00,30.45,M,6.21,M,OVC,M,M,M,300.00,M,M,M,M,M,M,M,M,M,M,51.80,LFBC 120530Z AUTO 35002KT 9999 OVC003 11/11 Q1031 TEMPO 0300 BCFG,M
LFBC,LFBC,2019-09-12 06:00,53.60,53.60,100.00,0.00,0.00,0.00,30.45,M,3.11,M,OVC,M,M,M,200.00,M,M,M,BR,M,M,M,M,M,M,53.60,LFBC 120600Z AUTO 00000KT 5000 1000 R24/1400N BR OVC002 12/12 Q1031 TEMPO 0300 BCFG,M
LFBC,LFBC,2019-09-12 06:30,57.20,57.20,100.00,360.00,5.00,0.00,30.45,M,0.62,M,VV ,M,M,M,M,M,M,M,BCFG,M,M,M,M,M,M,57.20,LFBC 120630Z AUTO 36005KT 1000 0650 R24/1800D BCFG VV/// 14/14 Q1031 BECMG 9999 NSW BKN003,M
LFBC,LFBC,2019-09-12 07:00,57.20,57.20,100.00,360.00,6.00,0.00,30.45,M,0.37,M,VV ,M,M,M,M,M,M,M,FG,M,M,M,M,M,M,57.20,LFBC 120700Z AUTO 36006KT 0600 0550 R24/0800N FG VV/// 14/14 Q1031 BECMG 9999 NSW BKN003,M
LFBC,LFBC,2019-09-12 07:30,57.20,57.20,100.00,350.00,6.00,0.00,30.47,M,0.34,M,VV ,M,M,M,M,M,M,M,FG,M,M,M,M,M,M,57.20,LFBC 120730Z AUTO 35006KT 0550 0500 R24/0800U FG VV/// 14/14 Q1032 BECMG 9999 NSW BKN003,M
LFBC,LFBC,2019-09-12 08:00,57.20,57.20,100.00,30.00,5.00,0.00,30.47,M,0.93,M,VV ,M,M,M,M,M,M,M,BR,M,M,M,M,M,M,57.20,LFBC 120800Z AUTO 03005KT 1500 R24/1300U BR VV/// 14/14 Q1032 BECMG 9999 NSW BKN003,M
LFBC,LFBC,2019-09-12 08:30,57.20,57.20,100.00,20.00,6.00,0.00,30.47,M,3.11,M,OVC,M,M,M,200.00,M,M,M,BR,M,M,M,M,M,M,57.20,LFBC 120830Z AUTO 02006KT 350V050 5000 BR OVC002 14/14 Q1032 BECMG NSC,M
LFBC,LFBC,2019-09-12 09:00,59.00,59.00,100.00,340.00,4.00,0.00,30.47,M,6.21,M,OVC,M,M,M,400.00,M,M,M,M,M,M,M,M,M,M,59.00,LFBC 120900Z AUTO 34004KT 300V020 9999 OVC004 15/15 Q1032 BECMG NSC,M
LFBC,LFBC,2019-09-12 09:30,62.60,60.80,93.83,M,3.00,0.00,30.47,M,6.21,M,BKN,M,M,M,500.00,M,M,M,M,M,M,M,M,M,M,62.60,LFBC 120930Z AUTO VRB03KT 9999 BKN005 17/16 Q1032 BECMG NSC,M
LFBC,LFBC,2019-09-12 10:00,66.20,59.00,77.60,M,2.00,0.00,30.47,M,6.21,M,M,M,M,M,M,M,M,M,M,M,M,M,M,M,M,66.20,LFBC 121000Z AUTO VRB02KT CAVOK 19/15 Q1032 NOSIG,M
LFBC,LFBC,2019-09-12 10:30,69.80,59.00,68.55,340.00,3.00,0.00,30.47,M,6.21,M,M,M,M,M,M,M,M,M,M,M,M,M,M,M,M,69.80,LFBC 121030Z AUTO 34003KT 270V080 CAVOK 21/15 Q1032 NOSIG,M
LFBC,LFBC,2019-09-12 11:00,71.60,53.60,53.03,M,3.00,0.00,30.47,M,6.21,M,M,M,M,M,M,M,M,M,M,M,M,M,M,M,M,71.60,LFBC 121100Z AUTO VRB03KT CAVOK 22/12 Q1032 NOSIG,M
LFBC,LFBC,2019-09-12 11:30,75.20,53.60,46.98,M,3.00,0.00,30.47,M,6.21,M,M,M,M,M,M,M,M,M,M,M,M,M,M,M,M,75.20,LFBC 121130Z AUTO VRB03KT CAVOK 24/12 Q1032 NOSIG,M
LFBC,LFBC,2019-09-12 12:00,77.00,50.00,38.74,350.00,5.00,0.00,30.45,M,6.21,M,M,M,M,M,M,M,M,M,M,M,M,M,M,M,M,77.00,LFBC 121200Z AUTO 35005KT 280V060 CAVOK 25/10 Q1031 NOSIG,M
LFBC,LFBC,2019-09-12 12:30,78.80,48.20,34.13,10.00,6.00,0.00,30.45,M,6.21,M,M,M,M,M,M,M,M,M,M,M,M,M,M,M,M,78.80,LFBC 121230Z AUTO 01006KT 310V070 CAVOK 26/09 Q1031 NOSIG,M
LFBC,LFBC,2019-09-12 13:00,78.80,48.20,34.13,350.00,7.00,0.00,30.45,M,6.21,M,M,M,M,M,M,M,M,M,M,M,M,M,M,M,M,78.80,LFBC 121300Z AUTO 35007KT 300V030 CAVOK 26/09 Q1031 NOSIG,M
LFBC,LFBC,2019-09-12 13:30,78.80,48.20,34.13,350.00,7.00,0.00,30.45,M,6.21,M,M,M,M,M,M,M,M,M,M,M,M,M,M,M,M,78.80,LFBC 121330Z AUTO 35007KT 300V020 CAVOK 26/09 Q1031 NOSIG,M
LFBC,LFBC,2019-09-12 14:00,78.80,53.60,41.69,340.00,6.00,0.00,30.42,M,6.21,M,M,M,M,M,M,M,M,M,M,M,M,M,M,M,M,78.80,LFBC 121400Z AUTO 34006KT 290V030 CAVOK 26/12 Q1030 NOSIG,M
LFBC,LFBC,2019-09-12 14:30,78.80,55.40,44.52,330.00,8.00,0.00,30.42,M,6.21,M,M,M,M,M,M,M,M,M,M,M,M,M,M,M,M,78.80,LFBC 121430Z AUTO 33008KT 300V020 CAVOK 26/13 Q1030 NOSIG,M
LFBC,LFBC,2019-09-12 15:00,75.20,53.60,46.98,310.00,11.00,0.00,30.39,M,6.21,M,M,M,M,M,M,M,M,M,M,M,M,M,M,M,M,75.20,LFBC 121500Z AUTO 31011KT CAVOK 24/12 Q1029 NOSIG,M
LFBC,LFBC,2019-09-12 15:30,75.20,53.60,46.98,320.00,11.00,0.00,30.39,M,6.21,M,NSC,M,M,M,M,M,M,M,M,M,M,M,M,M,M,75.20,LFBC 121530Z AUTO 32011KT 9999 NSC 24/12 Q1029 NOSIG,M
LFBC,LFBC,2019-09-12 16:00,75.20,51.80,43.97,330.00,10.00,0.00,30.39,M,6.21,M,M,M,M,M,M,M,M,M,M,M,M,M,M,M,M,75.20,LFBC 121600Z AUTO 33010KT CAVOK 24/11 Q1029 NOSIG,M
LFBC,LFBC,2019-09-12 16:30,75.20,53.60,46.98,330.00,10.00,0.00,30.39,M,6.21,M,M,M,M,M,M,M,M,M,M,M,M,M,M,M,M,75.20,LFBC 121630Z AUTO 33010KT CAVOK 24/12 Q1029 NOSIG,M
LFBC,LFBC,2019-09-12 17:00,73.40,51.80,46.71,330.00,10.00,0.00,30.39,M,6.21,M,M,M,M,M,M,M,M,M,M,M,M,M,M,M,M,73.40,LFBC 121700Z AUTO 33010KT CAVOK 23/11 Q1029 NOSIG,M
LFBC,LFBC,2019-09-12 17:30,71.60,53.60,53.03,330.00,10.00,0.00,30.39,M,6.21,M,M,M,M,M,M,M,M,M,M,M,M,M,M,M,M,71.60,LFBC 121730Z AUTO 33010KT 300V360 CAVOK 22/12 Q1029 NOSIG,M
LFBC,LFBC,2019-09-12 18:00,69.80,53.60,56.38,330.00,9.00,0.00,30.39,M,6.21,M,M,M,M,M,M,M,M,M,M,M,M,M,M,M,M,69.80,LFBC 121800Z AUTO 33009KT CAVOK 21/12 Q1029 NOSIG,M
LFBC,LFBC,2019-09-12 18:30,66.20,55.40,68.15,330.00,7.00,0.00,30.42,M,6.21,M,M,M,M,M,M,M,M,M,M,M,M,M,M,M,M,66.20,LFBC 121830Z AUTO 33007KT CAVOK 19/13 Q1030 NOSIG,M
LFBC,LFBC,2019-09-12 19:00,64.40,55.40,72.56,340.00,8.00,0.00,30.42,M,6.21,M,M,M,M,M,M,M,M,M,M,M,M,M,M,M,M,64.40,LFBC 121900Z AUTO 34008KT CAVOK 18/13 Q1030 NOSIG,M
LFBC,LFBC,2019-09-12 19:30,64.40,55.40,72.56,350.00,7.00,0.00,30.42,M,6.21,M,M,M,M,M,M,M,M,M,M,M,M,M,M,M,M,64.40,LFBC 121930Z AUTO 35007KT CAVOK 18/13 Q1030 NOSIG,M
LFBC,LFBC,2019-09-12 20:00,64.40,55.40,72.56,360.00,7.00,0.00,30.42,M,6.21,M,M,M,M,M,M,M,M,M,M,M,M,M,M,M,M,64.40,LFBC 122000Z AUTO 36007KT CAVOK 18/13 Q1030 NOSIG,M
LFBC,LFBC,2019-09-12 20:30,64.40,57.20,77.45,360.00,7.00,0.00,30.42,M,6.21,M,M,M,M,M,M,M,M,M,M,M,M,M,M,M,M,64.40,LFBC 122030Z AUTO 36007KT CAVOK 18/14 Q1030 NOSIG,M
LFBC,LFBC,2019-09-12 21:00,62.60,57.20,82.50,360.00,6.00,0.00,30.42,M,6.21,M,M,M,M,M,M,M,M,M,M,M,M,M,M,M,M,62.60,LFBC 122100Z AUTO 36006KT CAVOK 17/14 Q1030 NOSIG,M
LFBC,LFBC,2019-09-12 21:30,62.60,55.40,77.29,360.00,6.00,0.00,30.42,M,6.21,M,M,M,M,M,M,M,M,M,M,M,M,M,M,M,M,62.60,LFBC 122130Z AUTO 36006KT CAVOK 17/13 Q1030,M
LFBC,LFBC,2019-09-12 22:00,62.60,57.20,82.50,360.00,6.00,0.00,30.42,M,6.21,M,M,M,M,M,M,M,M,M,M,M,M,M,M,M,M,62.60,LFBC 122200Z AUTO 36006KT CAVOK 17/14 Q1030,M
LFBC,LFBC,2019-09-12 22:30,60.80,57.20,87.92,360.00,6.00,0.00,30.42,M,6.21,M,M,M,M,M,M,M,M,M,M,M,M,M,M,M,M,60.80,LFBC 122230Z AUTO 36006KT CAVOK 16/14 Q1030,M
LFBC,LFBC,2019-09-12 23:00,60.80,57.20,87.92,10.00,7.00,0.00,30.42,M,6.21,M,M,M,M,M,M,M,M,M,M,M,M,M,M,M,M,60.80,LFBC 122300Z AUTO 01007KT CAVOK 16/14 Q1030,M
LFBC,LFBC,2019-09-12 23:30,60.80,59.00,93.79,360.00,8.00,0.00,30.39,M,6.21,M,M,M,M,M,M,M,M,M,M,M,M,M,M,M,M,60.80,LFBC 122330Z AUTO 36008KT CAVOK 16/15 Q1029,M
LFBD,LFBD,2019-09-12 00:00,55.40,51.80,87.65,290.00,3.00,0.00,30.42,M,6.21,M,M,M,M,M,M,M,M,M,M,M,M,M,M,M,M,55.40,LFBD 120000Z AUTO 29003KT 260V320 CAVOK 13/11 Q1030 TEMPO 1500 BCFG,M
LFBD,LFBD,2019-09-12 00:30,55.40,51.80,87.65,330.00,3.00,0.00,30.42,M,6.21,M,M,M,M,M,M,M,M,M,M,M,M,M,M,M,M,55.40,LFBD 120030Z AUTO 33003KT CAVOK 13/11 Q1030 TEMPO 1500 BCFG,M
LFBD,LFBD,2019-09-12 01:00,55.40,51.80,87.65,M,2.00,0.00,30.42,M,6.21,M,NSC,M,M,M,M,M,M,M,M,M,M,M,M,M,M,55.40,LFBD 120100Z AUTO VRB02KT 9999 2900 NSC 13/11 Q1030 TEMPO 1500 BCFG,M
LFBD,LFBD,2019-09-12 01:30,55.40,53.60,93.65,M,2.00,0.00,30.42,M,6.21,M,NSC,M,M,M,M,M,M,M,M,M,M,M,M,M,M,55.40,LFBD 120130Z AUTO VRB02KT 9999 3200 R05/1000U NSC 13/12 Q1030 TEMPO 1500 BCFG,M
LFBD,LFBD,2019-09-12 02:00,55.40,53.60,93.65,M,2.00,0.00,30.42,M,6.21,M,NSC,M,M,M,M,M,M,M,M,M,M,M,M,M,M,55.40,LFBD 120200Z AUTO VRB02KT 9999 1000 R23/P2300 R05/1200D R29/P2300 NSC 13/12 Q1030 TEMPO 1500 BCFG,M
LFBD,LFBD,2019-09-12 02:30,55.40,53.60,93.65,360.00,5.00,0.00,30.42,M,6.21,M,M,M,M,M,M,M,M,M,M,M,M,M,M,M,M,55.40,LFBD 120230Z AUTO 36005KT 350V050 CAVOK 13/12 Q1030 TEMPO 1500 BCFG,M
LFBD,LFBD,2019-09-12 03:00,55.40,53.60,93.65,10.00,3.00,0.00,30.39,M,6.21,M,NSC,M,M,M,M,M,M,M,BCFG,M,M,M,M,M,M,55.40,LFBD 120300Z AUTO 01003KT 9999 0550 R23/P2300 R05/0700D R29/P2300 BCFG NSC 13/12 Q1029 TEMPO 1500 BCFG,M
LFBD,LFBD,2019-09-12 03:30,55.40,53.60,93.65,M,2.00,0.00,30.42,M,6.21,M,NSC,M,M,M,M,M,M,M,BCFG,M,M,M,M,M,M,55.40,LFBD 120330Z AUTO VRB02KT 9999 0650 R23/P2300 R05/0800N R29/P2300 BCFG NSC 13/12 Q1030 TEMPO 0700 FG VV///,M
LFBD,LFBD,2019-09-12 04:00,55.40,53.60,93.65,M,2.00,0.00,30.42,M,2.11,M,FEW,M,M,M,300.00,M,M,M,BCFG,M,M,M,M,M,M,55.40,LFBD 120400Z AUTO VRB02KT 3400 0400 R23/1700U R05/0750U R29/P2300 BCFG FEW003 13/12 Q1030 TEMPO 0700 FG VV///,M
LFBD,LFBD,2019-09-12 04:30,53.60,53.60,100.00,M,3.00,0.00,30.42,M,0.56,M,FEW,M,M,M,500.00,M,M,M,FG,M,M,M,M,M,M,53.60,LFBD 120430Z AUTO VRB03KT 0900 0450 R23/0800D R05/0800U R29/1400U FG FEW005 12/12 Q1030 TEMPO 0700 FG VV///,M
LFBD,LFBD,2019-09-12 05:00,53.60,51.80,93.60,280.00,3.00,0.00,30.42,M,6.21,M,NSC,M,M,M,M,M,M,M,BCFG,M,M,M,M,M,M,53.60,LFBD 120500Z AUTO 28003KT 9999 0500 R23/P2300 R05/0600N R29/1900U BCFG NSC 12/11 Q1030 TEMPO 0700 FG VV///,M
LFBD,LFBD,2019-09-12 05:30,53.60,53.60,100.00,M,2.00,0.00,30.45,M,0.87,M,FEW,M,M,M,200.00,M,M,M,BCFG,M,M,M,M,M,M,53.60,LFBD 120530Z AUTO VRB02KT 1400 0350 R23/1400D R05/0450N R29/1600U BCFG FEW002 12/12 Q1031 TEMPO 0600 BCFG,M
LFBD,LFBD,2019-09-12 06:00,53.60,53.60,100.00,280.00,2.00,0.00,30.45,M,0.31,M,VV ,M,M,M,M,M,M,M,FG,M,M,M,M,M,M,53.60,LFBD 120600Z AUTO 28002KT 0500 0250 R23/0900U R05/0300N R29/0900D FG VV/// 12/12 Q1031 TEMPO 0600 BCFG SCT005,M
LFBD,LFBD,2019-09-12 06:30,53.60,51.80,93.60,M,3.00,0.00,30.45,M,0.16,M,VV ,M,M,M,M,M,M,M,FG,M,M,M,M,M,M,53.60,LFBD 120630Z AUTO VRB03KT 0250 0200 R23/0400U R05/0375U R29/0350U FG VV/// 12/11 Q1031 BECMG CAVOK,M
LFBD,LFBD,2019-09-12 07:00,53.60,53.60,100.00,290.00,3.00,0.00,30.47,M,0.25,M,VV ,M,M,M,M,M,M,M,FG,M,M,M,M,M,M,53.60,LFBD 120700Z AUTO 29003KT 260V320 0400 0300 R23/0650U R05/0450N R29/0400N FG VV/// 12/12 Q1032 BECMG CAVOK,M
LFBD,LFBD,2019-09-12 07:30,55.40,53.60,93.65,M,2.00,0.00,30.47,M,0.37,M,VV ,M,M,M,M,M,M,M,FG,M,M,M,M,M,M,55.40,LFBD 120730Z AUTO VRB02KT 0600 0400 R23/0900N R05/0550N R29/0800U FG VV/// 13/12 Q1032 BECMG CAVOK,M
LFBD,LFBD,2019-09-12 08:00,57.20,55.40,93.69,M,3.00,0.00,30.47,M,0.40,M,VV ,M,M,M,M,M,M,M,FG,M,M,M,M,M,M,57.20,LFBD 120800Z AUTO VRB03KT 0650 0400 R23/1100D R05/0550N R29/1100U FG VV/// 14/13 Q1032 BECMG CAVOK,M
LFBD,LFBD,2019-09-12 08:30,59.00,57.20,93.74,340.00,5.00,0.00,30.47,M,3.11,M,OVC,M,M,M,200.00,M,M,M,BR,M,M,M,M,M,M,59.00,LFBD 120830Z AUTO 34005KT 310V050 5000 BR OVC002 15/14 Q1032 BECMG NSC,M
LFBD,LFBD,2019-09-12 09:00,62.60,57.20,82.50,350.00,5.00,0.00,30.47,M,6.21,M,SCT,M,M,M,400.00,M,M,M,M,M,M,M,M,M,M,62.60,LFBD 120900Z AUTO 35005KT 320V040 9999 SCT004 17/14 Q1032 NOSIG,M
LFBD,LFBD,2019-09-12 09:30,66.20,57.20,72.74,10.00,3.00,0.00,30.47,M,6.21,M,M,M,M,M,M,M,M,M,M,M,M,M,M,M,M,66.20,LFBD 120930Z AUTO 01003KT 260V070 CAVOK 19/14 Q1032 NOSIG,M
LFBD,LFBD,2019-09-12 10:00,68.00,57.20,68.35,M,3.00,0.00,30.47,M,6.21,M,M,M,M,M,M,M,M,M,M,M,M,M,M,M,M,68.00,LFBD 121000Z AUTO VRB03KT CAVOK 20/14 Q1032 NOSIG,M
LFBD,LFBD,2019-09-12 10:30,69.80,57.20,64.26,M,2.00,0.00,30.47,M,6.21,M,M,M,M,M,M,M,M,M,M,M,M,M,M,M,M,69.80,LFBD 121030Z AUTO VRB02KT CAVOK 21/14 Q1032 NOSIG,M
LFBD,LFBD,2019-09-12 11:00,73.40,57.20,56.88,M,3.00,0.00,30.47,M,6.21,M,M,M,M,M,M,M,M,M,M,M,M,M,M,M,M,73.40,LFBD 121100Z AUTO VRB03KT CAVOK 23/14 Q1032 NOSIG,M
LFBD,LFBD,2019-09-12 11:30,75.20,55.40,50.17,M,2.00,0.00,30.47,M,6.21,M,M,M,M,M,M,M,M,M,M,M,M,M,M,M,M,75.20,LFBD 121130Z AUTO VRB02KT CAVOK 24/13 Q1032 NOSIG,M
LFBD,LFBD,2019-09-12 12:00,77.00,53.60,44.25,50.00,4.00,0.00,30.47,M,6.21,M,M,M,M,M,M,M,M,M,M,M,M,M,M,M,M,77.00,LFBD 121200Z AUTO 05004KT 010V090 CAVOK 25/12 Q1032 NOSIG,M
LFBD,LFBD,2019-09-12 12:30,77.00,51.80,41.42,M,3.00,0.00,30.45,M,6.21,M,M,M,M,M,M,M,M,M,M,M,M,M,M,M,M,77.00,LFBD 121230Z AUTO VRB03KT CAVOK 25/11 Q1031 NOSIG,M
LFBD,LFBD,2019-09-12 13:00,78.80,51.80,39.02,40.00,4.00,0.00,30.45,M,6.21,M,M,M,M,M,M,M,M,M,M,M,M,M,M,M,M,78.80,LFBD 121300Z AUTO 04004KT 320V110 CAVOK 26/11 Q1031 NOSIG,M
LFBD,LFBD,2019-09-12 13:30,78.80,51.80,39.02,40.00,5.00,0.00,30.45,M,6.21,M,M,M,M,M,M,M,M,M,M,M,M,M,M,M,M,78.80,LFBD 121330Z AUTO 04005KT 360V090 CAVOK 26/11 Q1031 NOSIG,M
LFBD,LFBD,2019-09-12 14:00,78.80,51.80,39.02,20.00,5.00,0.00,30.45,M,6.21,M,M,M,M,M,M,M,M,M,M,M,M,M,M,M,M,78.80,LFBD 121400Z AUTO 02005KT 330V080 CAVOK 26/11 Q1031 NOSIG,M
LFBD,LFBD,2019-09-12 14:30,80.60,51.80,36.79,60.00,5.00,0.00,30.42,M,6.21,M,M,M,M,M,M,M,M,M,M,M,M,M,M,M,M,80.08,LFBD 121430Z AUTO 06005KT 010V140 CAVOK 27/11 Q1030 NOSIG,M
LFBD,LFBD,2019-09-12 15:00,78.80,51.80,39.02,20.00,5.00,0.00,30.42,M,6.21,M,M,M,M,M,M,M,M,M,M,M,M,M,M,M,M,78.80,LFBD 121500Z AUTO 02005KT 300V100 CAVOK 26/11 Q1030 NOSIG,M
LFBD,LFBD,2019-09-12 15:30,80.60,51.80,36.79,30.00,6.00,0.00,30.39,M,6.21,M,M,M,M,M,M,M,M,M,M,M,M,M,M,M,M,80.08,LFBD 121530Z AUTO 03006KT 350V070 CAVOK 27/11 Q1029 NOSIG,M
LFBD,LFBD,2019-09-12 16:00,80.60,51.80,36.79,20.00,8.00,0.00,30.39,M,6.21,M,M,M,M,M,M,M,M,M,M,M,M,M,M,M,M,80.08,LFBD 121600Z AUTO 02008KT 340V060 CAVOK 27/11 Q1029 NOSIG,M
LFBD,LFBD,2019-09-12 16:30,80.60,50.00,34.41,20.00,9.00,0.00,30.39,M,6.21,M,M,M,M,M,M,M,M,M,M,M,M,M,M,M,M,79.88,LFBD 121630Z AUTO 02009KT 350V060 CAVOK 27/10 Q1029 NOSIG,M
LFBD,LFBD,2019-09-12 17:00,78.80,50.00,36.51,10.00,8.00,0.00,30.39,M,6.21,M,M,M,M,M,M,M,M,M,M,M,M,M,M,M,M,78.80,LFBD 121700Z AUTO 01008KT 350V070 CAVOK 26/10 Q1029 NOSIG,M
LFBD,LFBD,2019-09-12 17:30,78.80,51.80,39.02,360.00,7.00,0.00,30.39,M,6.21,M,M,M,M,M,M,M,M,M,M,M,M,M,M,M,M,78.80,LFBD 121730Z AUTO 36007KT 340V050 CAVOK 26/11 Q1029 NOSIG,M
LFBD,LFBD,2019-09-12 18:00,77.00,51.80,41.42,360.00,5.00,0.00,30.42,M,6.21,M,M,M,M,M,M,M,M,M,M,M,M,M,M,M,M,77.00,LFBD 121800Z AUTO 36005KT 330V060 CAVOK 25/11 Q1030 NOSIG,M
LFBD,LFBD,2019-09-12 18:30,73.40,51.80,46.71,340.00,7.00,0.00,30.42,M,6.21,M,M,M,M,M,M,M,M,M,M,M,M,M,M,M,M,73.40,LFBD 121830Z AUTO 34007KT 300V030 CAVOK 23/11 Q1030 NOSIG,M
LFBD,LFBD,2019-09-12 19:00,71.60,57.20,60.44,330.00,5.00,0.00,30.42,M,6.21,M,M,M,M,M,M,M,M,M,M,M,M,M,M,M,M,71.60,LFBD 121900Z AUTO 33005KT CAVOK 22/14 Q1030 NOSIG,M
LFBD,LFBD,2019-09-12 19:30,69.80,57.20,64.26,330.00,4.00,0.00,30.42,M,6.21,M,M,M,M,M,M,M,M,M,M,M,M,M,M,M,M,69.80,LFBD 121930Z AUTO 33004KT 260V010 CAVOK 21/14 Q1030 NOSIG,M
LFBD,LFBD,2019-09-12 20:00,68.00,57.20,68.35,M,2.00,0.00,30.42,M,6.21,M,M,M,M,M,M,M,M,M,M,M,M,M,M,M,M,68.00,LFBD 122000Z AUTO VRB02KT CAVOK 20/14 Q1030 NOSIG,M
LFBD,LFBD,2019-09-12 20:30,66.20,57.20,72.74,320.00,3.00,0.00,30.42,M,6.21,M,M,M,M,M,M,M,M,M,M,M,M,M,M,M,M,66.20,LFBD 122030Z AUTO 32003KT 260V040 CAVOK 19/14 Q1030 NOSIG,M
LFBD,LFBD,2019-09-12 21:00,66.20,57.20,72.74,340.00,3.00,0.00,30.42,M,6.21,M,M,M,M,M,M,M,M,M,M,M,M,M,M,M,M,66.20,LFBD 122100Z AUTO 34003KT 310V050 CAVOK 19/14 Q1030 NOSIG,M
LFBD,LFBD,2019-09-12 21:30,66.20,57.20,72.74,350.00,5.00,0.00,30.42,M,6.21,M,M,M,M,M,M,M,M,M,M,M,M,M,M,M,M,66.20,LFBD 122130Z AUTO 35005KT 330V030 CAVOK 19/14 Q1030 NOSIG,M
LFBD,LFBD,2019-09-12 22:00,64.40,59.00,82.62,350.00,4.00,0.00,30.42,M,6.21,M,M,M,M,M,M,M,M,M,M,M,M,M,M,M,M,64.40,LFBD 122200Z AUTO 35004KT 320V030 CAVOK 18/15 Q1030 NOSIG,M
LFBD,LFBD,2019-09-12 22:30,64.40,59.00,82.62,10.00,4.00,0.00,30.42,M,6.21,M,M,M,M,M,M,M,M,M,M,M,M,M,M,M,M,64.40,LFBD 122230Z AUTO 01004KT CAVOK 18/15 Q1030 NOSIG,M
LFBD,LFBD,2019-09-12 23:00,64.40,59.00,82.62,360.00,4.00,0.00,30.42,M,6.21,M,M,M,M,M,M,M,M,M,M,M,M,M,M,M,M,64.40,LFBD 122300Z AUTO 36004KT 340V050 CAVOK 18/15 Q1030 NOSIG,M
LFBD,LFBD,2019-09-12 23:30,64.40,60.80,88.09,10.00,6.00,0.00,30.42,M,6.21,M,M,M,M,M,M,M,M,M,M,M,M,M,M,M,M,64.40,LFBD 122330Z AUTO 01006KT CAVOK 18/16 Q1030 NOSIG,M
LFBE,LFBE,2019-09-12 00:00,53.60,48.20,81.87,270.00,2.00,0.00,30.42,M,6.21,M,M,M,M,M,M,M,M,M,M,M,M,M,M,M,M,53.60,LFBE 120000Z AUTO 27002KT CAVOK 12/09 Q1030 NOSIG,M
LFBE,LFBE,2019-09-12 00:30,53.60,50.00,87.56,260.00,3.00,0.00,30.42,M,6.21,M,M,M,M,M,M,M,M,M,M,M,M,M,M,M,M,53.60,LFBE 120030Z AUTO 26003KT CAVOK 12/10 Q1030 NOSIG,M
LFBE,LFBE,2019-09-12 01:00,53.60,50.00,87.56,260.00,2.00,0.00,30.42,M,6.21,M,M,M,M,M,M,M,M,M,M,M,M,M,M,M,M,53.60,LFBE 120100Z AUTO 26002KT CAVOK 12/10 Q1030 NOSIG,M
LFBE,LFBE,2019-09-12 01:30,51.80,48.20,87.47,290.00,2.00,0.00,30.42,M,6.21,M,M,M,M,M,M,M,M,M,M,M,M,M,M,M,M,51.80,LFBE 120130Z AUTO 29002KT CAVOK 11/09 Q1030 NOSIG,M
LFBE,LFBE,2019-09-12 02:00,51.80,50.00,93.55,280.00,3.00,0.00,30.39,M,6.21,M,M,M,M,M,M,M,M,M,M,M,M,M,M,M,M,51.80,LFBE 120200Z AUTO 28003KT CAVOK 11/10 Q1029 NOSIG,M
LFBE,LFBE,2019-09-12 02:30,51.80,50.00,93.55,260.00,2.00,0.00,30.39,M,6.21,M,M,M,M,M,M,M,M,M,M,M,M,M,M,M,M,51.80,LFBE 120230Z AUTO 26002KT CAVOK 11/10 Q1029 TEMPO 3000 BR,M
LFBE,LFBE,2019-09-12 03:00,50.00,46.40,87.37,0.00,0.00,0.00,30.39,M,6.21,M,M,M,M,M,M,M,M,M,M,M,M,M,M,M,M,50.00,LFBE 120300Z AUTO 00000KT CAVOK 10/08 Q1029 TEMPO 3000 BR,M
LFBE,LFBE,2019-09-12 03:30,50.00,48.20,93.50,0.00,0.00,0.00,30.39,M,6.21,M,NSC,M,M,M,M,M,M,M,M,M,M,M,M,M,M,50.00,LFBE 120330Z AUTO 00000KT 9999 2800 NSC 10/09 Q1029 TEMPO 3000 BR,M
LFBE,LFBE,2019-09-12 04:00,48.20,46.40,93.45,0.00,0.00,0.00,30.39,M,6.21,M,M,M,M,M,M,M,M,M,M,M,M,M,M,M,M,48.20,LFBE 120400Z AUTO 00000KT CAVOK 09/08 Q1029 TEMPO 3000 BR,M
LFBE,LFBE,2019-09-12 04:30,48.20,46.40,93.45,80.00,2.00,0.00,30.39,M,6.21,M,M,M,M,M,M,M,M,M,M,M,M,M,M,M,M,48.20,LFBE 120430Z AUTO 08002KT CAVOK 09/08 Q1029 TEMPO 3000 BR,M
LFBE,LFBE,2019-09-12 05:00,48.20,46.40,93.45,M,1.00,0.00,30.42,M,6.21,M,M,M,M,M,M,M,M,M,M,M,M,M,M,M,M,48.20,LFBE 120500Z AUTO VRB01KT CAVOK 09/08 Q1030 TEMPO 3000 BR,M
LFBE,LFBE,2019-09-12 05:30,46.40,44.60,93.40,160.00,3.00,0.00,30.42,M,6.21,M,M,M,M,M,M,M,M,M,M,M,M,M,M,M,M,45.15,LFBE 120530Z AUTO 16003KT CAVOK 08/07 Q1030 TEMPO 4000 BR,M
LFBE,LFBE,2019-09-12 06:00,46.40,44.60,93.40,0.00,0.00,0.00,30.42,M,6.21,M,M,M,M,M,M,M,M,M,M,M,M,M,M,M,M,46.40,LFBE 120600Z AUTO 00000KT CAVOK 08/07 Q1030 TEMPO 4000 BR,M
LFBE,LFBE,2019-09-12 06:30,50.00,50.00,100.00,70.00,2.00,0.00,30.45,M,6.21,M,M,M,M,M,M,M,M,M,M,M,M,M,M,M,M,50.00,LFBE 120630Z AUTO 07002KT CAVOK 10/10 Q1031 NOSIG,M
LFBE,LFBE,2019-09-12 07:00,53.60,51.80,93.60,0.00,0.00,0.00,30.45,M,6.21,M,M,M,M,M,M,M,M,M,M,M,M,M,M,M,M,53.60,LFBE 120700Z AUTO 00000KT CAVOK 12/11 Q1031 NOSIG,M
LFBE,LFBE,2019-09-12 07:30,55.40,53.60,93.65,M,2.00,0.00,30.45,M,6.21,M,M,M,M,M,M,M,M,M,M,M,M,M,M,M,M,55.40,LFBE 120730Z AUTO VRB02KT CAVOK 13/12 Q1031 NOSIG,M
LFBE,LFBE,2019-09-12 08:00,59.00,51.80,76.98,270.00,4.00,0.00,30.45,M,6.21,M,M,M,M,M,M,M,M,M,M,M,M,M,M,M,M,59.00,LFBE 120800Z AUTO 27004KT 240V320 CAVOK 15/11 Q1031 NOSIG,M
LFBE,LFBE,2019-09-12 08:30,62.60,53.60,72.38,M,3.00,0.00,30.47,M,6.21,M,M,M,M,M,M,M,M,M,M,M,M,M,M,M,M,62.60,LFBE 120830Z AUTO VRB03KT CAVOK 17/12 Q1032 NOSIG,M
LFBE,LFBE,2019-09-12 09:00,66.20,51.80,59.74,M,3.00,0.00,30.47,M,6.21,M,M,M,M,M,M,M,M,M,M,M,M,M,M,M,M,66.20,LFBE 120900Z AUTO VRB03KT CAVOK 19/11 Q1032 NOSIG,M
LFBE,LFBE,2019-09-12 09:30,69.80,51.80,52.77,20.00,3.00,0.00,30.47,M,6.21,M,M,M,M,M,M,M,M,M,M,M,M,M,M,M,M,69.80,LFBE 120930Z AUTO 02003KT 340V060 CAVOK 21/11 Q1032 NOSIG,M
LFBE,LFBE,2019-09-12 10:00,73.40,51.80,46.71,M,2.00,0.00,30.47,M,6.21,M,M,M,M,M,M,M,M,M,M,M,M,M,M,M,M,73.40,LFBE 121000Z AUTO VRB02KT CAVOK 23/11 Q1032 NOSIG,M
LFBE,LFBE,2019-09-12 10:30,75.20,51.80,43.97,270.00,4.00,0.00,30.47,M,6.21,M,M,M,M,M,M,M,M,M,M,M,M,M,M,M,M,75.20,LFBE 121030Z AUTO 27004KT 190V320 CAVOK 24/11 Q1032 NOSIG,M
LFBE,LFBE,2019-09-12 11:00,77.00,53.60,44.25,250.00,4.00,0.00,30.45,M,6.21,M,M,M,M,M,M,M,M,M,M,M,M,M,M,M,M,77.00,LFBE 121100Z AUTO 25004KT 160V310 CAVOK 25/12 Q1031 NOSIG,M
LFBE,LFBE,2019-09-12 11:30,78.80,51.80,39.02,M,3.00,0.00,30.45,M,6.21,M,M,M,M,M,M,M,M,M,M,M,M,M,M,M,M,78.80,LFBE 121130Z AUTO VRB03KT CAVOK 26/11 Q1031 NOSIG,M
LFBE,LFBE,2019-09-12 12:00,80.60,50.00,34.41,M,5.00,0.00,30.45,M,6.21,M,M,M,M,M,M,M,M,M,M,M,M,M,M,M,M,79.88,LFBE 121200Z AUTO VRB05KT CAVOK 27/10 Q1031 NOSIG,M
LFBE,LFBE,2019-09-12 12:30,82.40,50.00,32.46,330.00,6.00,0.00,30.45,M,6.21,M,M,M,M,M,M,M,M,M,M,M,M,M,M,M,M,80.99,LFBE 121230Z AUTO 33006KT 260V040 CAVOK 28/10 Q1031 NOSIG,M
LFBE,LFBE,2019-09-12 13:00,82.40,48.20,30.35,350.00,7.00,0.00,30.42,M,6.21,M,M,M,M,M,M,M,M,M,M,M,M,M,M,M,M,80.80,LFBE 121300Z AUTO 35007KT 310V020 CAVOK 28/09 Q1030 NOSIG,M
LFBE,LFBE,2019-09-12 13:30,82.40,48.20,30.35,340.00,5.00,0.00,30.42,M,6.21,M,M,M,M,M,M,M,M,M,M,M,M,M,M,M,M,80.80,LFBE 121330Z AUTO 34005KT 270V040 CAVOK 28/09 Q1030 NOSIG,M
LFBE,LFBE,2019-09-12 14:00,84.20,48.20,28.63,330.00,6.00,0.00,30.42,M,6.21,M,M,M,M,M,M,M,M,M,M,M,M,M,M,M,M,82.04,LFBE 121400Z AUTO 33006KT 270V040 CAVOK 29/09 Q1030 NOSIG,M
LFBE,LFBE,2019-09-12 14:30,84.20,48.20,28.63,10.00,4.00,0.00,30.39,M,6.21,M,M,M,M,M,M,M,M,M,M,M,M,M,M,M,M,82.04,LFBE 121430Z AUTO 01004KT 280V080 CAVOK 29/09 Q1029 NOSIG,M
LFBE,LFBE,2019-09-12 15:00,84.20,48.20,28.63,330.00,6.00,0.00,30.39,M,6.21,M,M,M,M,M,M,M,M,M,M,M,M,M,M,M,M,82.04,LFBE 121500Z AUTO 33006KT 290V010 CAVOK 29/09 Q1029 NOSIG,M
LFBE,LFBE,2019-09-12 15:30,84.20,50.00,30.62,340.00,6.00,0.00,30.39,M,6.21,M,M,M,M,M,M,M,M,M,M,M,M,M,M,M,M,82.24,LFBE 121530Z AUTO 34006KT 310V010 CAVOK 29/10 Q1029 NOSIG,M
LFBE,LFBE,2019-09-12 16:00,84.20,50.00,30.62,350.00,7.00,0.00,30.36,M,6.21,M,M,M,M,M,M,M,M,M,M,M,M,M,M,M,M,82.24,LFBE 121600Z AUTO 35007KT 310V030 CAVOK 29/10 Q1028 NOSIG,M
LFBE,LFBE,2019-09-12 16:30,84.20,50.00,30.62,360.00,5.00,0.00,30.39,M,6.21,M,M,M,M,M,M,M,M,M,M,M,M,M,M,M,M,82.24,LFBE 121630Z AUTO 36005KT 330V050 CAVOK 29/10 Q1029 NOSIG,M
LFBE,LFBE,2019-09-12 17:00,82.40,48.20,30.35,350.00,6.00,0.00,30.36,M,6.21,M,M,M,M,M,M,M,M,M,M,M,M,M,M,M,M,80.80,LFBE 121700Z AUTO 35006KT 320V020 CAVOK 28/09 Q1028 NOSIG,M
LFBE,LFBE,2019-09-12 17:30,80.60,48.20,32.18,360.00,5.00,0.00,30.36,M,6.21,M,M,M,M,M,M,M,M,M,M,M,M,M,M,M,M,79.71,LFBE 121730Z AUTO 36005KT CAVOK 27/09 Q1028 NOSIG,M
LFBE,LFBE,2019-09-12 18:00,78.80,48.20,34.13,340.00,3.00,0.00,30.36,M,6.21,M,M,M,M,M,M,M,M,M,M,M,M,M,M,M,M,78.80,LFBE 121800Z AUTO 34003KT CAVOK 26/09 Q1028 NOSIG,M
LFBE,LFBE,2019-09-12 18:30,73.40,48.20,40.85,310.00,3.00,0.00,30.39,M,6.21,M,M,M,M,M,M,M,M,M,M,M,M,M,M,M,M,73.40,LFBE 121830Z AUTO 31003KT CAVOK 23/09 Q1029 NOSIG,M
LFBE,LFBE,2019-09-12 19:00,68.00,50.00,52.51,230.00,4.00,0.00,30.39,M,6.21,M,M,M,M,M,M,M,M,M,M,M,M,M,M,M,M,68.00,LFBE 121900Z AUTO 23004KT CAVOK 20/10 Q1029 NOSIG,M
LFBE,LFBE,2019-09-12 19:30,64.40,51.80,63.60,230.00,3.00,0.00,30.39,M,6.21,M,M,M,M,M,M,M,M,M,M,M,M,M,M,M,M,64.40,LFBE 121930Z AUTO 23003KT CAVOK 18/11 Q1029 NOSIG,M
LFBE,LFBE,2019-09-12 20:00,62.60,50.00,63.38,240.00,3.00,0.00,30.39,M,6.21,M,M,M,M,M,M,M,M,M,M,M,M,M,M,M,M,62.60,LFBE 122000Z AUTO 24003KT CAVOK 17/10 Q1029 NOSIG,M
LFBE,LFBE,2019-09-12 20:30,62.60,50.00,63.38,260.00,2.00,0.00,30.39,M,6.21,M,M,M,M,M,M,M,M,M,M,M,M,M,M,M,M,62.60,LFBE 122030Z AUTO 26002KT CAVOK 17/10 Q1029,M
LFBE,LFBE,2019-09-12 21:00,60.80,50.00,67.54,230.00,3.00,0.00,30.39,M,6.21,M,M,M,M,M,M,M,M,M,M,M,M,M,M,M,M,60.80,LFBE 122100Z AUTO 23003KT CAVOK 16/10 Q1029,M
LFBE,LFBE,2019-09-12 21:30,60.80,50.00,67.54,M,2.00,0.00,30.39,M,6.21,M,M,M,M,M,M,M,M,M,M,M,M,M,M,M,M,60.80,LFBE 122130Z AUTO VRB02KT CAVOK 16/10 Q1029,M
LFBE,LFBE,2019-09-12 22:00,59.00,50.00,72.01,280.00,3.00,0.00,30.39,M,6.21,M,M,M,M,M,M,M,M,M,M,M,M,M,M,M,M,59.00,LFBE 122200Z AUTO 28003KT CAVOK 15/10 Q1029,M
LFBE,LFBE,2019-09-12 22:30,59.00,50.00,72.01,M,3.00,0.00,30.39,M,6.21,M,M,M,M,M,M,M,M,M,M,M,M,M,M,M,M,59.00,LFBE 122230Z AUTO VRB03KT CAVOK 15/10 Q1029,M
LFBE,LFBE,2019-09-12 23:00,57.20,48.20,71.83,M,3.00,0.00,30.39,M,6.21,M,M,M,M,M,M,M,M,M,M,M,M,M,M,M,M,57.20,LFBE 122300Z AUTO VRB03KT CAVOK 14/09 Q1029,M
LFBE,LFBE,2019-09-12 23:30,55.40,48.20,76.66,M,1.00,0.00,30.39,M,6.21,M,M,M,M,M,M,M,M,M,M,M,M,M,M,M,M,55.40,LFBE 122330Z AUTO VRB01KT CAVOK 13/09 Q1029 NOSIG,M
LFBG,LFBG,2019-09-12 00:00,55.40,51.80,87.65,240.00,2.00,0.00,30.42,M,6.21,M,M,M,M,M,M,M,M,M,M,M,M,M,M,M,M,55.40,LFBG 120000Z AUTO 24002KT CAVOK 13/11 Q1030,M
LFBG,LFBG,2019-09-12 00:30,55.40,51.80,87.65,0.00,0.00,0.00,30.42,M,6.21,M,M,M,M,M,M,M,M,M,M,M,M,M,M,M,M,55.40,LFBG 120030Z AUTO 00000KT CAVOK 13/11 Q1030,M
LFBG,LFBG,2019-09-12 01:00,55.40,51.80,87.65,0.00,0.00,0.00,30.42,M,6.21,M,M,M,M,M,M,M,M,M,M,M,M,M,M,M,M,55.40,LFBG 120100Z AUTO 00000KT CAVOK 13/11 Q1030,M
LFBG,LFBG,2019-09-12 01:30,53.60,51.80,93.60,280.00,2.00,0.00,30.42,M,6.21,M,M,M,M,M,M,M,M,M,M,M,M,M,M,M,M,53.60,LFBG 120130Z AUTO 28002KT CAVOK 12/11 Q1030,M
LFBG,LFBG,2019-09-12 02:00,53.60,51.80,93.60,0.00,0.00,0.00,30.42,M,6.21,M,M,M,M,M,M,M,M,M,M,M,M,M,M,M,M,53.60,LFBG 120200Z AUTO 00000KT CAVOK 12/11 Q1030,M
LFBG,LFBG,2019-09-12 02:30,53.60,51.80,93.60,0.00,0.00,0.00,30.42,M,6.21,M,M,M,M,M,M,M,M,M,M,M,M,M,M,M,M,53.60,LFBG 120230Z AUTO 00000KT CAVOK 12/11 Q1030,M
LFBG,LFBG,2019-09-12 03:00,51.80,50.00,93.55,0.00,0.00,0.00,30.42,M,6.21,M,M,M,M,M,M,M,M,M,M,M,M,M,M,M,M,51.80,LFBG 120300Z AUTO 00000KT CAVOK 11/10 Q1030,M
LFBG,LFBG,2019-09-12 03:30,51.80,48.20,87.47,0.00,0.00,0.00,30.42,M,6.21,M,M,M,M,M,M,M,M,M,M,M,M,M,M,M,M,51.80,LFBG 120330Z AUTO 00000KT CAVOK 11/09 Q1030,M
LFBG,LFBG,2019-09-12 04:00,51.80,50.00,93.55,0.00,0.00,0.00,30.42,M,6.21,M,M,M,M,M,M,M,M,M,M,M,M,M,M,M,M,51.80,LFBG 120400Z AUTO 00000KT CAVOK 11/10 Q1030,M
LFBG,LFBG,2019-09-12 04:30,53.60,53.60,100.00,340.00,4.00,0.00,30.42,M,6.21,M,M,M,M,M,M,M,M,M,M,M,M,M,M,M,M,53.60,LFBG 120430Z AUTO 34004KT CAVOK 12/12 Q1030,M
LFBG,LFBG,2019-09-12 05:00,53.60,51.80,93.60,0.00,0.00,0.00,30.42,M,6.21,M,M,M,M,M,M,M,M,M,M,M,M,M,M,M,M,53.60,LFBG 120500Z AUTO 00000KT CAVOK 12/11 Q1030 TEMPO 0500 FG BKN008,M
LFBG,LFBG,2019-09-12 05:30,51.80,50.00,93.55,0.00,0.00,0.00,30.42,M,6.21,M,M,M,M,M,M,M,M,M,M,M,M,M,M,M,M,51.80,LFBG 120530Z AUTO 00000KT CAVOK 11/10 Q1030 TEMPO 0500 BCFG BKN008,M
LFBG,LFBG,2019-09-12 06:00,51.80,50.00,93.55,310.00,2.00,0.00,30.45,M,6.21,M,M,M,M,M,M,M,M,M,M,M,M,M,M,M,M,51.80,LFBG 120600Z AUTO 31002KT CAVOK 11/10 Q1031 TEMPO 0500 BCFG BKN008,M
LFBG,LFBG,2019-09-12 06:30,53.60,51.80,93.60,M,1.00,0.00,30.45,M,6.21,M,M,M,M,M,M,M,M,M,M,M,M,M,M,M,M,53.60,LFBG 120630Z AUTO VRB01KT CAVOK 12/11 Q1031 TEMPO BKN008,M
LFBG,LFBG,2019-09-12 07:00,55.40,53.60,93.65,0.00,0.00,0.00,30.45,M,6.21,M,M,M,M,M,M,M,M,M,M,M,M,M,M,M,M,55.40,LFBG 120700Z AUTO 00000KT CAVOK 13/12 Q1031 TEMPO BKN008,M
LFBG,LFBG,2019-09-12 07:30,59.00,55.40,87.83,0.00,0.00,0.00,30.47,M,6.21,M,M,M,M,M,M,M,M,M,M,M,M,M,M,M,M,59.00,LFBG 120730Z AUTO 00000KT CAVOK 15/13 Q1032 NOSIG,M
LFBG,LFBG,2019-09-12 08:00,60.80,55.40,82.37,30.00,4.00,0.00,30.47,M,6.21,M,M,M,M,M,M,M,M,M,M,M,M,M,M,M,M,60.80,LFBG 120800Z AUTO 03004KT 350V070 CAVOK 16/13 Q1032,M
LFBG,LFBG,2019-09-12 08:30,62.60,57.20,82.50,50.00,4.00,0.00,30.47,M,6.21,M,M,M,M,M,M,M,M,M,M,M,M,M,M,M,M,62.60,LFBG 120830Z AUTO 05004KT 360V090 CAVOK 17/14 Q1032 NOSIG,M
LFBG,LFBG,2019-09-12 09:00,64.40,57.20,77.45,40.00,5.00,0.00,30.47,M,6.21,M,M,M,M,M,M,M,M,M,M,M,M,M,M,M,M,64.40,LFBG 120900Z AUTO 04005KT 010V080 CAVOK 18/14 Q1032 NOSIG,M
LFBG,LFBG,2019-09-12 09:30,68.00,57.20,68.35,20.00,3.00,0.00,30.47,M,6.21,M,M,M,M,M,M,M,M,M,M,M,M,M,M,M,M,68.00,LFBG 120930Z AUTO 02003KT 340V090 CAVOK 20/14 Q1032 NOSIG,M
LFBG,LFBG,2019-09-12 10:00,69.80,57.20,64.26,M,3.00,0.00,30.47,M,6.21,M,M,M,M,M,M,M,M,M,M,M,M,M,M,M,M,69.80,LFBG 121000Z AUTO VRB03KT CAVOK 21/14 Q1032 NOSIG,M
LFBG,LFBG,2019-09-12 10:30,73.40,55.40,53.29,M,1.00,0.00,30.47,M,6.21,M,M,M,M,M,M,M,M,M,M,M,M,M,M,M,M,73.40,LFBG 121030Z AUTO VRB01KT CAVOK 23/13 Q1032 NOSIG,M
LFBG,LFBG,2019-09-12 11:00,75.20,53.60,46.98,M,3.00,0.00,30.47,M,6.21,M,M,M,M,M,M,M,M,M,M,M,M,M,M,M,M,75.20,LFBG 121100Z AUTO VRB03KT CAVOK 24/12 Q1032 NOSIG,M
LFBG,LFBG,2019-09-12 11:30,75.20,51.80,43.97,300.00,3.00,0.00,30.47,M,6.21,M,M,M,M,M,M,M,M,M,M,M,M,M,M,M,M,75.20,LFBG 121130Z AUTO 30003KT 240V030 CAVOK 24/11 Q1032 NOSIG,M
LFBG,LFBG,2019-09-12 12:00,77.00,51.80,41.42,M,3.00,0.00,30.47,M,6.21,M,M,M,M,M,M,M,M,M,M,M,M,M,M,M,M,77.00,LFBG 121200Z AUTO VRB03KT CAVOK 25/11 Q1032 NOSIG,M
LFBG,LFBG,2019-09-12 12:30,77.00,51.80,41.42,360.00,4.00,0.00,30.47,M,6.21,M,M,M,M,M,M,M,M,M,M,M,M,M,M,M,M,77.00,LFBG 121230Z AUTO 36004KT 320V070 CAVOK 25/11 Q1032 NOSIG,M
LFBG,LFBG,2019-09-12 13:00,77.00,51.80,41.42,30.00,6.00,0.00,30.45,M,6.21,M,NSC,M,M,M,M,M,M,M,,M,M,M,M,M,M,77.00,LFBG 121300Z AUTO 03006KT 300V060 9999 // NSC 25/11 Q1031,M
LFBG,LFBG,2019-09-12 13:30,78.80,51.80,39.02,360.00,6.00,0.00,30.45,M,6.21,M,M,M,M,M,M,M,M,M,M,M,M,M,M,M,M,78.80,LFBG 121330Z AUTO 36006KT 300V050 CAVOK 26/11 Q1031 NOSIG,M
LFBG,LFBG,2019-09-12 14:00,78.80,51.80,39.02,350.00,6.00,0.00,30.45,M,6.21,M,M,M,M,M,M,M,M,M,M,M,M,M,M,M,M,78.80,LFBG 121400Z AUTO 35006KT 300V060 CAVOK 26/11 Q1031 NOSIG,M
LFBG,LFBG,2019-09-12 14:30,78.80,50.00,36.51,40.00,4.00,0.00,30.42,M,6.21,M,M,M,M,M,M,M,M,M,M,M,M,M,M,M,M,78.80,LFBG 121430Z AUTO 04004KT 310V120 CAVOK 26/10 Q1030 NOSIG,M
LFBG,LFBG,2019-09-12 15:00,80.60,50.00,34.41,360.00,8.00,0.00,30.42,M,6.21,M,M,M,M,M,M,M,M,M,M,M,M,M,M,M,M,79.88,LFBG 121500Z AUTO 36008KT 340V060 CAVOK 27/10 Q1030 NOSIG,M
LFBG,LFBG,2019-09-12 15:30,80.60,53.60,39.30,360.00,7.00,0.00,30.42,M,6.21,M,M,M,M,M,M,M,M,M,M,M,M,M,M,M,M,80.29,LFBG 121530Z AUTO 36007KT 320V040 CAVOK 27/12 Q1030 NOSIG,M
LFBG,LFBG,2019-09-12 16:00,80.60,51.80,36.79,330.00,8.00,0.00,30.42,M,6.21,M,M,M,M,M,M,M,M,M,M,M,M,M,M,M,M,80.08,LFBG 121600Z AUTO 33008KT 290V350 CAVOK 27/11 Q1030 NOSIG,M
LFBG,LFBG,2019-09-12 16:30,80.60,53.60,39.30,360.00,7.00,0.00,30.42,M,6.21,M,M,M,M,M,M,M,M,M,M,M,M,M,M,M,M,80.29,LFBG 121630Z AUTO 36007KT CAVOK 27/12 Q1030 NOSIG,M
LFBG,LFBG,2019-09-12 17:00,80.60,51.80,36.79,10.00,6.00,0.00,30.42,M,6.21,M,M,M,M,M,M,M,M,M,M,M,M,M,M,M,M,80.08,LFBG 121700Z AUTO 01006KT 320V040 CAVOK 27/11 Q1030 NOSIG,M
LFBG,LFBG,2019-09-12 17:30,78.80,53.60,41.69,30.00,6.00,0.00,30.42,M,6.21,M,M,M,M,M,M,M,M,M,M,M,M,M,M,M,M,78.80,LFBG 121730Z AUTO 03006KT CAVOK 26/12 Q1030 NOSIG,M
LFBG,LFBG,2019-09-12 18:00,77.00,57.20,50.43,350.00,6.00,0.00,30.39,M,6.21,M,M,M,M,M,M,M,M,M,M,M,M,M,M,M,M,77.00,LFBG 121800Z AUTO 35006KT CAVOK 25/14 Q1029 NOSIG,M
LFBG,LFBG,2019-09-12 18:30,75.20,57.20,53.55,340.00,5.00,0.00,30.42,M,6.21,M,M,M,M,M,M,M,M,M,M,M,M,M,M,M,M,75.20,LFBG 121830Z AUTO 34005KT CAVOK 24/14 Q1030 NOSIG,M
LFBG,LFBG,2019-09-12 19:00,73.40,57.20,56.88,340.00,7.00,0.00,30.42,M,6.21,M,M,M,M,M,M,M,M,M,M,M,M,M,M,M,M,73.40,LFBG 121900Z AUTO 34007KT CAVOK 23/14 Q1030 NOSIG,M
LFBG,LFBG,2019-09-12 19:30,71.60,57.20,60.44,340.00,8.00,0.00,30.42,M,6.21,M,M,M,M,M,M,M,M,M,M,M,M,M,M,M,M,71.60,LFBG 121930Z AUTO 34008KT CAVOK 22/14 Q1030 NOSIG,M
LFBG,LFBG,2019-09-12 20:00,71.60,57.20,60.44,340.00,8.00,0.00,30.42,M,6.21,M,M,M,M,M,M,M,M,M,M,M,M,M,M,M,M,71.60,LFBG 122000Z AUTO 34008KT CAVOK 22/14 Q1030 NOSIG,M
LFBG,LFBG,2019-09-12 20:30,69.80,57.20,64.26,340.00,8.00,0.00,30.42,M,6.21,M,M,M,M,M,M,M,M,M,M,M,M,M,M,M,M,69.80,LFBG 122030Z AUTO 34008KT CAVOK 21/14 Q1030,M
LFBG,LFBG,2019-09-12 21:00,69.80,57.20,64.26,310.00,6.00,0.00,30.42,M,6.21,M,M,M,M,M,M,M,M,M,M,M,M,M,M,M,M,69.80,LFBG 122100Z AUTO 31006KT 270V010 CAVOK 21/14 Q1030,M
LFBG,LFBG,2019-09-12 21:30,68.00,57.20,68.35,260.00,4.00,0.00,30.42,M,6.21,M,M,M,M,M,M,M,M,M,M,M,M,M,M,M,M,68.00,LFBG 122130Z AUTO 26004KT CAVOK 20/14 Q1030,M
LFBG,LFBG,2019-09-12 22:00,66.20,57.20,72.74,270.00,3.00,0.00,30.42,M,6.21,M,M,M,M,M,M,M,M,M,M,M,M,M,M,M,M,66.20,LFBG 122200Z AUTO 27003KT CAVOK 19/14 Q1030,M
LFBG,LFBG,2019-09-12 22:30,66.20,59.00,77.60,M,2.00,0.00,30.42,M,6.21,M,M,M,M,M,M,M,M,M,M,M,M,M,M,M,M,66.20,LFBG 122230Z AUTO VRB02KT CAVOK 19/15 Q1030,M
LFBG,LFBG,2019-09-12 23:00,64.40,59.00,82.62,M,1.00,0.00,30.42,M,6.21,M,M,M,M,M,M,M,M,M,M,M,M,M,M,M,M,64.40,LFBG 122300Z AUTO VRB01KT CAVOK 18/15 Q1030,M
LFBG,LFBG,2019-09-12 23:30,64.40,59.00,82.62,320.00,2.00,0.00,30.42,M,6.21,M,M,M,M,M,M,M,M,M,M,M,M,M,M,M,M,64.40,LFBG 122330Z AUTO 32002KT CAVOK 18/15 Q1030,M
LFBH,LFBH,2019-09-12 00:00,59.00,57.20,93.74,350.00,7.00,0.00,30.42,M,6.21,M,SCT,M,M,M,900.00,M,M,M,M,M,M,M,M,M,M,59.00,LFBH 120000Z AUTO 35007KT 9999 SCT009 15/14 Q1030 BECMG BKN005,M
LFBH,LFBH,2019-09-12 00:30,60.80,59.00,93.79,360.00,8.00,0.00,30.42,M,6.21,M,OVC,M,M,M,800.00,M,M,M,M,M,M,M,M,M,M,60.80,LFBH 120030Z AUTO 36008KT 9999 OVC008 16/15 Q1030 TEMPO 3000 BR BKN003,M
LFBH,LFBH,2019-09-12 01:00,60.80,57.20,87.92,350.00,10.00,0.00,30.45,M,6.21,M,OVC,M,M,M,700.00,M,M,M,M,M,M,M,M,M,M,60.80,LFBH 120100Z AUTO 35010KT 9999 OVC007 16/14 Q1031 TEMPO 3000 BR BKN003,M
LFBH,LFBH,2019-09-12 01:30,60.80,59.00,93.79,350.00,9.00,0.00,30.42,M,6.21,M,OVC,M,M,M,800.00,M,M,M,M,M,M,M,M,M,M,60.80,LFBH 120130Z AUTO 35009KT 9999 OVC008 16/15 Q1030 TEMPO 3000 BR BKN003,M
LFBH,LFBH,2019-09-12 02:00,60.80,57.20,87.92,360.00,9.00,0.00,30.42,M,6.21,M,OVC,M,M,M,800.00,M,M,M,M,M,M,M,M,M,M,60.80,LFBH 120200Z AUTO 36009KT 9999 OVC008 16/14 Q1030 TEMPO 3000 BR BKN003,M
LFBH,LFBH,2019-09-12 02:30,60.80,57.20,87.92,360.00,8.00,0.00,30.42,M,6.21,M,OVC,M,M,M,800.00,M,M,M,M,M,M,M,M,M,M,60.80,LFBH 120230Z AUTO 36008KT 320V020 9999 OVC008 16/14 Q1030 TEMPO 3000 BR BKN003,M
LFBH,LFBH,2019-09-12 03:00,60.80,59.00,93.79,360.00,6.00,0.00,30.42,M,6.21,M,OVC,M,M,M,900.00,M,M,M,M,M,M,M,M,M,M,60.80,LFBH 120300Z AUTO 36006KT 340V040 9999 OVC009 16/15 Q1030 TEMPO 3000 BR BKN003,M
LFBH,LFBH,2019-09-12 03:30,60.80,57.20,87.92,20.00,7.00,0.00,30.42,M,6.21,M,BKN,M,M,M,900.00,M,M,M,M,M,M,M,M,M,M,60.80,LFBH 120330Z AUTO 02007KT 9999 BKN009 16/14 Q1030 TEMPO 3000 BR BKN003,M
LFBH,LFBH,2019-09-12 04:00,59.00,57.20,93.74,20.00,4.00,0.00,30.42,M,6.21,M,BKN,M,M,M,1100.00,M,M,M,M,M,M,M,M,M,M,59.00,LFBH 120400Z AUTO 02004KT 9999 BKN011 15/14 Q1030 TEMPO 3000 BR BKN003,M
LFBH,LFBH,2019-09-12 04:30,60.80,59.00,93.79,40.00,4.00,0.00,30.42,M,6.21,M,OVC,M,M,M,900.00,M,M,M,M,M,M,M,M,M,M,60.80,LFBH 120430Z AUTO 04004KT 9999 OVC009 16/15 Q1030 TEMPO 3000 BR BKN003,M
LFBH,LFBH,2019-09-12 05:00,60.80,59.00,93.79,20.00,6.00,0.00,30.42,M,6.21,M,OVC,M,M,M,900.00,M,M,M,M,M,M,M,M,M,M,60.80,LFBH 120500Z AUTO 02006KT 9999 OVC009 16/15 Q1030 TEMPO 3000 BR BECMG BKN011,M
LFBH,LFBH,2019-09-12 05:30,60.80,59.00,93.79,30.00,6.00,0.00,30.42,M,6.21,M,OVC,M,M,M,900.00,M,M,M,M,M,M,M,M,M,M,60.80,LFBH 120530Z AUTO 03006KT 9999 OVC009 16/15 Q1030 TEMPO 3000 BR,M
LFBH,LFBH,2019-09-12 06:00,60.80,59.00,93.79,360.00,7.00,0.00,30.45,M,6.21,M,OVC,M,M,M,900.00,M,M,M,M,M,M,M,M,M,M,60.80,LFBH 120600Z AUTO 36007KT 9999 OVC009 16/15 Q1031 TEMPO 3000 BR,M
LFBH,LFBH,2019-09-12 06:30,60.80,59.00,93.79,20.00,3.00,0.00,30.45,M,6.21,M,OVC,M,M,M,900.00,M,M,M,M,M,M,M,M,M,M,60.80,LFBH 120630Z AUTO 02003KT 350V060 9999 OVC009 16/15 Q1031 NOSIG,M
LFBH,LFBH,2019-09-12 07:00,62.60,59.00,88.00,40.00,4.00,0.00,30.47,M,6.21,M,OVC,M,M,M,900.00,M,M,M,M,M,M,M,M,M,M,62.60,LFBH 120700Z AUTO 04004KT 010V070 9999 OVC009 17/15 Q1032 NOSIG,M
LFBH,LFBH,2019-09-12 07:30,62.60,59.00,88.00,40.00,5.00,0.00,30.47,M,6.21,M,OVC,M,M,M,900.00,M,M,M,M,M,M,M,M,M,M,62.60,LFBH 120730Z AUTO 04005KT 010V070 9999 OVC009 17/15 Q1032 NOSIG,M
LFBH,LFBH,2019-09-12 08:00,62.60,59.00,88.00,50.00,4.00,0.00,30.47,M,6.21,M,OVC,M,M,M,1000.00,M,M,M,M,M,M,M,M,M,M,62.60,LFBH 120800Z AUTO 05004KT 310V090 9999 OVC010 17/15 Q1032 NOSIG,M
LFBH,LFBH,2019-09-12 08:30,64.40,59.00,82.62,50.00,4.00,0.00,30.47,M,6.21,M,OVC,M,M,M,1100.00,M,M,M,M,M,M,M,M,M,M,64.40,LFBH 120830Z AUTO 05004KT 360V090 9999 OVC011 18/15 Q1032 BECMG NSC,M
LFBH,LFBH,2019-09-12 09:00,64.40,59.00,82.62,80.00,3.00,0.00,30.50,M,6.21,M,OVC,M,M,M,1200.00,M,M,M,M,M,M,M,M,M,M,64.40,LFBH 120900Z AUTO 08003KT 030V120 9999 OVC012 18/15 Q1033 BECMG NSC,M
LFBH,LFBH,2019-09-12 09:30,64.40,59.00,82.62,M,2.00,0.00,30.50,M,6.21,M,OVC,M,M,M,1300.00,M,M,M,M,M,M,M,M,M,M,64.40,LFBH 120930Z AUTO VRB02KT 9999 OVC013 18/15 Q1033 BECMG NSC,M
LFBH,LFBH,2019-09-12 10:00,66.20,59.00,77.60,M,2.00,0.00,30.50,M,6.21,M,OVC,M,M,M,1400.00,M,M,M,M,M,M,M,M,M,M,66.20,LFBH 121000Z AUTO VRB02KT 9999 OVC014 19/15 Q1033 BECMG NSC,M
LFBH,LFBH,2019-09-12 10:30,66.20,59.00,77.60,330.00,6.00,0.00,30.50,M,6.21,M,OVC,M,M,M,1600.00,M,M,M,M,M,M,M,M,M,M,66.20,LFBH 121030Z AUTO 33006KT 290V360 9999 OVC016 19/15 Q1033 NOSIG,M
LFBH,LFBH,2019-09-12 11:00,66.20,59.00,77.60,310.00,6.00,0.00,30.50,M,6.21,M,OVC,M,M,M,1800.00,M,M,M,M,M,M,M,M,M,M,66.20,LFBH 121100Z AUTO 31006KT 270V330 9999 OVC018 19/15 Q1033 NOSIG,M
LFBH,LFBH,2019-09-12 11:30,66.20,59.00,77.60,290.00,6.00,0.00,30.50,M,6.21,M,FEW,M,M,M,1500.00,M,M,M,M,M,M,M,M,M,M,66.20,LFBH 121130Z AUTO 29006KT 250V350 9999 FEW015 19/15 Q1033 NOSIG,M
LFBH,LFBH,2019-09-12 12:00,68.00,59.00,72.92,300.00,7.00,0.00,30.50,M,6.21,M,M,M,M,M,M,M,M,M,M,M,M,M,M,M,M,68.00,LFBH 121200Z AUTO 30007KT 250V340 CAVOK 20/15 Q1033 NOSIG,M
LFBH,LFBH,2019-09-12 12:30,69.80,59.00,68.55,320.00,7.00,0.00,30.50,M,6.21,M,M,M,M,M,M,M,M,M,M,M,M,M,M,M,M,69.80,LFBH 121230Z AUTO 32007KT 280V350 CAVOK 21/15 Q1033 NOSIG,M
LFBH,LFBH,2019-09-12 13:00,69.80,57.20,64.26,310.00,7.00,0.00,30.47,M,6.21,M,M,M,M,M,M,M,M,M,M,M,M,M,M,M,M,69.80,LFBH 121300Z AUTO 31007KT 290V350 CAVOK 21/14 Q1032 NOSIG,M
LFBH,LFBH,2019-09-12 13:30,69.80,59.00,68.55,320.00,8.00,0.00,30.47,M,6.21,M,M,M,M,M,M,M,M,M,M,M,M,M,M,M,M,69.80,LFBH 121330Z AUTO 32008KT CAVOK 21/15 Q1032 NOSIG,M
LFBH,LFBH,2019-09-12 14:00,71.60,60.80,68.75,320.00,9.00,0.00,30.47,M,6.21,M,M,M,M,M,M,M,M,M,M,M,M,M,M,M,M,71.60,LFBH 121400Z AUTO 32009KT 300V360 CAVOK 22/16 Q1032 NOSIG,M
LFBH,LFBH,2019-09-12 14:30,71.60,60.80,68.75,310.00,9.00,0.00,30.47,M,6.21,M,M,M,M,M,M,M,M,M,M,M,M,M,M,M,M,71.60,LFBH 121430Z AUTO 31009KT CAVOK 22/16 Q1032 NOSIG,M
LFBH,LFBH,2019-09-12 15:00,69.80,60.80,73.09,310.00,10.00,0.00,30.45,M,6.21,M,M,M,M,M,M,M,M,M,M,M,M,M,M,M,M,69.80,LFBH 121500Z AUTO 31010KT CAVOK 21/16 Q1031 NOSIG,M
LFBH,LFBH,2019-09-12 15:30,69.80,60.80,73.09,300.00,10.00,0.00,30.45,M,6.21,M,NSC,M,M,M,M,M,M,M,M,M,M,M,M,M,M,69.80,LFBH 121530Z AUTO 30010KT 9999 NSC 21/16 Q1031 NOSIG,M
LFBH,LFBH,2019-09-12 16:00,69.80,60.80,73.09,300.00,11.00,0.00,30.45,M,6.21,M,M,M,M,M,M,M,M,M,M,M,M,M,M,M,M,69.80,LFBH 121600Z AUTO 30011KT CAVOK 21/16 Q1031 NOSIG,M
LFBH,LFBH,2019-09-12 16:30,68.00,62.60,82.86,300.00,11.00,0.00,30.45,M,6.21,M,M,M,M,M,M,M,M,M,M,M,M,M,M,M,M,68.00,LFBH 121630Z AUTO 30011KT CAVOK 20/17 Q1031 NOSIG,M
LFBH,LFBH,2019-09-12 17:00,68.00,62.60,82.86,300.00,11.00,0.00,30.45,M,6.21,M,M,M,M,M,M,M,M,M,M,M,M,M,M,M,M,68.00,LFBH 121700Z AUTO 30011KT CAVOK 20/17 Q1031 NOSIG,M
LFBH,LFBH,2019-09-12 17:30,68.00,62.60,82.86,310.00,10.00,0.00,30.42,M,6.21,M,M,M,M,M,M,M,M,M,M,M,M,M,M,M,M,68.00,LFBH 121730Z AUTO 31010KT CAVOK 20/17 Q1030 NOSIG,M
LFBH,LFBH,2019-09-12 18:00,66.20,62.60,88.18,310.00,10.00,0.00,30.42,M,6.21,M,M,M,M,M,M,M,M,M,M,M,M,M,M,M,M,66.20,LFBH 121800Z AUTO 31010KT CAVOK 19/17 Q1030 NOSIG,M
LFBH,LFBH,2019-09-12 18:30,66.20,62.60,88.18,310.00,7.00,0.00,30.45,M,6.21,M,M,M,M,M,M,M,M,M,M,M,M,M,M,M,M,66.20,LFBH 121830Z AUTO 31007KT CAVOK 19/17 Q1031 NOSIG,M
LFBH,LFBH,2019-09-12 19:00,66.20,62.60,88.18,310.00,7.00,0.00,30.45,M,6.21,M,M,M,M,M,M,M,M,M,M,M,M,M,M,M,M,66.20,LFBH 121900Z AUTO 31007KT CAVOK 19/17 Q1031 NOSIG,M
LFBH,LFBH,2019-09-12 19:30,66.20,62.60,88.18,330.00,6.00,0.00,30.45,M,6.21,M,M,M,M,M,M,M,M,M,M,M,M,M,M,M,M,66.20,LFBH 121930Z AUTO 33006KT CAVOK 19/17 Q1031 NOSIG,M
LFBH,LFBH,2019-09-12 20:00,64.40,62.60,93.88,330.00,6.00,0.00,30.45,M,6.21,M,M,M,M,M,M,M,M,M,M,M,M,M,M,M,M,64.40,LFBH 122000Z AUTO 33006KT CAVOK 18/17 Q1031 NOSIG,M
LFBH,LFBH,2019-09-12 20:30,64.40,62.60,93.88,340.00,7.00,0.00,30.45,M,6.21,M,M,M,M,M,M,M,M,M,M,M,M,M,M,M,M,64.40,LFBH 122030Z AUTO 34007KT CAVOK 18/17 Q1031 NOSIG,M
LFBH,LFBH,2019-09-12 21:00,64.40,60.80,88.09,350.00,10.00,0.00,30.45,M,6.21,M,M,M,M,M,M,M,M,M,M,M,M,M,M,M,M,64.40,LFBH 122100Z AUTO 35010KT CAVOK 18/16 Q1031 NOSIG,M
LFBH,LFBH,2019-09-12 21:30,64.40,60.80,88.09,350.00,7.00,0.00,30.45,M,6.21,M,M,M,M,M,M,M,M,M,M,M,M,M,M,M,M,64.40,LFBH 122130Z AUTO 35007KT CAVOK 18/16 Q1031 NOSIG,M
LFBH,LFBH,2019-09-12 22:00,62.60,60.80,93.83,350.00,8.00,0.00,30.45,M,6.21,M,M,M,M,M,M,M,M,M,M,M,M,M,M,M,M,62.60,LFBH 122200Z AUTO 35008KT CAVOK 17/16 Q1031 NOSIG,M
LFBH,LFBH,2019-09-12 22:30,62.60,59.00,88.00,350.00,7.00,0.00,30.45,M,6.21,M,M,M,M,M,M,M,M,M,M,M,M,M,M,M,M,62.60,LFBH 122230Z AUTO 35007KT CAVOK 17/15 Q1031 NOSIG,M
LFBH,LFBH,2019-09-12 23:00,62.60,59.00,88.00,350.00,8.00,0.00,30.45,M,6.21,M,M,M,M,M,M,M,M,M,M,M,M,M,M,M,M,62.60,LFBH 122300Z AUTO 35008KT CAVOK 17/15 Q1031 NOSIG,M
LFBH,LFBH,2019-09-12 23:30,62.60,59.00,88.00,350.00,9.00,0.00,30.45,M,6.21,M,M,M,M,M,M,M,M,M,M,M,M,M,M,M,M,62.60,LFBH 122330Z AUTO 35009KT CAVOK 17/15 Q1031 TEMPO BKN008,M
LFBI,LFBI,2019-09-12 00:00,57.20,51.80,82.12,320.00,5.00,0.00,30.42,M,6.21,M,M,M,M,M,M,M,M,M,M,M,M,M,M,M,M,57.20,LFBI 120000Z AUTO 32005KT CAVOK 14/11 Q1030 NOSIG,M
LFBI,LFBI,2019-09-12 00:30,55.40,51.80,87.65,310.00,5.00,0.00,30.42,M,6.21,M,M,M,M,M,M,M,M,M,M,M,M,M,M,M,M,55.40,LFBI 120030Z AUTO 31005KT CAVOK 13/11 Q1030 BECMG 0800 FG OVC002,M
LFBI,LFBI,2019-09-12 01:00,55.40,51.80,87.65,320.00,5.00,0.00,30.42,M,6.21,M,M,M,M,M,M,M,M,M,M,M,M,M,M,M,M,55.40,LFBI 120100Z AUTO 32005KT CAVOK 13/11 Q1030 BECMG 0800 FG OVC002,M
LFBI,LFBI,2019-09-12 01:30,55.40,51.80,87.65,320.00,4.00,0.00,30.42,M,6.21,M,M,M,M,M,M,M,M,M,M,M,M,M,M,M,M,55.40,LFBI 120130Z AUTO 32004KT CAVOK 13/11 Q1030 BECMG 0800 FG OVC002,M
LFBI,LFBI,2019-09-12 02:00,53.60,51.80,93.60,300.00,3.00,0.00,30.42,M,6.21,M,M,M,M,M,M,M,M,M,M,M,M,M,M,M,M,53.60,LFBI 120200Z AUTO 30003KT CAVOK 12/11 Q1030 BECMG 0800 FG OVC002,M
LFBI,LFBI,2019-09-12 02:30,53.60,51.80,93.60,300.00,4.00,0.00,30.42,M,6.21,M,M,M,M,M,M,M,M,M,M,M,M,M,M,M,M,53.60,LFBI 120230Z AUTO 30004KT CAVOK 12/11 Q1030 TEMPO 0400 FG VV///,M
LFBI,LFBI,2019-09-12 03:00,53.60,51.80,93.60,310.00,6.00,0.00,30.42,M,6.21,M,M,M,M,M,M,M,M,M,M,M,M,M,M,M,M,53.60,LFBI 120300Z AUTO 31006KT CAVOK 12/11 Q1030 TEMPO 0400 FG VV///,M
LFBI,LFBI,2019-09-12 03:30,53.60,51.80,93.60,310.00,4.00,0.00,30.42,M,6.21,M,M,M,M,M,M,M,M,M,M,M,M,M,M,M,M,53.60,LFBI 120330Z AUTO 31004KT CAVOK 12/11 Q1030 TEMPO 0400 FG VV///,M
LFBI,LFBI,2019-09-12 04:00,53.60,51.80,93.60,310.00,4.00,0.00,30.42,M,6.21,M,M,M,M,M,M,M,M,M,M,M,M,M,M,M,M,53.60,LFBI 120400Z AUTO 31004KT CAVOK 12/11 Q1030 TEMPO 0400 FG VV///,M
LFBI,LFBI,2019-09-12 04:30,53.60,51.80,93.60,320.00,3.00,0.00,30.42,M,5.59,M,NSC,M,M,M,M,M,M,M,M,M,M,M,M,M,M,53.60,LFBI 120430Z AUTO 32003KT 9000 NSC 12/11 Q1030 TEMPO 0400 FG VV///,M
LFBI,LFBI,2019-09-12 05:00,51.80,51.80,100.00,330.00,3.00,0.00,30.42,M,3.11,M,NSC,M,M,M,M,M,M,M,BR,M,M,M,M,M,M,51.80,LFBI 120500Z AUTO 33003KT 5000 BR NSC 11/11 Q1030 TEMPO 0400 FG VV///,M
LFBI,LFBI,2019-09-12 05:30,51.80,51.80,100.00,360.00,3.00,0.00,30.42,M,2.17,M,SCT,M,M,M,400.00,M,M,M,BR,M,M,M,M,M,M,51.80,LFBI 120530Z AUTO 36003KT 3500 BR SCT004 11/11 Q1030 TEMPO 0800 BCFG BKN005,M
LFBI,LFBI,2019-09-12 06:00,51.80,50.00,93.55,0.00,0.00,0.00,30.45,M,0.22,M,OVC,M,M,M,200.00,M,M,M,FG,M,M,M,M,M,M,51.80,LFBI 120600Z AUTO 00000KT 0350 0300 R21/0400D FG OVC002 11/10 Q1031 TEMPO 0800 BCFG BKN005,M
LFBI,LFBI,2019-09-12 06:30,53.60,51.80,93.60,300.00,1.00,0.00,30.45,M,0.40,M,VV ,M,M,M,M,M,M,M,FG,M,M,M,M,M,M,53.60,LFBI 120630Z AUTO 30001KT 0650 R21/1500U FG VV/// 12/11 Q1031 BECMG 9999 NSW SCT008,M
LFBI,LFBI,2019-09-12 07:00,55.40,55.40,100.00,M,2.00,0.00,30.45,M,0.28,M,VV ,M,M,M,M,M,M,M,FG,M,M,M,M,M,M,55.40,LFBI 120700Z AUTO VRB02KT 0450 0400 R21/0700N FG VV/// 13/13 Q1031 BECMG 9999 NSW SCT008,M
LFBI,LFBI,2019-09-12 07:30,57.20,55.40,93.69,M,2.00,0.00,30.47,M,0.16,M,VV ,M,M,M,M,M,M,M,FG,M,M,M,M,M,M,57.20,LFBI 120730Z AUTO VRB02KT 0250 R21/0375N FG VV/// 14/13 Q1032 BECMG 9999 NSW SCT008,M
LFBI,LFBI,2019-09-12 08:00,55.40,55.40,100.00,330.00,4.00,0.00,30.47,M,0.22,M,VV ,M,M,M,M,M,M,M,FG,M,M,M,M,M,M,55.40,LFBI 120800Z AUTO 33004KT 290V360 0350 0300 R21/0500N FG VV/// 13/13 Q1032 BECMG 9999 NSW SCT008,M
LFBI,LFBI,2019-09-12 08:30,57.20,57.20,100.00,M,2.00,0.00,30.47,M,0.50,M,VV ,M,M,M,M,M,M,M,FG,M,M,M,M,M,M,57.20,LFBI 120830Z AUTO VRB02KT 0800 R21/1300U FG VV/// 14/14 Q1032 BECMG CAVOK,M
LFBI,LFBI,2019-09-12 09:00,59.00,59.00,100.00,M,3.00,0.00,30.50,M,6.21,M,OVC,M,M,M,300.00,M,M,M,M,M,M,M,M,M,M,59.00,LFBI 120900Z AUTO VRB03KT 9999 OVC003 15/15 Q1033 BECMG NSC,M
LFBI,LFBI,2019-09-12 09:30,62.60,59.00,88.00,350.00,3.00,0.00,30.50,M,6.21,M,SCT,M,M,M,600.00,M,M,M,M,M,M,M,M,M,M,62.60,LFBI 120930Z AUTO 35003KT 240V050 9999 SCT006 17/15 Q1033 NOSIG,M
LFBI,LFBI,2019-09-12 10:00,66.20,57.20,72.74,20.00,3.00,0.00,30.50,M,6.21,M,M,M,M,M,M,M,M,M,M,M,M,M,M,M,M,66.20,LFBI 121000Z AUTO 02003KT 290V080 CAVOK 19/14 Q1033 NOSIG,M
LFBI,LFBI,2019-09-12 10:30,69.80,59.00,68.55,M,2.00,0.00,30.50,M,6.21,M,M,M,M,M,M,M,M,M,M,M,M,M,M,M,M,69.80,LFBI 121030Z AUTO VRB02KT CAVOK 21/15 Q1033 NOSIG,M
LFBI,LFBI,2019-09-12 11:00,71.60,57.20,60.44,320.00,3.00,0.00,30.47,M,6.21,M,M,M,M,M,M,M,M,M,M,M,M,M,M,M,M,71.60,LFBI 121100Z AUTO 32003KT 240V030 CAVOK 22/14 Q1032 NOSIG,M
LFBI,LFBI,2019-09-12 11:30,71.60,55.40,56.63,320.00,5.00,0.00,30.47,M,6.21,M,M,M,M,M,M,M,M,M,M,M,M,M,M,M,M,71.60,LFBI 121130Z AUTO 32005KT 260V060 CAVOK 22/13 Q1032 NOSIG,M
LFBI,LFBI,2019-09-12 12:00,73.40,57.20,56.88,340.00,5.00,0.00,30.47,M,6.21,M,M,M,M,M,M,M,M,M,M,M,M,M,M,M,M,73.40,LFBI 121200Z AUTO 34005KT 290V020 CAVOK 23/14 Q1032 NOSIG,M
LFBI,LFBI,2019-09-12 12:30,75.20,57.20,53.55,300.00,5.00,0.00,30.47,M,6.21,M,M,M,M,M,M,M,M,M,M,M,M,M,M,M,M,75.20,LFBI 121230Z AUTO 30005KT 250V360 CAVOK 24/14 Q1032 NOSIG,M
LFBI,LFBI,2019-09-12 13:00,77.00,57.20,50.43,M,4.00,0.00,30.47,M,6.21,M,M,M,M,M,M,M,M,M,M,M,M,M,M,M,M,77.00,LFBI 121300Z AUTO VRB04KT CAVOK 25/14 Q1032 NOSIG,M
LFBI,LFBI,2019-09-12 13:30,77.00,57.20,50.43,M,3.00,0.00,30.47,M,6.21,M,M,M,M,M,M,M,M,M,M,M,M,M,M,M,M,77.00,LFBI 121330Z AUTO VRB03KT CAVOK 25/14 Q1032 NOSIG,M
LFBI,LFBI,2019-09-12 14:00,77.00,57.20,50.43,350.00,5.00,0.00,30.45,M,6.21,M,FEW,M,M,M,3900.00,M,M,M,M,M,M,M,M,M,M,77.00,LFBI 121400Z AUTO 35005KT 320V090 9999 FEW039 25/14 Q1031 NOSIG,M
LFBI,LFBI,2019-09-12 14:30,78.80,57.20,47.52,330.00,7.00,0.00,30.45,M,6.21,M,FEW,M,M,M,4200.00,M,M,M,M,M,M,M,M,M,M,78.80,LFBI 121430Z AUTO 33007KT 280V360 9999 FEW042 26/14 Q1031 NOSIG,M
LFBI,LFBI,2019-09-12 15:00,78.80,59.00,50.69,340.00,7.00,0.00,30.45,M,6.21,M,FEW,M,M,M,4300.00,M,M,M,M,M,M,M,M,M,M,78.80,LFBI 121500Z AUTO 34007KT 300V010 9999 FEW043 26/15 Q1031 NOSIG,M
LFBI,LFBI,2019-09-12 15:30,78.80,57.20,47.52,10.00,5.00,0.00,30.45,M,6.21,M,M,M,M,M,M,M,M,M,M,M,M,M,M,M,M,78.80,LFBI 121530Z AUTO 01005KT 320V060 CAVOK 26/14 Q1031 NOSIG,M
LFBI,LFBI,2019-09-12 16:00,78.80,57.20,47.52,310.00,7.00,0.00,30.45,M,6.21,M,M,M,M,M,M,M,M,M,M,M,M,M,M,M,M,78.80,LFBI 121600Z AUTO 31007KT 270V350 CAVOK 26/14 Q1031 NOSIG,M
LFBI,LFBI,2019-09-12 16:30,78.80,57.20,47.52,360.00,7.00,0.00,30.45,M,6.21,M,FEW,M,M,M,4500.00,M,M,M,M,M,M,M,M,M,M,78.80,LFBI 121630Z AUTO 36007KT 330V030 9999 FEW045 26/14 Q1031 NOSIG,M
LFBI,LFBI,2019-09-12 17:00,77.00,57.20,50.43,340.00,8.00,0.00,30.42,M,6.21,M,M,M,M,M,M,M,M,M,M,M,M,M,M,M,M,77.00,LFBI 121700Z AUTO 34008KT CAVOK 25/14 Q1030 NOSIG,M
LFBI,LFBI,2019-09-12 17:30,77.00,57.20,50.43,340.00,8.00,0.00,30.42,M,6.21,M,M,M,M,M,M,M,M,M,M,M,M,M,M,M,M,77.00,LFBI 121730Z AUTO 34008KT CAVOK 25/14 Q1030 NOSIG,M
LFBI,LFBI,2019-09-12 18:00,75.20,57.20,53.55,350.00,5.00,0.00,30.45,M,6.21,M,M,M,M,M,M,M,M,M,M,M,M,M,M,M,M,75.20,LFBI 121800Z AUTO 35005KT CAVOK 24/14 Q1031 NOSIG,M
LFBI,LFBI,2019-09-12 18:30,71.60,57.20,60.44,360.00,6.00,0.00,30.45,M,6.21,M,M,M,M,M,M,M,M,M,M,M,M,M,M,M,M,71.60,LFBI 121830Z AUTO 36006KT CAVOK 22/14 Q1031 NOSIG,M
LFBI,LFBI,2019-09-12 19:00,68.00,57.20,68.35,360.00,5.00,0.00,30.45,M,6.21,M,M,M,M,M,M,M,M,M,M,M,M,M,M,M,M,68.00,LFBI 121900Z AUTO 36005KT CAVOK 20/14 Q1031 NOSIG,M
LFBI,LFBI,2019-09-12 19:30,69.80,57.20,64.26,360.00,7.00,0.00,30.45,M,6.21,M,M,M,M,M,M,M,M,M,M,M,M,M,M,M,M,69.80,LFBI 121930Z AUTO 36007KT CAVOK 21/14 Q1031 NOSIG,M
LFBI,LFBI,2019-09-12 20:00,68.00,57.20,68.35,360.00,6.00,0.00,30.45,M,6.21,M,M,M,M,M,M,M,M,M,M,M,M,M,M,M,M,68.00,LFBI 122000Z AUTO 36006KT CAVOK 20/14 Q1031 NOSIG,M
LFBI,LFBI,2019-09-12 20:30,64.40,57.20,77.45,10.00,6.00,0.00,30.45,M,6.21,M,M,M,M,M,M,M,M,M,M,M,M,M,M,M,M,64.40,LFBI 122030Z AUTO 01006KT CAVOK 18/14 Q1031 NOSIG,M
LFBI,LFBI,2019-09-12 21:00,62.60,55.40,77.29,10.00,6.00,0.00,30.45,M,6.21,M,M,M,M,M,M,M,M,M,M,M,M,M,M,M,M,62.60,LFBI 122100Z AUTO 01006KT CAVOK 17/13 Q1031 NOSIG,M
LFBI,LFBI,2019-09-12 21:30,62.60,57.20,82.50,10.00,6.00,0.00,30.45,M,6.21,M,M,M,M,M,M,M,M,M,M,M,M,M,M,M,M,62.60,LFBI 122130Z AUTO 01006KT CAVOK 17/14 Q1031 NOSIG,M
LFBI,LFBI,2019-09-12 22:00,60.80,55.40,82.37,20.00,6.00,0.00,30.45,M,6.21,M,M,M,M,M,M,M,M,M,M,M,M,M,M,M,M,60.80,LFBI 122200Z AUTO 02006KT CAVOK 16/13 Q1031 NOSIG,M
LFBI,LFBI,2019-09-12 22:30,60.80,55.40,82.37,20.00,6.00,0.00,30.45,M,6.21,M,M,M,M,M,M,M,M,M,M,M,M,M,M,M,M,60.80,LFBI 122230Z AUTO 02006KT CAVOK 16/13 Q1031 NOSIG,M
LFBI,LFBI,2019-09-12 23:00,59.00,55.40,87.83,20.00,6.00,0.00,30.45,M,6.21,M,M,M,M,M,M,M,M,M,M,M,M,M,M,M,M,59.00,LFBI 122300Z AUTO 02006KT CAVOK 15/13 Q1031 NOSIG,M
LFBI,LFBI,2019-09-12 23:30,60.80,55.40,82.37,10.00,3.00,0.00,30.45,M,6.21,M,M,M,M,M,M,M,M,M,M,M,M,M,M,M,M,60.80,LFBI 122330Z AUTO 01003KT CAVOK 16/13 Q1031 TEMPO 3000 BR,M
LFBL,LFBL,2019-09-12 00:00,59.00,44.60,58.77,20.00,3.00,0.00,30.42,M,6.21,M,M,M,M,M,M,M,M,M,M,M,M,M,M,M,M,59.00,LFBL 120000Z AUTO 02003KT CAVOK 15/07 Q1030 NOSIG,M
LFBL,LFBL,2019-09-12 00:30,59.00,46.40,62.92,360.00,4.00,0.00,30.42,M,6.21,M,M,M,M,M,M,M,M,M,M,M,M,M,M,M,M,59.00,LFBL 120030Z AUTO 36004KT CAVOK 15/08 Q1030 NOSIG,M
LFBL,LFBL,2019-09-12 01:00,57.20,46.40,67.12,350.00,5.00,0.00,30.42,M,6.21,M,M,M,M,M,M,M,M,M,M,M,M,M,M,M,M,57.20,LFBL 120100Z AUTO 35005KT CAVOK 14/08 Q1030 NOSIG,M
LFBL,LFBL,2019-09-12 01:30,59.00,46.40,62.92,360.00,5.00,0.00,30.42,M,6.21,M,M,M,M,M,M,M,M,M,M,M,M,M,M,M,M,59.00,LFBL 120130Z AUTO 36005KT CAVOK 15/08 Q1030 NOSIG,M
LFBL,LFBL,2019-09-12 02:00,57.20,46.40,67.12,350.00,6.00,0.00,30.42,M,6.21,M,M,M,M,M,M,M,M,M,M,M,M,M,M,M,M,57.20,LFBL 120200Z AUTO 35006KT CAVOK 14/08 Q1030 NOSIG,M
LFBL,LFBL,2019-09-12 02:30,57.20,46.40,67.12,350.00,7.00,0.00,30.42,M,6.21,M,M,M,M,M,M,M,M,M,M,M,M,M,M,M,M,57.20,LFBL 120230Z AUTO 35007KT CAVOK 14/08 Q1030 NOSIG,M
LFBL,LFBL,2019-09-12 03:00,59.00,44.60,58.77,360.00,6.00,0.00,30.42,M,6.21,M,M,M,M,M,M,M,M,M,M,M,M,M,M,M,M,59.00,LFBL 120300Z AUTO 36006KT CAVOK 15/07 Q1030 NOSIG,M
LFBL,LFBL,2019-09-12 03:30,59.00,44.60,58.77,10.00,5.00,0.00,30.42,M,6.21,M,M,M,M,M,M,M,M,M,M,M,M,M,M,M,M,59.00,LFBL 120330Z AUTO 01005KT CAVOK 15/07 Q1030 NOSIG,M
LFBL,LFBL,2019-09-12 04:00,57.20,44.60,62.69,10.00,4.00,0.00,30.42,M,6.21,M,M,M,M,M,M,M,M,M,M,M,M,M,M,M,M,57.20,LFBL 120400Z AUTO 01004KT CAVOK 14/07 Q1030 NOSIG,M
LFBL,LFBL,2019-09-12 04:30,59.00,44.60,58.77,10.00,6.00,0.00,30.42,M,6.21,M,M,M,M,M,M,M,M,M,M,M,M,M,M,M,M,59.00,LFBL 120430Z AUTO 01006KT CAVOK 15/07 Q1030 NOSIG,M
LFBL,LFBL,2019-09-12 05:00,59.00,44.60,58.77,20.00,6.00,0.00,30.42,M,6.21,M,M,M,M,M,M,M,M,M,M,M,M,M,M,M,M,59.00,LFBL 120500Z AUTO 02006KT CAVOK 15/07 Q1030 NOSIG,M
LFBL,LFBL,2019-09-12 05:30,59.00,44.60,58.77,30.00,5.00,0.00,30.42,M,6.21,M,M,M,M,M,M,M,M,M,M,M,M,M,M,M,M,59.00,LFBL 120530Z AUTO 03005KT CAVOK 15/07 Q1030 NOSIG,M
LFBL,LFBL,2019-09-12 06:00,59.00,42.80,54.86,30.00,5.00,0.00,30.42,M,6.21,M,M,M,M,M,M,M,M,M,M,M,M,M,M,M,M,59.00,LFBL 120600Z AUTO 03005KT CAVOK 15/06 Q1030 NOSIG,M
LFBL,LFBL,2019-09-12 06:30,55.40,44.60,66.91,M,2.00,0.00,30.45,M,6.21,M,M,M,M,M,M,M,M,M,M,M,M,M,M,M,M,55.40,LFBL 120630Z AUTO VRB02KT CAVOK 13/07 Q1031 NOSIG,M
LFBL,LFBL,2019-09-12 07:00,60.80,48.20,63.15,M,3.00,0.00,30.45,M,6.21,M,M,M,M,M,M,M,M,M,M,M,M,M,M,M,M,60.80,LFBL 120700Z AUTO VRB03KT CAVOK 16/09 Q1031 NOSIG,M
LFBL,LFBL,2019-09-12 07:30,59.00,48.20,67.33,M,3.00,0.00,30.45,M,6.21,M,M,M,M,M,M,M,M,M,M,M,M,M,M,M,M,59.00,LFBL 120730Z AUTO VRB03KT CAVOK 15/09 Q1031 NOSIG,M
LFBL,LFBL,2019-09-12 08:00,64.40,48.20,55.63,M,3.00,0.00,30.47,M,6.21,M,FEW,M,M,M,1000.00,M,M,M,M,M,M,M,M,M,M,64.40,LFBL 120800Z AUTO VRB03KT 9999 FEW010 18/09 Q1032 NOSIG,M
LFBL,LFBL,2019-09-12 08:30,68.00,48.20,49.10,60.00,5.00,0.00,30.47,M,6.21,M,M,M,M,M,M,M,M,M,M,M,M,M,M,M,M,68.00,LFBL 120830Z AUTO 06005KT 030V090 CAVOK 20/09 Q1032 NOSIG,M
LFBL,LFBL,2019-09-12 09:00,68.00,48.20,49.10,80.00,6.00,0.00,30.47,M,6.21,M,M,M,M,M,M,M,M,M,M,M,M,M,M,M,M,68.00,LFBL 120900Z AUTO 08006KT 040V110 CAVOK 20/09 Q1032 NOSIG,M
LFBL,LFBL,2019-09-12 09:30,69.80,50.00,49.37,M,3.00,0.00,30.47,M,6.21,M,M,M,M,M,M,M,M,M,M,M,M,M,M,M,M,69.80,LFBL 120930Z AUTO VRB03KT CAVOK 21/10 Q1032 NOSIG,M
LFBL,LFBL,2019-09-12 10:00,69.80,50.00,49.37,20.00,4.00,0.00,30.47,M,6.21,M,M,M,M,M,M,M,M,M,M,M,M,M,M,M,M,69.80,LFBL 121000Z AUTO 02004KT 310V070 CAVOK 21/10 Q1032 NOSIG,M
LFBL,LFBL,2019-09-12 10:30,73.40,46.40,38.18,350.00,6.00,0.00,30.47,M,6.21,M,M,M,M,M,M,M,M,M,M,M,M,M,M,M,M,73.40,LFBL 121030Z AUTO 35006KT 290V030 CAVOK 23/08 Q1032 NOSIG,M
LFBL,LFBL,2019-09-12 11:00,73.40,44.60,35.66,350.00,6.00,0.00,30.47,M,6.21,M,M,M,M,M,M,M,M,M,M,M,M,M,M,M,M,73.40,LFBL 121100Z AUTO 35006KT 260V040 CAVOK 23/07 Q1032 NOSIG,M
LFBL,LFBL,2019-09-12 11:30,75.20,42.80,31.34,10.00,6.00,0.00,30.47,M,6.21,M,M,M,M,M,M,M,M,M,M,M,M,M,M,M,M,75.20,LFBL 121130Z AUTO 01006KT 310V060 CAVOK 24/06 Q1032 NOSIG,M
LFBL,LFBL,2019-09-12 12:00,75.20,39.20,27.26,M,4.00,0.00,30.47,M,6.21,M,M,M,M,M,M,M,M,M,M,M,M,M,M,M,M,75.20,LFBL 121200Z AUTO VRB04KT CAVOK 24/04 Q1032 NOSIG,M
LFBL,LFBL,2019-09-12 12:30,77.00,39.20,25.67,360.00,7.00,0.00,30.47,M,6.21,M,M,M,M,M,M,M,M,M,M,M,M,M,M,M,M,77.00,LFBL 121230Z AUTO 36007KT 310V050 CAVOK 25/04 Q1032 NOSIG,M
LFBL,LFBL,2019-09-12 13:00,78.80,41.00,25.95,M,4.00,0.00,30.47,M,6.21,M,M,M,M,M,M,M,M,M,M,M,M,M,M,M,M,78.80,LFBL 121300Z AUTO VRB04KT CAVOK 26/05 Q1032 NOSIG,M
LFBL,LFBL,2019-09-12 13:30,78.80,41.00,25.95,350.00,6.00,0.00,30.47,M,6.21,M,M,M,M,M,M,M,M,M,M,M,M,M,M,M,M,78.80,LFBL 121330Z AUTO 35006KT 260V050 CAVOK 26/05 Q1032 NOSIG,M
LFBL,LFBL,2019-09-12 14:00,78.80,42.80,27.81,350.00,5.00,0.00,30.45,M,6.21,M,M,M,M,M,M,M,M,M,M,M,M,M,M,M,M,78.80,LFBL 121400Z AUTO 35005KT 300V050 CAVOK 26/06 Q1031 NOSIG,M
LFBL,LFBL,2019-09-12 14:30,78.80,42.80,27.81,300.00,7.00,0.00,30.45,M,6.21,M,M,M,M,M,M,M,M,M,M,M,M,M,M,M,M,78.80,LFBL 121430Z AUTO 30007KT 260V330 CAVOK 26/06 Q1031 NOSIG,M
LFBL,LFBL,2019-09-12 15:00,78.80,44.60,29.79,40.00,7.00,0.00,30.45,M,6.21,M,M,M,M,M,M,M,M,M,M,M,M,M,M,M,M,78.80,LFBL 121500Z AUTO 04007KT 350V060 CAVOK 26/07 Q1031 NOSIG,M
LFBL,LFBL,2019-09-12 15:30,78.80,46.40,31.90,10.00,5.00,0.00,30.45,M,6.21,M,NSC,M,M,M,M,M,M,M,M,M,M,M,M,M,M,78.80,LFBL 121530Z AUTO 01005KT 300V050 9999 NSC 26/08 Q1031 NOSIG,M
LFBL,LFBL,2019-09-12 16:00,78.80,48.20,34.13,20.00,6.00,0.00,30.45,M,6.21,M,M,M,M,M,M,M,M,M,M,M,M,M,M,M,M,78.80,LFBL 121600Z AUTO 02006KT 310V060 CAVOK 26/09 Q1031 NOSIG,M
LFBL,LFBL,2019-09-12 16:30,78.80,50.00,36.51,360.00,5.00,0.00,30.45,M,6.21,M,M,M,M,M,M,M,M,M,M,M,M,M,M,M,M,78.80,LFBL 121630Z AUTO 36005KT 310V030 CAVOK 26/10 Q1031 NOSIG,M
LFBL,LFBL,2019-09-12 17:00,77.00,51.80,41.42,10.00,5.00,0.00,30.45,M,6.21,M,M,M,M,M,M,M,M,M,M,M,M,M,M,M,M,77.00,LFBL 121700Z AUTO 01005KT 340V050 CAVOK 25/11 Q1031 NOSIG,M
LFBL,LFBL,2019-09-12 17:30,75.20,51.80,43.97,360.00,4.00,0.00,30.45,M,6.21,M,M,M,M,M,M,M,M,M,M,M,M,M,M,M,M,75.20,LFBL 121730Z AUTO 36004KT 320V030 CAVOK 24/11 Q1031 NOSIG,M
LFBL,LFBL,2019-09-12 18:00,73.40,51.80,46.71,360.00,5.00,0.00,30.45,M,6.21,M,M,M,M,M,M,M,M,M,M,M,M,M,M,M,M,73.40,LFBL 121800Z AUTO 36005KT 330V030 CAVOK 23/11 Q1031 NOSIG,M
LFBL,LFBL,2019-09-12 18:30,71.60,53.60,53.03,360.00,4.00,0.00,30.45,M,6.21,M,M,M,M,M,M,M,M,M,M,M,M,M,M,M,M,71.60,LFBL 121830Z AUTO 36004KT 330V030 CAVOK 22/12 Q1031 NOSIG,M
LFBL,LFBL,2019-09-12 19:00,71.60,53.60,53.03,10.00,6.00,0.00,30.45,M,6.21,M,M,M,M,M,M,M,M,M,M,M,M,M,M,M,M,71.60,LFBL 121900Z AUTO 01006KT CAVOK 22/12 Q1031 NOSIG,M
LFBL,LFBL,2019-09-12 19:30,71.60,53.60,53.03,10.00,7.00,0.00,30.45,M,6.21,M,M,M,M,M,M,M,M,M,M,M,M,M,M,M,M,71.60,LFBL 121930Z AUTO 01007KT CAVOK 22/12 Q1031 NOSIG,M
LFBL,LFBL,2019-09-12 20:00,71.60,53.60,53.03,10.00,8.00,0.00,30.45,M,6.21,M,M,M,M,M,M,M,M,M,M,M,M,M,M,M,M,71.60,LFBL 122000Z AUTO 01008KT CAVOK 22/12 Q1031 NOSIG,M
LFBL,LFBL,2019-09-12 20:30,69.80,53.60,56.38,20.00,9.00,0.00,30.45,M,6.21,M,M,M,M,M,M,M,M,M,M,M,M,M,M,M,M,69.80,LFBL 122030Z AUTO 02009KT CAVOK 21/12 Q1031 NOSIG,M
LFBL,LFBL,2019-09-12 21:00,69.80,53.60,56.38,20.00,9.00,0.00,30.45,M,6.21,M,M,M,M,M,M,M,M,M,M,M,M,M,M,M,M,69.80,LFBL 122100Z AUTO 02009KT CAVOK 21/12 Q1031 NOSIG,M
LFBL,LFBL,2019-09-12 21:30,68.00,53.60,59.97,20.00,9.00,0.00,30.45,M,6.21,M,M,M,M,M,M,M,M,M,M,M,M,M,M,M,M,68.00,LFBL 122130Z AUTO 02009KT CAVOK 20/12 Q1031 NOSIG,M
LFBL,LFBL,2019-09-12 22:00,68.00,53.60,59.97,20.00,9.00,0.00,30.45,M,6.21,M,M,M,M,M,M,M,M,M,M,M,M,M,M,M,M,68.00,LFBL 122200Z AUTO 02009KT CAVOK 20/12 Q1031 NOSIG,M
LFBL,LFBL,2019-09-12 22:30,68.00,51.80,56.13,20.00,9.00,0.00,30.45,M,6.21,M,M,M,M,M,M,M,M,M,M,M,M,M,M,M,M,68.00,LFBL 122230Z AUTO 02009KT CAVOK 20/11 Q1031 NOSIG,M
LFBL,LFBL,2019-09-12 23:00,68.00,51.80,56.13,30.00,8.00,0.00,30.45,M,6.21,M,M,M,M,M,M,M,M,M,M,M,M,M,M,M,M,68.00,LFBL 122300Z AUTO 03008KT CAVOK 20/11 Q1031 NOSIG,M
LFBL,LFBL,2019-09-12 23:30,68.00,51.80,56.13,20.00,6.00,0.00,30.45,M,6.21,M,M,M,M,M,M,M,M,M,M,M,M,M,M,M,M,68.00,LFBL 122330Z AUTO 02006KT CAVOK 20/11 Q1031 NOSIG,M
LFBM,LFBM,2019-09-12 00:00,55.40,51.80,87.65,M,2.00,0.00,30.42,M,6.21,M,M,M,M,M,M,M,M,M,M,M,M,M,M,M,M,55.40,LFBM 120000Z AUTO VRB02KT CAVOK 13/11 Q1030 NOSIG,M
LFBM,LFBM,2019-09-12 00:30,53.60,50.00,87.56,M,2.00,0.00,30.42,M,6.21,M,M,M,M,M,M,M,M,M,M,M,M,M,M,M,M,53.60,LFBM 120030Z AUTO VRB02KT CAVOK 12/10 Q1030 NOSIG,M
LFBM,LFBM,2019-09-12 01:00,51.80,50.00,93.55,280.00,2.00,0.00,30.42,M,6.21,M,M,M,M,M,M,M,M,M,M,M,M,M,M,M,M,51.80,LFBM 120100Z AUTO 28002KT CAVOK 11/10 Q1030 NOSIG,M
LFBM,LFBM,2019-09-12 01:30,51.80,50.00,93.55,260.00,2.00,0.00,30.42,M,6.21,M,M,M,M,M,M,M,M,M,M,M,M,M,M,M,M,51.80,LFBM 120130Z AUTO 26002KT CAVOK 11/10 Q1030 TEMPO 0600 FG VV///,M
LFBM,LFBM,2019-09-12 02:00,51.80,50.00,93.55,M,2.00,0.00,30.42,M,6.21,M,M,M,M,M,M,M,M,M,M,M,M,M,M,M,M,51.80,LFBM 120200Z AUTO VRB02KT CAVOK 11/10 Q1030 TEMPO 0600 FG VV///,M
LFBM,LFBM,2019-09-12 02:30,50.00,50.00,100.00,270.00,4.00,0.00,30.42,M,6.21,M,M,M,M,M,M,M,M,M,M,M,M,M,M,M,M,48.44,LFBM 120230Z AUTO 27004KT CAVOK 10/10 Q1030 TEMPO 0600 FG VV///,M
LFBM,LFBM,2019-09-12 03:00,50.00,50.00,100.00,M,2.00,0.00,30.42,M,6.21,M,M,M,M,M,M,M,M,M,M,M,M,M,M,M,M,50.00,LFBM 120300Z AUTO VRB02KT CAVOK 10/10 Q1030 TEMPO 0600 FG VV///,M
LFBM,LFBM,2019-09-12 03:30,50.00,50.00,100.00,0.00,0.00,0.00,30.42,M,6.21,M,M,M,M,M,M,M,M,M,M,M,M,M,M,M,M,50.00,LFBM 120330Z AUTO 00000KT CAVOK 10/10 Q1030 TEMPO 0600 FG VV///,M
LFBM,LFBM,2019-09-12 04:00,50.00,48.20,93.50,290.00,1.00,0.00,30.42,M,6.21,M,M,M,M,M,M,M,M,M,M,M,M,M,M,M,M,50.00,LFBM 120400Z AUTO 29001KT CAVOK 10/09 Q1030 TEMPO 0600 FG VV///,M
LFBM,LFBM,2019-09-12 04:30,48.20,46.40,93.45,0.00,0.00,0.00,30.42,M,6.21,M,M,M,M,M,M,M,M,M,M,M,M,M,M,M,M,48.20,LFBM 120430Z AUTO 00000KT CAVOK 09/08 Q1030 TEMPO 0600 FG VV///,M
LFBM,LFBM,2019-09-12 05:00,48.20,46.40,93.45,0.00,0.00,0.00,30.42,M,6.21,M,M,M,M,M,M,M,M,M,M,M,M,M,M,M,M,48.20,LFBM 120500Z AUTO 00000KT CAVOK 09/08 Q1030 TEMPO 0600 FG VV///,M
LFBM,LFBM,2019-09-12 05:30,46.40,44.60,93.40,40.00,1.00,0.00,30.42,M,6.21,M,M,M,M,M,M,M,M,M,M,M,M,M,M,M,M,46.40,LFBM 120530Z AUTO 04001KT CAVOK 08/07 Q1030 TEMPO 0600 FG VV///,M
LFBM,LFBM,2019-09-12 06:00,46.40,46.40,100.00,0.00,0.00,0.00,30.45,M,6.21,M,M,M,M,M,M,M,M,M,M,M,M,M,M,M,M,46.40,LFBM 120600Z AUTO 00000KT CAVOK 08/08 Q1031 TEMPO 0600 FG VV///,M
LFBM,LFBM,2019-09-12 06:30,50.00,48.20,93.50,20.00,1.00,0.00,30.45,M,6.21,M,M,M,M,M,M,M,M,M,M,M,M,M,M,M,M,50.00,LFBM 120630Z AUTO 02001KT CAVOK 10/09 Q1031 NOSIG,M
LFBM,LFBM,2019-09-12 07:00,53.60,50.00,87.56,0.00,0.00,0.00,30.45,M,6.21,M,M,M,M,M,M,M,M,M,M,M,M,M,M,M,M,53.60,LFBM 120700Z AUTO 00000KT CAVOK 12/10 Q1031 NOSIG,M
LFBM,LFBM,2019-09-12 07:30,55.40,51.80,87.65,0.00,0.00,0.00,30.47,M,6.21,M,M,M,M,M,M,M,M,M,M,M,M,M,M,M,M,55.40,LFBM 120730Z AUTO 00000KT CAVOK 13/11 Q1032 NOSIG,M
LFBM,LFBM,2019-09-12 08:00,57.20,51.80,82.12,M,2.00,0.00,30.47,M,6.21,M,M,M,M,M,M,M,M,M,M,M,M,M,M,M,M,57.20,LFBM 120800Z AUTO VRB02KT CAVOK 14/11 Q1032,M
LFBM,LFBM,2019-09-12 08:30,60.80,53.60,77.14,M,1.00,0.00,30.47,M,6.21,M,M,M,M,M,M,M,M,M,M,M,M,M,M,M,M,60.80,LFBM 120830Z AUTO VRB01KT CAVOK 16/12 Q1032 NOSIG,M
LFBM,LFBM,2019-09-12 09:00,62.60,53.60,72.38,M,2.00,0.00,30.47,M,6.21,M,M,M,M,M,M,M,M,M,M,M,M,M,M,M,M,62.60,LFBM 120900Z AUTO VRB02KT CAVOK 17/12 Q1032 NOSIG,M
LFBM,LFBM,2019-09-12 09:30,66.20,53.60,63.82,M,3.00,0.00,30.47,M,6.21,M,M,M,M,M,M,M,M,M,M,M,M,M,M,M,M,66.20,LFBM 120930Z AUTO VRB03KT CAVOK 19/12 Q1032 NOSIG,M
LFBM,LFBM,2019-09-12 10:00,68.00,53.60,59.97,M,2.00,0.00,30.47,M,6.21,M,M,M,M,M,M,M,M,M,M,M,M,M,M,M,M,68.00,LFBM 121000Z AUTO VRB02KT CAVOK 20/12 Q1032 NOSIG,M
LFBM,LFBM,2019-09-12 10:30,71.60,55.40,56.63,M,3.00,0.00,30.47,M,6.21,M,M,M,M,M,M,M,M,M,M,M,M,M,M,M,M,71.60,LFBM 121030Z AUTO VRB03KT CAVOK 22/13 Q1032 NOSIG,M
LFBM,LFBM,2019-09-12 11:00,73.40,53.60,49.90,M,3.00,0.00,30.47,M,6.21,M,M,M,M,M,M,M,M,M,M,M,M,M,M,M,M,73.40,LFBM 121100Z AUTO VRB03KT CAVOK 23/12 Q1032 NOSIG,M
LFBM,LFBM,2019-09-12 11:30,75.20,55.40,50.17,M,3.00,0.00,30.45,M,6.21,M,M,M,M,M,M,M,M,M,M,M,M,M,M,M,M,75.20,LFBM 121130Z AUTO VRB03KT CAVOK 24/13 Q1031 NOSIG,M
LFBM,LFBM,2019-09-12 12:00,75.20,53.60,46.98,M,3.00,0.00,30.45,M,6.21,M,M,M,M,M,M,M,M,M,M,M,M,M,M,M,M,75.20,LFBM 121200Z AUTO VRB03KT CAVOK 24/12 Q1031 NOSIG,M
LFBM,LFBM,2019-09-12 12:30,77.00,53.60,44.25,M,3.00,0.00,30.45,M,6.21,M,M,M,M,M,M,M,M,M,M,M,M,M,M,M,M,77.00,LFBM 121230Z AUTO VRB03KT CAVOK 25/12 Q1031 NOSIG,M
LFBM,LFBM,2019-09-12 13:00,78.80,53.60,41.69,M,3.00,0.00,30.45,M,6.21,M,M,M,M,M,M,M,M,M,M,M,M,M,M,M,M,78.80,LFBM 121300Z AUTO VRB03KT CAVOK 26/12 Q1031 NOSIG,M
LFBM,LFBM,2019-09-12 13:30,80.60,53.60,39.30,M,4.00,0.00,30.42,M,6.21,M,M,M,M,M,M,M,M,M,M,M,M,M,M,M,M,80.29,LFBM 121330Z AUTO VRB04KT CAVOK 27/12 Q1030 NOSIG,M
LFBM,LFBM,2019-09-12 14:00,80.60,53.60,39.30,M,2.00,0.00,30.42,M,6.21,M,M,M,M,M,M,M,M,M,M,M,M,M,M,M,M,80.29,LFBM 121400Z AUTO VRB02KT CAVOK 27/12 Q1030,M
LFBM,LFBM,2019-09-12 14:30,82.40,50.00,32.46,M,3.00,0.00,30.39,M,6.21,M,M,M,M,M,M,M,M,M,M,M,M,M,M,M,M,80.99,LFBM 121430Z AUTO VRB03KT CAVOK 28/10 Q1029 NOSIG,M
LFBM,LFBM,2019-09-12 15:00,82.40,51.80,34.69,M,4.00,0.00,30.39,M,6.21,M,M,M,M,M,M,M,M,M,M,M,M,M,M,M,M,81.20,LFBM 121500Z AUTO VRB04KT CAVOK 28/11 Q1029 NOSIG,M
LFBM,LFBM,2019-09-12 15:30,82.40,50.00,32.46,60.00,4.00,0.00,30.39,M,6.21,M,M,M,M,M,M,M,M,M,M,M,M,M,M,M,M,80.99,LFBM 121530Z AUTO 06004KT 010V110 CAVOK 28/10 Q1029 NOSIG,M
LFBM,LFBM,2019-09-12 16:00,82.40,48.20,30.35,70.00,6.00,0.00,30.39,M,6.21,M,M,M,M,M,M,M,M,M,M,M,M,M,M,M,M,80.80,LFBM 121600Z AUTO 07006KT 020V120 CAVOK 28/09 Q1029 NOSIG,M
LFBM,LFBM,2019-09-12 16:30,82.40,48.20,30.35,60.00,5.00,0.00,30.39,M,6.21,M,M,M,M,M,M,M,M,M,M,M,M,M,M,M,M,80.80,LFBM 121630Z AUTO 06005KT 360V120 CAVOK 28/09 Q1029 NOSIG,M
LFBM,LFBM,2019-09-12 17:00,82.40,50.00,32.46,70.00,5.00,0.00,30.39,M,6.21,M,M,M,M,M,M,M,M,M,M,M,M,M,M,M,M,80.99,LFBM 121700Z AUTO 07005KT 030V110 CAVOK 28/10 Q1029 NOSIG,M
LFBM,LFBM,2019-09-12 17:30,80.60,51.80,36.79,M,3.00,0.00,30.39,M,6.21,M,M,M,M,M,M,M,M,M,M,M,M,M,M,M,M,80.08,LFBM 121730Z AUTO VRB03KT CAVOK 27/11 Q1029 NOSIG,M
LFBM,LFBM,2019-09-12 18:00,77.00,53.60,44.25,M,2.00,0.00,30.39,M,6.21,M,M,M,M,M,M,M,M,M,M,M,M,M,M,M,M,77.00,LFBM 121800Z AUTO VRB02KT CAVOK 25/12 Q1029 NOSIG,M
LFBM,LFBM,2019-09-12 18:30,73.40,53.60,49.90,0.00,0.00,0.00,30.39,M,6.21,M,M,M,M,M,M,M,M,M,M,M,M,M,M,M,M,73.40,LFBM 121830Z AUTO 00000KT CAVOK 23/12 Q1029 NOSIG,M
LFBM,LFBM,2019-09-12 19:00,69.80,53.60,56.38,M,3.00,0.00,30.39,M,6.21,M,M,M,M,M,M,M,M,M,M,M,M,M,M,M,M,69.80,LFBM 121900Z AUTO VRB03KT CAVOK 21/12 Q1029 NOSIG,M
LFBM,LFBM,2019-09-12 19:30,68.00,53.60,59.97,330.00,1.00,0.00,30.42,M,6.21,M,M,M,M,M,M,M,M,M,M,M,M,M,M,M,M,68.00,LFBM 121930Z AUTO 33001KT CAVOK 20/12 Q1030 NOSIG,M
LFBM,LFBM,2019-09-12 20:00,66.20,53.60,63.82,0.00,0.00,0.00,30.42,M,6.21,M,M,M,M,M,M,M,M,M,M,M,M,M,M,M,M,66.20,LFBM 122000Z AUTO 00000KT CAVOK 19/12 Q1030,M
LFBM,LFBM,2019-09-12 20:30,64.40,55.40,72.56,10.00,1.00,0.00,30.42,M,6.21,M,M,M,M,M,M,M,M,M,M,M,M,M,M,M,M,64.40,LFBM 122030Z AUTO 01001KT CAVOK 18/13 Q1030 NOSIG,M
LFBM,LFBM,2019-09-12 21:00,62.60,53.60,72.38,M,2.00,0.00,30.39,M,6.21,M,M,M,M,M,M,M,M,M,M,M,M,M,M,M,M,62.60,LFBM 122100Z AUTO VRB02KT CAVOK 17/12 Q1029 NOSIG,M
LFBM,LFBM,2019-09-12 21:30,60.80,53.60,77.14,M,1.00,0.00,30.42,M,6.21,M,M,M,M,M,M,M,M,M,M,M,M,M,M,M,M,60.80,LFBM 122130Z AUTO VRB01KT CAVOK 16/12 Q1030 NOSIG,M
LFBM,LFBM,2019-09-12 22:00,60.80,53.60,77.14,340.00,1.00,0.00,30.42,M,6.21,M,M,M,M,M,M,M,M,M,M,M,M,M,M,M,M,60.80,LFBM 122200Z AUTO 34001KT CAVOK 16/12 Q1030 NOSIG,M
LFBM,LFBM,2019-09-12 22:30,59.00,51.80,76.98,0.00,0.00,0.00,30.39,M,6.21,M,M,M,M,M,M,M,M,M,M,M,M,M,M,M,M,59.00,LFBM 122230Z AUTO 00000KT CAVOK 15/11 Q1029 NOSIG,M
LFBM,LFBM,2019-09-12 23:00,57.20,51.80,82.12,0.00,0.00,0.00,30.39,M,6.21,M,M,M,M,M,M,M,M,M,M,M,M,M,M,M,M,57.20,LFBM 122300Z AUTO 00000KT CAVOK 14/11 Q1029 NOSIG,M
LFBM,LFBM,2019-09-12 23:30,57.20,51.80,82.12,0.00,0.00,0.00,30.39,M,6.21,M,M,M,M,M,M,M,M,M,M,M,M,M,M,M,M,57.20,LFBM 122330Z AUTO 00000KT CAVOK 14/11 Q1029 BECMG 3000 BR,M
LFBO,LFBO,2019-09-12 00:00,60.80,46.40,59.01,310.00,3.00,0.00,30.39,M,6.21,M,M,M,M,M,M,M,M,M,M,M,M,M,M,M,M,60.80,LFBO 120000Z AUTO 31003KT CAVOK 16/08 Q1029 NOSIG,M
LFBO,LFBO,2019-09-12 00:30,59.00,48.20,67.33,220.00,5.00,0.00,30.39,M,6.21,M,M,M,M,M,M,M,M,M,M,M,M,M,M,M,M,59.00,LFBO 120030Z AUTO 22005KT 180V280 CAVOK 15/09 Q1029 NOSIG,M
LFBO,LFBO,2019-09-12 01:00,55.40,48.20,76.66,170.00,3.00,0.00,30.39,M,6.21,M,M,M,M,M,M,M,M,M,M,M,M,M,M,M,M,55.40,LFBO 120100Z AUTO 17003KT 120V200 CAVOK 13/09 Q1029 NOSIG,M
LFBO,LFBO,2019-09-12 01:30,55.40,48.20,76.66,200.00,5.00,0.00,30.39,M,6.21,M,M,M,M,M,M,M,M,M,M,M,M,M,M,M,M,55.40,LFBO 120130Z AUTO 20005KT CAVOK 13/09 Q1029 NOSIG,M
LFBO,LFBO,2019-09-12 02:00,55.40,48.20,76.66,190.00,4.00,0.00,30.39,M,6.21,M,M,M,M,M,M,M,M,M,M,M,M,M,M,M,M,55.40,LFBO 120200Z AUTO 19004KT CAVOK 13/09 Q1029 NOSIG,M
LFBO,LFBO,2019-09-12 02:30,55.40,50.00,81.99,200.00,5.00,0.00,30.39,M,6.21,M,M,M,M,M,M,M,M,M,M,M,M,M,M,M,M,55.40,LFBO 120230Z AUTO 20005KT CAVOK 13/10 Q1029 NOSIG,M
LFBO,LFBO,2019-09-12 03:00,53.60,50.00,87.56,200.00,5.00,0.00,30.39,M,6.21,M,M,M,M,M,M,M,M,M,M,M,M,M,M,M,M,53.60,LFBO 120300Z AUTO 20005KT CAVOK 12/10 Q1029 NOSIG,M
LFBO,LFBO,2019-09-12 03:30,53.60,50.00,87.56,190.00,5.00,0.00,30.39,M,6.21,M,M,M,M,M,M,M,M,M,M,M,M,M,M,M,M,53.60,LFBO 120330Z AUTO 19005KT 170V240 CAVOK 12/10 Q1029 NOSIG,M
LFBO,LFBO,2019-09-12 04:00,53.60,48.20,81.87,190.00,4.00,0.00,30.39,M,6.21,M,M,M,M,M,M,M,M,M,M,M,M,M,M,M,M,53.60,LFBO 120400Z AUTO 19004KT CAVOK 12/09 Q1029 NOSIG,M
LFBO,LFBO,2019-09-12 04:30,53.60,50.00,87.56,200.00,5.00,0.00,30.39,M,6.21,M,M,M,M,M,M,M,M,M,M,M,M,M,M,M,M,53.60,LFBO 120430Z AUTO 20005KT 180V240 CAVOK 12/10 Q1029 NOSIG,M
LFBO,LFBO,2019-09-12 05:00,53.60,50.00,87.56,190.00,4.00,0.00,30.39,M,6.21,M,M,M,M,M,M,M,M,M,M,M,M,M,M,M,M,53.60,LFBO 120500Z AUTO 19004KT 160V220 CAVOK 12/10 Q1029 NOSIG,M
LFBO,LFBO,2019-09-12 05:30,53.60,50.00,87.56,210.00,3.00,0.00,30.42,M,6.21,M,M,M,M,M,M,M,M,M,M,M,M,M,M,M,M,53.60,LFBO 120530Z AUTO 21003KT CAVOK 12/10 Q1030 NOSIG,M
LFBO,LFBO,2019-09-12 06:00,53.60,50.00,87.56,200.00,3.00,0.00,30.42,M,6.21,M,M,M,M,M,M,M,M,M,M,M,M,M,M,M,M,53.60,LFBO 120600Z AUTO 20003KT CAVOK 12/10 Q1030 NOSIG,M
LFBO,LFBO,2019-09-12 06:30,55.40,51.80,87.65,M,1.00,0.00,30.42,M,6.21,M,FEW,M,M,M,1300.00,M,M,M,M,M,M,M,M,M,M,55.40,LFBO 120630Z AUTO VRB01KT 9999 FEW013 13/11 Q1030 NOSIG,M
LFBO,LFBO,2019-09-12 07:00,59.00,51.80,76.98,300.00,3.00,0.00,30.45,M,6.21,M,FEW,M,M,M,1500.00,M,M,M,M,M,M,M,M,M,M,59.00,LFBO 120700Z AUTO 30003KT 260V330 9999 FEW015 15/11 Q1031 NOSIG,M
LFBO,LFBO,2019-09-12 07:30,60.80,51.80,72.20,300.00,7.00,0.00,30.45,M,6.21,M,FEW,M,M,M,1600.00,M,M,M,M,M,M,M,M,M,M,60.80,LFBO 120730Z AUTO 30007KT 9999 FEW016 16/11 Q1031 NOSIG,M
LFBO,LFBO,2019-09-12 08:00,62.60,51.80,67.75,280.00,6.00,0.00,30.45,M,6.21,M,FEW,M,M,M,1300.00,M,M,M,M,M,M,M,M,M,M,62.60,LFBO 120800Z AUTO 28006KT 250V320 9999 FEW013 17/11 Q1031 NOSIG,M
LFBO,LFBO,2019-09-12 08:30,66.20,53.60,63.82,260.00,5.00,0.00,30.45,M,6.21,M,FEW,M,M,M,1300.00,M,M,M,M,M,M,M,M,M,M,66.20,LFBO 120830Z AUTO 26005KT 230V310 9999 FEW013 19/12 Q1031 NOSIG,M
LFBO,LFBO,2019-09-12 09:00,68.00,51.80,56.13,270.00,5.00,0.00,30.47,M,6.21,M,FEW,M,M,M,1400.00,M,M,M,M,M,M,M,M,M,M,68.00,LFBO 120900Z AUTO 27005KT 240V320 9999 FEW014 20/11 Q1032 NOSIG,M
LFBO,LFBO,2019-09-12 09:30,68.00,51.80,56.13,300.00,4.00,0.00,30.47,M,6.21,M,FEW,M,M,M,800.00,M,M,M,M,M,M,M,M,M,M,68.00,LFBO 120930Z AUTO 30004KT 230V350 9999 FEW008 20/11 Q1032 NOSIG,M
LFBO,LFBO,2019-09-12 10:00,71.60,53.60,53.03,M,4.00,0.00,30.47,M,6.21,M,M,M,M,M,M,M,M,M,M,M,M,M,M,M,M,71.60,LFBO 121000Z AUTO VRB04KT CAVOK 22/12 Q1032 NOSIG,M
LFBO,LFBO,2019-09-12 10:30,71.60,53.60,53.03,330.00,4.00,0.00,30.47,M,6.21,M,FEW,M,M,M,1300.00,M,M,M,M,M,M,M,M,M,M,71.60,LFBO 121030Z AUTO 33004KT 280V030 9999 FEW013 22/12 Q1032 NOSIG,M
LFBO,LFBO,2019-09-12 11:00,75.20,51.80,43.97,320.00,6.00,0.00,30.45,M,6.21,M,FEW,M,M,M,1600.00,M,M,M,M,M,M,M,M,M,M,75.20,LFBO 121100Z AUTO 32006KT 250V360 9999 FEW016 24/11 Q1031 NOSIG,M
LFBO,LFBO,2019-09-12 11:30,75.20,51.80,43.97,340.00,5.00,0.00,30.45,M,6.21,M,FEW,M,M,M,1400.00,M,M,M,M,M,M,M,M,M,M,75.20,LFBO 121130Z AUTO 34005KT 310V020 9999 FEW014 24/11 Q1031 NOSIG,M
LFBO,LFBO,2019-09-12 12:00,77.00,50.00,38.74,350.00,5.00,0.00,30.45,M,6.21,M,M,M,M,M,M,M,M,M,M,M,M,M,M,M,M,77.00,LFBO 121200Z AUTO 35005KT 300V040 CAVOK 25/10 Q1031 NOSIG,M
LFBO,LFBO,2019-09-12 12:30,78.80,48.20,34.13,M,3.00,0.00,30.42,M,6.21,M,FEW,M,M,M,1400.00,M,M,M,M,M,M,M,M,M,M,78.80,LFBO 121230Z AUTO VRB03KT 9999 FEW014 26/09 Q1030 NOSIG,M
LFBO,LFBO,2019-09-12 13:00,80.60,46.40,30.07,330.00,7.00,0.00,30.42,M,6.21,M,FEW,M,M,M,1100.00,M,M,M,M,M,M,M,M,M,M,79.56,LFBO 121300Z AUTO 33007KT 300V030 9999 FEW011 27/08 Q1030 NOSIG,M
LFBO,LFBO,2019-09-12 13:30,80.60,46.40,30.07,310.00,5.00,0.00,30.42,M,6.21,M,M,M,M,M,M,M,M,M,M,M,M,M,M,M,M,79.56,LFBO 121330Z AUTO 31005KT 260V350 CAVOK 27/08 Q1030 NOSIG,M
LFBO,LFBO,2019-09-12 14:00,80.60,44.60,28.08,360.00,8.00,0.00,30.42,M,6.21,M,M,M,M,M,M,M,M,M,M,M,M,M,M,M,M,79.42,LFBO 121400Z AUTO 36008KT 330V050 CAVOK 27/07 Q1030 NOSIG,M
LFBO,LFBO,2019-09-12 14:30,80.60,44.60,28.08,360.00,7.00,0.00,30.39,M,6.21,M,FEW,M,M,M,1100.00,M,M,M,M,M,M,M,M,M,M,79.42,LFBO 121430Z AUTO 36007KT 330V030 9999 FEW011 27/07 Q1029 NOSIG,M
LFBO,LFBO,2019-09-12 15:00,80.60,44.60,28.08,350.00,6.00,0.00,30.39,M,6.21,M,FEW,M,M,M,1200.00,M,M,M,M,M,M,M,M,M,M,79.42,LFBO 121500Z AUTO 35006KT 290V060 9999 FEW012 27/07 Q1029 NOSIG,M
LFBO,LFBO,2019-09-12 15:30,82.40,44.60,26.49,330.00,6.00,0.00,30.39,M,6.21,M,NSC,M,M,M,M,M,M,M,M,M,M,M,M,M,M,80.50,LFBO 121530Z AUTO 33006KT 300V360 9999 NSC 28/07 Q1029 NOSIG,M
LFBO,LFBO,2019-09-12 16:00,82.40,44.60,26.49,330.00,5.00,0.00,30.39,M,6.21,M,M,M,M,M,M,M,M,M,M,M,M,M,M,M,M,80.50,LFBO 121600Z AUTO 33005KT 260V020 CAVOK 28/07 Q1029 NOSIG,M
LFBO,LFBO,2019-09-12 16:30,82.40,44.60,26.49,220.00,3.00,0.00,30.39,M,6.21,M,M,M,M,M,M,M,M,M,M,M,M,M,M,M,M,80.50,LFBO 121630Z AUTO 22003KT 180V270 CAVOK 28/07 Q1029 NOSIG,M
LFBO,LFBO,2019-09-12 17:00,80.60,46.40,30.07,M,2.00,0.00,30.39,M,6.21,M,M,M,M,M,M,M,M,M,M,M,M,M,M,M,M,79.56,LFBO 121700Z AUTO VRB02KT CAVOK 27/08 Q1029 NOSIG,M
LFBO,LFBO,2019-09-12 17:30,80.60,46.40,30.07,350.00,4.00,0.00,30.39,M,6.21,M,M,M,M,M,M,M,M,M,M,M,M,M,M,M,M,79.56,LFBO 121730Z AUTO 35004KT 310V020 CAVOK 27/08 Q1029 NOSIG,M
LFBO,LFBO,2019-09-12 18:00,77.00,46.40,33.85,290.00,5.00,0.00,30.39,M,6.21,M,M,M,M,M,M,M,M,M,M,M,M,M,M,M,M,77.00,LFBO 121800Z AUTO 29005KT CAVOK 25/08 Q1029 NOSIG,M
LFBO,LFBO,2019-09-12 18:30,77.00,48.20,36.22,280.00,3.00,0.00,30.39,M,6.21,M,M,M,M,M,M,M,M,M,M,M,M,M,M,M,M,77.00,LFBO 121830Z AUTO 28003KT 210V310 CAVOK 25/09 Q1029 NOSIG,M
LFBO,LFBO,2019-09-12 19:00,75.20,46.40,35.94,290.00,5.00,0.00,30.39,M,6.21,M,M,M,M,M,M,M,M,M,M,M,M,M,M,M,M,75.20,LFBO 121900Z AUTO 29005KT CAVOK 24/08 Q1029 NOSIG,M
LFBO,LFBO,2019-09-12 19:30,73.40,46.40,38.18,250.00,3.00,0.00,30.39,M,6.21,M,M,M,M,M,M,M,M,M,M,M,M,M,M,M,M,73.40,LFBO 121930Z AUTO 25003KT CAVOK 23/08 Q1029 NOSIG,M
LFBO,LFBO,2019-09-12 20:00,69.80,50.00,49.37,M,3.00,0.00,30.39,M,6.21,M,M,M,M,M,M,M,M,M,M,M,M,M,M,M,M,69.80,LFBO 122000Z AUTO VRB03KT CAVOK 21/10 Q1029 NOSIG,M
LFBO,LFBO,2019-09-12 20:30,68.00,50.00,52.51,M,1.00,0.00,30.42,M,6.21,M,M,M,M,M,M,M,M,M,M,M,M,M,M,M,M,68.00,LFBO 122030Z AUTO VRB01KT CAVOK 20/10 Q1030 NOSIG,M
LFBO,LFBO,2019-09-12 21:00,66.20,51.80,59.74,180.00,3.00,0.00,30.39,M,6.21,M,M,M,M,M,M,M,M,M,M,M,M,M,M,M,M,66.20,LFBO 122100Z AUTO 18003KT CAVOK 19/11 Q1029 NOSIG,M
LFBO,LFBO,2019-09-12 21:30,64.40,51.80,63.60,190.00,4.00,0.00,30.39,M,6.21,M,M,M,M,M,M,M,M,M,M,M,M,M,M,M,M,64.40,LFBO 122130Z AUTO 19004KT CAVOK 18/11 Q1029 NOSIG,M
LFBO,LFBO,2019-09-12 22:00,64.40,50.00,59.50,190.00,3.00,0.00,30.39,M,6.21,M,M,M,M,M,M,M,M,M,M,M,M,M,M,M,M,64.40,LFBO 122200Z AUTO 19003KT CAVOK 18/10 Q1029 NOSIG,M
LFBO,LFBO,2019-09-12 22:30,60.80,50.00,67.54,180.00,6.00,0.00,30.42,M,6.21,M,M,M,M,M,M,M,M,M,M,M,M,M,M,M,M,60.80,LFBO 122230Z AUTO 18006KT CAVOK 16/10 Q1030 NOSIG,M
LFBO,LFBO,2019-09-12 23:00,60.80,51.80,72.20,180.00,6.00,0.00,30.42,M,6.21,M,M,M,M,M,M,M,M,M,M,M,M,M,M,M,M,60.80,LFBO 122300Z AUTO 18006KT CAVOK 16/11 Q1030 NOSIG,M
LFBO,LFBO,2019-09-12 23:30,60.80,53.60,77.14,180.00,3.00,0.00,30.42,M,6.21,M,M,M,M,M,M,M,M,M,M,M,M,M,M,M,M,60.80,LFBO 122330Z AUTO 18003KT 150V210 CAVOK 16/12 Q1030 NOSIG,M
LFBP,LFBP,2019-09-12 00:00,53.60,51.80,93.60,130.00,3.00,0.00,30.42,M,6.21,M,M,M,M,M,M,M,M,M,M,M,M,M,M,M,M,53.60,LFBP 120000Z AUTO 13003KT CAVOK 12/11 Q1030 TEMPO 3000 BR,M
LFBP,LFBP,2019-09-12 00:30,51.80,50.00,93.55,50.00,1.00,0.00,30.42,M,6.21,M,M,M,M,M,M,M,M,M,M,M,M,M,M,M,M,51.80,LFBP 120030Z AUTO 05001KT CAVOK 11/10 Q1030 TEMPO 3000 BR,M
LFBP,LFBP,2019-09-12 01:00,51.80,51.80,100.00,150.00,2.00,0.00,30.42,M,6.21,M,M,M,M,M,M,M,M,M,M,M,M,M,M,M,M,51.80,LFBP 120100Z AUTO 15002KT CAVOK 11/11 Q1030 TEMPO 3000 BR,M
LFBP,LFBP,2019-09-12 01:30,51.80,51.80,100.00,110.00,2.00,0.00,30.42,M,6.21,M,M,M,M,M,M,M,M,M,M,M,M,M,M,M,M,51.80,LFBP 120130Z AUTO 11002KT CAVOK 11/11 Q1030 TEMPO 3000 BR,M
LFBP,LFBP,2019-09-12 02:00,51.80,50.00,93.55,0.00,0.00,0.00,30.42,M,6.21,M,M,M,M,M,M,M,M,M,M,M,M,M,M,M,M,51.80,LFBP 120200Z AUTO 00000KT CAVOK 11/10 Q1030 TEMPO 3000 BR,M
LFBP,LFBP,2019-09-12 02:30,51.80,50.00,93.55,110.00,3.00,0.00,30.42,M,6.21,M,M,M,M,M,M,M,M,M,M,M,M,M,M,M,M,51.80,LFBP 120230Z AUTO 11003KT CAVOK 11/10 Q1030 TEMPO 3000 BR,M
LFBP,LFBP,2019-09-12 03:00,51.80,50.00,93.55,140.00,5.00,0.00,30.42,M,6.21,M,M,M,M,M,M,M,M,M,M,M,M,M,M,M,M,51.80,LFBP 120300Z AUTO 14005KT CAVOK 11/10 Q1030 TEMPO 3000 BR,M
LFBP,LFBP,2019-09-12 03:30,50.00,50.00,100.00,M,2.00,0.00,30.42,M,6.21,M,M,M,M,M,M,M,M,M,M,M,M,M,M,M,M,50.00,LFBP 120330Z AUTO VRB02KT CAVOK 10/10 Q1030 TEMPO 3000 BR,M
LFBP,LFBP,2019-09-12 04:00,50.00,48.20,93.50,M,2.00,0.00,30.42,M,6.21,M,M,M,M,M,M,M,M,M,M,M,M,M,M,M,M,50.00,LFBP 120400Z AUTO VRB02KT CAVOK 10/09 Q1030 TEMPO 3000 BR,M
LFBP,LFBP,2019-09-12 04:30,50.00,50.00,100.00,110.00,3.00,0.00,30.42,M,6.21,M,M,M,M,M,M,M,M,M,M,M,M,M,M,M,M,49.27,LFBP 120430Z AUTO 11003KT CAVOK 10/10 Q1030 TEMPO 3000 BR,M
LFBP,LFBP,2019-09-12 05:00,50.00,50.00,100.00,130.00,2.00,0.00,30.45,M,6.21,M,M,M,M,M,M,M,M,M,M,M,M,M,M,M,M,50.00,LFBP 120500Z AUTO 13002KT CAVOK 10/10 Q1031 TEMPO 3000 BR,M
LFBP,LFBP,2019-09-12 05:30,50.00,48.20,93.50,M,2.00,0.00,30.45,M,6.21,M,M,M,M,M,M,M,M,M,M,M,M,M,M,M,M,50.00,LFBP 120530Z AUTO VRB02KT CAVOK 10/09 Q1031 TEMPO 3000 BR,M
LFBP,LFBP,2019-09-12 06:00,50.00,50.00,100.00,120.00,3.00,0.00,30.45,M,6.21,M,M,M,M,M,M,M,M,M,M,M,M,M,M,M,M,49.27,LFBP 120600Z AUTO 12003KT CAVOK 10/10 Q1031 NOSIG,M
LFBP,LFBP,2019-09-12 06:30,51.80,51.80,100.00,130.00,4.00,0.00,30.45,M,6.21,M,M,M,M,M,M,M,M,M,M,M,M,M,M,M,M,51.80,LFBP 120630Z AUTO 13004KT 090V150 CAVOK 11/11 Q1031 NOSIG,M
LFBP,LFBP,2019-09-12 07:00,55.40,53.60,93.65,140.00,3.00,0.00,30.45,M,6.21,M,M,M,M,M,M,M,M,M,M,M,M,M,M,M,M,55.40,LFBP 120700Z AUTO 14003KT CAVOK 13/12 Q1031 NOSIG,M
LFBP,LFBP,2019-09-12 07:30,59.00,55.40,87.83,M,2.00,0.00,30.47,M,6.21,M,M,M,M,M,M,M,M,M,M,M,M,M,M,M,M,59.00,LFBP 120730Z AUTO VRB02KT CAVOK 15/13 Q1032 NOSIG,M
LFBP,LFBP,2019-09-12 08:00,60.80,55.40,82.37,M,1.00,0.00,30.47,M,6.21,M,M,M,M,M,M,M,M,M,M,M,M,M,M,M,M,60.80,LFBP 120800Z AUTO VRB01KT CAVOK 16/13 Q1032 NOSIG,M
LFBP,LFBP,2019-09-12 08:30,60.80,55.40,82.37,M,1.00,0.00,30.47,M,6.21,M,M,M,M,M,M,M,M,M,M,M,M,M,M,M,M,60.80,LFBP 120830Z AUTO VRB01KT CAVOK 16/13 Q1032 NOSIG,M
LFBP,LFBP,2019-09-12 09:00,64.40,55.40,72.56,160.00,3.00,0.00,30.47,M,6.21,M,M,M,M,M,M,M,M,M,M,M,M,M,M,M,M,64.40,LFBP 120900Z AUTO 16003KT 100V190 CAVOK 18/13 Q1032 NOSIG,M
LFBP,LFBP,2019-09-12 09:30,64.40,55.40,72.56,M,2.00,0.00,30.47,M,6.21,M,M,M,M,M,M,M,M,M,M,M,M,M,M,M,M,64.40,LFBP 120930Z AUTO VRB02KT CAVOK 18/13 Q1032 NOSIG,M
LFBP,LFBP,2019-09-12 10:00,68.00,55.40,64.04,M,3.00,0.00,30.47,M,6.21,M,M,M,M,M,M,M,M,M,M,M,M,M,M,M,M,68.00,LFBP 121000Z AUTO VRB03KT CAVOK 20/13 Q1032 NOSIG,M
LFBP,LFBP,2019-09-12 10:30,69.80,55.40,60.21,M,2.00,0.00,30.47,M,6.21,M,M,M,M,M,M,M,M,M,M,M,M,M,M,M,M,69.80,LFBP 121030Z AUTO VRB02KT CAVOK 21/13 Q1032 NOSIG,M
LFBP,LFBP,2019-09-12 11:00,73.40,55.40,53.29,M,4.00,0.00,30.47,M,6.21,M,M,M,M,M,M,M,M,M,M,M,M,M,M,M,M,73.40,LFBP 121100Z AUTO VRB04KT CAVOK 23/13 Q1032 NOSIG,M
LFBP,LFBP,2019-09-12 11:30,73.40,53.60,49.90,80.00,5.00,0.00,30.45,M,6.21,M,M,M,M,M,M,M,M,M,M,M,M,M,M,M,M,73.40,LFBP 121130Z AUTO 08005KT 020V120 CAVOK 23/12 Q1031 NOSIG,M
LFBP,LFBP,2019-09-12 12:00,73.40,55.40,53.29,M,5.00,0.00,30.45,M,6.21,M,M,M,M,M,M,M,M,M,M,M,M,M,M,M,M,73.40,LFBP 121200Z AUTO VRB05KT CAVOK 23/13 Q1031 NOSIG,M
LFBP,LFBP,2019-09-12 12:30,75.20,53.60,46.98,30.00,6.00,0.00,30.45,M,6.21,M,M,M,M,M,M,M,M,M,M,M,M,M,M,M,M,75.20,LFBP 121230Z AUTO 03006KT 340V080 CAVOK 24/12 Q1031 NOSIG,M
LFBP,LFBP,2019-09-12 13:00,75.20,55.40,50.17,20.00,5.00,0.00,30.45,M,6.21,M,M,M,M,M,M,M,M,M,M,M,M,M,M,M,M,75.20,LFBP 121300Z AUTO 02005KT 300V080 CAVOK 24/13 Q1031 NOSIG,M
LFBP,LFBP,2019-09-12 13:30,75.20,57.20,53.55,20.00,5.00,0.00,30.42,M,6.21,M,M,M,M,M,M,M,M,M,M,M,M,M,M,M,M,75.20,LFBP 121330Z AUTO 02005KT 350V080 CAVOK 24/14 Q1030 NOSIG,M
LFBP,LFBP,2019-09-12 14:00,77.00,55.40,47.25,40.00,5.00,0.00,30.42,M,6.21,M,M,M,M,M,M,M,M,M,M,M,M,M,M,M,M,77.00,LFBP 121400Z AUTO 04005KT 340V100 CAVOK 25/13 Q1030 NOSIG,M
LFBP,LFBP,2019-09-12 14:30,77.00,57.20,50.43,20.00,3.00,0.00,30.42,M,6.21,M,M,M,M,M,M,M,M,M,M,M,M,M,M,M,M,77.00,LFBP 121430Z AUTO 02003KT 320V110 CAVOK 25/14 Q1030 NOSIG,M
LFBP,LFBP,2019-09-12 15:00,77.00,53.60,44.25,20.00,4.00,0.00,30.39,M,6.21,M,M,M,M,M,M,M,M,M,M,M,M,M,M,M,M,77.00,LFBP 121500Z AUTO 02004KT 330V070 CAVOK 25/12 Q1029 NOSIG,M
LFBP,LFBP,2019-09-12 15:30,77.00,53.60,44.25,M,3.00,0.00,30.39,M,6.21,M,NSC,M,M,M,M,M,M,M,M,M,M,M,M,M,M,77.00,LFBP 121530Z AUTO VRB03KT 9999 NSC 25/12 Q1029 NOSIG,M
LFBP,LFBP,2019-09-12 16:00,77.00,53.60,44.25,90.00,4.00,0.00,30.39,M,6.21,M,M,M,M,M,M,M,M,M,M,M,M,M,M,M,M,77.00,LFBP 121600Z AUTO 09004KT 040V150 CAVOK 25/12 Q1029 NOSIG,M
LFBP,LFBP,2019-09-12 16:30,77.00,53.60,44.25,40.00,6.00,0.00,30.39,M,6.21,M,M,M,M,M,M,M,M,M,M,M,M,M,M,M,M,77.00,LFBP 121630Z AUTO 04006KT 010V070 CAVOK 25/12 Q1029 NOSIG,M
LFBP,LFBP,2019-09-12 17:00,77.00,55.40,47.25,50.00,6.00,0.00,30.39,M,6.21,M,M,M,M,M,M,M,M,M,M,M,M,M,M,M,M,77.00,LFBP 121700Z AUTO 05006KT CAVOK 25/13 Q1029 NOSIG,M
LFBP,LFBP,2019-09-12 17:30,75.20,55.40,50.17,30.00,4.00,0.00,30.39,M,6.21,M,M,M,M,M,M,M,M,M,M,M,M,M,M,M,M,75.20,LFBP 121730Z AUTO 03004KT CAVOK 24/13 Q1029 NOSIG,M
LFBP,LFBP,2019-09-12 18:00,73.40,57.20,56.88,40.00,2.00,0.00,30.39,M,6.21,M,M,M,M,M,M,M,M,M,M,M,M,M,M,M,M,73.40,LFBP 121800Z AUTO 04002KT CAVOK 23/14 Q1029 NOSIG,M
LFBP,LFBP,2019-09-12 18:30,68.00,57.20,68.35,10.00,1.00,0.00,30.39,M,6.21,M,M,M,M,M,M,M,M,M,M,M,M,M,M,M,M,68.00,LFBP 121830Z AUTO 01001KT CAVOK 20/14 Q1029 NOSIG,M
LFBP,LFBP,2019-09-12 19:00,64.40,57.20,77.45,40.00,3.00,0.00,30.39,M,6.21,M,M,M,M,M,M,M,M,M,M,M,M,M,M,M,M,64.40,LFBP 121900Z AUTO 04003KT CAVOK 18/14 Q1029 NOSIG,M
LFBP,LFBP,2019-09-12 19:30,62.60,57.20,82.50,30.00,2.00,0.00,30.42,M,6.21,M,M,M,M,M,M,M,M,M,M,M,M,M,M,M,M,62.60,LFBP 121930Z AUTO 03002KT CAVOK 17/14 Q1030 NOSIG,M
LFBP,LFBP,2019-09-12 20:00,60.80,57.20,87.92,30.00,2.00,0.00,30.42,M,6.21,M,M,M,M,M,M,M,M,M,M,M,M,M,M,M,M,60.80,LFBP 122000Z AUTO 03002KT CAVOK 16/14 Q1030 NOSIG,M
LFBP,LFBP,2019-09-12 20:30,60.80,57.20,87.92,180.00,3.00,0.00,30.42,M,6.21,M,M,M,M,M,M,M,M,M,M,M,M,M,M,M,M,60.80,LFBP 122030Z AUTO 18003KT CAVOK 16/14 Q1030 NOSIG,M
LFBP,LFBP,2019-09-12 21:00,60.80,57.20,87.92,160.00,4.00,0.00,30.42,M,6.21,M,M,M,M,M,M,M,M,M,M,M,M,M,M,M,M,60.80,LFBP 122100Z AUTO 16004KT 130V190 CAVOK 16/14 Q1030 NOSIG,M
LFBP,LFBP,2019-09-12 21:30,60.80,55.40,82.37,110.00,3.00,0.00,30.42,M,6.21,M,M,M,M,M,M,M,M,M,M,M,M,M,M,M,M,60.80,LFBP 122130Z AUTO 11003KT CAVOK 16/13 Q1030 NOSIG,M
LFBP,LFBP,2019-09-12 22:00,59.00,55.40,87.83,120.00,3.00,0.00,30.42,M,6.21,M,M,M,M,M,M,M,M,M,M,M,M,M,M,M,M,59.00,LFBP 122200Z AUTO 12003KT CAVOK 15/13 Q1030 NOSIG,M
LFBP,LFBP,2019-09-12 22:30,59.00,55.40,87.83,140.00,2.00,0.00,30.42,M,6.21,M,M,M,M,M,M,M,M,M,M,M,M,M,M,M,M,59.00,LFBP 122230Z AUTO 14002KT CAVOK 15/13 Q1030 NOSIG,M
LFBP,LFBP,2019-09-12 23:00,57.20,53.60,87.74,60.00,1.00,0.00,30.42,M,6.21,M,M,M,M,M,M,M,M,M,M,M,M,M,M,M,M,57.20,LFBP 122300Z AUTO 06001KT CAVOK 14/12 Q1030 NOSIG,M
LFBP,LFBP,2019-09-12 23:30,55.40,53.60,93.65,M,2.00,0.00,30.42,M,6.21,M,M,M,M,M,M,M,M,M,M,M,M,M,M,M,M,55.40,LFBP 122330Z AUTO VRB02KT CAVOK 13/12 Q1030 NOSIG,M
LFBT,LFBT,2019-09-12 00:00,53.60,50.00,87.56,180.00,4.00,0.00,30.45,M,6.21,M,M,M,M,M,M,M,M,M,M,M,M,M,M,M,M,53.60,LFBT 120000Z AUTO 18004KT CAVOK 12/10 Q1031 NOSIG,M
LFBT,LFBT,2019-09-12 00:30,51.80,50.00,93.55,190.00,3.00,0.00,30.45,M,6.21,M,M,M,M,M,M,M,M,M,M,M,M,M,M,M,M,51.80,LFBT 120030Z AUTO 19003KT CAVOK 11/10 Q1031 NOSIG,M
LFBT,LFBT,2019-09-12 01:00,53.60,51.80,93.60,150.00,5.00,0.00,30.42,M,6.21,M,M,M,M,M,M,M,M,M,M,M,M,M,M,M,M,53.60,LFBT 120100Z AUTO 15005KT CAVOK 12/11 Q1030 NOSIG,M
LFBT,LFBT,2019-09-12 01:30,51.80,50.00,93.55,150.00,4.00,0.00,30.42,M,6.21,M,M,M,M,M,M,M,M,M,M,M,M,M,M,M,M,51.80,LFBT 120130Z AUTO 15004KT CAVOK 11/10 Q1030 NOSIG,M
LFBT,LFBT,2019-09-12 02:00,51.80,50.00,93.55,180.00,3.00,0.00,30.42,M,6.21,M,M,M,M,M,M,M,M,M,M,M,M,M,M,M,M,51.80,LFBT 120200Z AUTO 18003KT CAVOK 11/10 Q1030 NOSIG,M
LFBT,LFBT,2019-09-12 02:30,51.80,48.20,87.47,170.00,4.00,0.00,30.42,M,6.21,M,M,M,M,M,M,M,M,M,M,M,M,M,M,M,M,51.80,LFBT 120230Z AUTO 17004KT CAVOK 11/09 Q1030 NOSIG,M
LFBT,LFBT,2019-09-12 03:00,50.00,48.20,93.50,170.00,3.00,0.00,30.42,M,6.21,M,M,M,M,M,M,M,M,M,M,M,M,M,M,M,M,49.27,LFBT 120300Z AUTO 17003KT CAVOK 10/09 Q1030 NOSIG,M
LFBT,LFBT,2019-09-12 03:30,50.00,48.20,93.50,170.00,4.00,0.00,30.42,M,6.21,M,M,M,M,M,M,M,M,M,M,M,M,M,M,M,M,48.44,LFBT 120330Z AUTO 17004KT CAVOK 10/09 Q1030 NOSIG,M
LFBT,LFBT,2019-09-12 04:00,50.00,50.00,100.00,170.00,6.00,0.00,30.42,M,6.21,M,M,M,M,M,M,M,M,M,M,M,M,M,M,M,M,47.21,LFBT 120400Z AUTO 17006KT CAVOK 10/10 Q1030 NOSIG,M
LFBT,LFBT,2019-09-12 04:30,50.00,48.20,93.50,170.00,5.00,0.00,30.42,M,6.21,M,M,M,M,M,M,M,M,M,M,M,M,M,M,M,M,47.77,LFBT 120430Z AUTO 17005KT CAVOK 10/09 Q1030 NOSIG,M
LFBT,LFBT,2019-09-12 05:00,50.00,48.20,93.50,160.00,3.00,0.00,30.45,M,6.21,M,M,M,M,M,M,M,M,M,M,M,M,M,M,M,M,49.27,LFBT 120500Z AUTO 16003KT CAVOK 10/09 Q1031 NOSIG,M
LFBT,LFBT,2019-09-12 05:30,50.00,48.20,93.50,160.00,3.00,0.00,30.45,M,6.21,M,M,M,M,M,M,M,M,M,M,M,M,M,M,M,M,49.27,LFBT 120530Z AUTO 16003KT CAVOK 10/09 Q1031 NOSIG,M
LFBT,LFBT,2019-09-12 06:00,50.00,48.20,93.50,170.00,4.00,0.00,30.45,M,6.21,M,M,M,M,M,M,M,M,M,M,M,M,M,M,M,M,48.44,LFBT 120600Z AUTO 17004KT CAVOK 10/09 Q1031 NOSIG,M
LFBT,LFBT,2019-09-12 06:30,51.80,50.00,93.55,170.00,4.00,0.00,30.45,M,6.21,M,M,M,M,M,M,M,M,M,M,M,M,M,M,M,M,51.80,LFBT 120630Z AUTO 17004KT CAVOK 11/10 Q1031 NOSIG,M
LFBT,LFBT,2019-09-12 07:00,55.40,51.80,87.65,160.00,4.00,0.00,30.47,M,6.21,M,M,M,M,M,M,M,M,M,M,M,M,M,M,M,M,55.40,LFBT 120700Z AUTO 16004KT 140V200 CAVOK 13/11 Q1032 NOSIG,M
LFBT,LFBT,2019-09-12 07:30,59.00,53.60,82.25,150.00,4.00,0.00,30.47,M,6.21,M,M,M,M,M,M,M,M,M,M,M,M,M,M,M,M,59.00,LFBT 120730Z AUTO 15004KT 120V180 CAVOK 15/12 Q1032 NOSIG,M
LFBT,LFBT,2019-09-12 08:00,60.80,53.60,77.14,180.00,5.00,0.00,30.47,M,6.21,M,M,M,M,M,M,M,M,M,M,M,M,M,M,M,M,60.80,LFBT 120800Z AUTO 18005KT 130V200 CAVOK 16/12 Q1032 NOSIG,M
LFBT,LFBT,2019-09-12 08:30,62.60,53.60,72.38,180.00,3.00,0.00,30.47,M,6.21,M,M,M,M,M,M,M,M,M,M,M,M,M,M,M,M,62.60,LFBT 120830Z AUTO 18003KT 140V230 CAVOK 17/12 Q1032 NOSIG,M
LFBT,LFBT,2019-09-12 09:00,64.40,53.60,67.95,M,2.00,0.00,30.47,M,6.21,M,M,M,M,M,M,M,M,M,M,M,M,M,M,M,M,64.40,LFBT 120900Z AUTO VRB02KT CAVOK 18/12 Q1032 NOSIG,M
LFBT,LFBT,2019-09-12 09:30,68.00,55.40,64.04,350.00,4.00,0.00,30.47,M,6.21,M,M,M,M,M,M,M,M,M,M,M,M,M,M,M,M,68.00,LFBT 120930Z AUTO 35004KT 260V060 CAVOK 20/13 Q1032 NOSIG,M
LFBT,LFBT,2019-09-12 10:00,68.00,53.60,59.97,30.00,3.00,0.00,30.47,M,6.21,M,M,M,M,M,M,M,M,M,M,M,M,M,M,M,M,68.00,LFBT 121000Z AUTO 03003KT 310V100 CAVOK 20/12 Q1032 NOSIG,M
LFBT,LFBT,2019-09-12 10:30,69.80,53.60,56.38,M,2.00,0.00,30.47,M,6.21,M,M,M,M,M,M,M,M,M,M,M,M,M,M,M,M,69.80,LFBT 121030Z AUTO VRB02KT CAVOK 21/12 Q1032 NOSIG,M
LFBT,LFBT,2019-09-12 11:00,71.60,51.80,49.64,M,4.00,0.00,30.47,M,6.21,M,M,M,M,M,M,M,M,M,M,M,M,M,M,M,M,71.60,LFBT 121100Z AUTO VRB04KT CAVOK 22/11 Q1032 NOSIG,M
LFBT,LFBT,2019-09-12 11:30,73.40,51.80,46.71,M,5.00,0.00,30.47,M,6.21,M,M,M,M,M,M,M,M,M,M,M,M,M,M,M,M,73.40,LFBT 121130Z AUTO VRB05KT CAVOK 23/11 Q1032 NOSIG,M
LFBT,LFBT,2019-09-12 12:00,75.20,51.80,43.97,M,6.00,0.00,30.47,M,6.21,M,M,M,M,M,M,M,M,M,M,M,M,M,M,M,M,75.20,LFBT 121200Z AUTO VRB06KT CAVOK 24/11 Q1032 NOSIG,M
LFBT,LFBT,2019-09-12 12:30,75.20,51.80,43.97,10.00,5.00,0.00,30.45,M,6.21,M,M,M,M,M,M,M,M,M,M,M,M,M,M,M,M,75.20,LFBT 121230Z AUTO 01005KT 300V060 CAVOK 24/11 Q1031 NOSIG,M
LFBT,LFBT,2019-09-12 13:00,77.00,53.60,44.25,M,3.00,0.00,30.45,M,6.21,M,M,M,M,M,M,M,M,M,M,M,M,M,M,M,M,77.00,LFBT 121300Z AUTO VRB03KT CAVOK 25/12 Q1031 NOSIG,M
LFBT,LFBT,2019-09-12 13:30,75.20,53.60,46.98,20.00,5.00,0.00,30.45,M,6.21,M,M,M,M,M,M,M,M,M,M,M,M,M,M,M,M,75.20,LFBT 121330Z AUTO 02005KT 320V080 CAVOK 24/12 Q1031 NOSIG,M
LFBT,LFBT,2019-09-12 14:00,75.20,53.60,46.98,40.00,8.00,0.00,30.45,M,6.21,M,M,M,M,M,M,M,M,M,M,M,M,M,M,M,M,75.20,LFBT 121400Z AUTO 04008KT 350V080 CAVOK 24/12 Q1031 NOSIG,M
LFBT,LFBT,2019-09-12 14:30,77.00,53.60,44.25,80.00,6.00,0.00,30.42,M,6.21,M,M,M,M,M,M,M,M,M,M,M,M,M,M,M,M,77.00,LFBT 121430Z AUTO 08006KT 010V150 CAVOK 25/12 Q1030 NOSIG,M
LFBT,LFBT,2019-09-12 15:00,77.00,55.40,47.25,20.00,6.00,0.00,30.42,M,6.21,M,M,M,M,M,M,M,M,M,M,M,M,M,M,M,M,77.00,LFBT 121500Z AUTO 02006KT 350V050 CAVOK 25/13 Q1030 NOSIG,M
LFBT,LFBT,2019-09-12 15:30,77.00,51.80,41.42,50.00,4.00,0.00,30.42,M,6.21,M,NSC,M,M,M,M,M,M,M,M,M,M,M,M,M,M,77.00,LFBT 121530Z AUTO 05004KT 360V110 9999 NSC 25/11 Q1030 NOSIG,M
LFBT,LFBT,2019-09-12 16:00,77.00,53.60,44.25,40.00,4.00,0.00,30.42,M,6.21,M,M,M,M,M,M,M,M,M,M,M,M,M,M,M,M,77.00,LFBT 121600Z AUTO 04004KT 330V110 CAVOK 25/12 Q1030 NOSIG,M
LFBT,LFBT,2019-09-12 16:30,75.20,51.80,43.97,60.00,6.00,0.00,30.42,M,6.21,M,M,M,M,M,M,M,M,M,M,M,M,M,M,M,M,75.20,LFBT 121630Z AUTO 06006KT 020V110 CAVOK 24/11 Q1030 NOSIG,M
LFBT,LFBT,2019-09-12 17:00,75.20,51.80,43.97,50.00,5.00,0.00,30.42,M,6.21,M,M,M,M,M,M,M,M,M,M,M,M,M,M,M,M,75.20,LFBT 121700Z AUTO 05005KT 020V100 CAVOK 24/11 Q1030 NOSIG,M
LFBT,LFBT,2019-09-12 17:30,73.40,51.80,46.71,50.00,4.00,0.00,30.42,M,6.21,M,M,M,M,M,M,M,M,M,M,M,M,M,M,M,M,73.40,LFBT 121730Z AUTO 05004KT 020V090 CAVOK 23/11 Q1030 NOSIG,M
LFBT,LFBT,2019-09-12 18:00,71.60,51.80,49.64,M,3.00,0.00,30.42,M,6.21,M,M,M,M,M,M,M,M,M,M,M,M,M,M,M,M,71.60,LFBT 121800Z AUTO VRB03KT CAVOK 22/11 Q1030 NOSIG,M
LFBT,LFBT,2019-09-12 18:30,66.20,55.40,68.15,220.00,4.00,0.00,30.42,M,6.21,M,M,M,M,M,M,M,M,M,M,M,M,M,M,M,M,66.20,LFBT 121830Z AUTO 22004KT CAVOK 19/13 Q1030 NOSIG,M
LFBT,LFBT,2019-09-12 19:00,60.80,55.40,82.37,200.00,5.00,0.00,30.42,M,6.21,M,M,M,M,M,M,M,M,M,M,M,M,M,M,M,M,60.80,LFBT 121900Z AUTO 20005KT CAVOK 16/13 Q1030 NOSIG,M
LFBT,LFBT,2019-09-12 19:30,60.80,55.40,82.37,170.00,4.00,0.00,30.42,M,6.21,M,M,M,M,M,M,M,M,M,M,M,M,M,M,M,M,60.80,LFBT 121930Z AUTO 17004KT CAVOK 16/13 Q1030 NOSIG,M
LFBT,LFBT,2019-09-12 20:00,59.00,55.40,87.83,180.00,6.00,0.00,30.45,M,6.21,M,M,M,M,M,M,M,M,M,M,M,M,M,M,M,M,59.00,LFBT 122000Z AUTO 18006KT CAVOK 15/13 Q1031 NOSIG,M
LFBT,LFBT,2019-09-12 20:30,59.00,55.40,87.83,180.00,6.00,0.00,30.45,M,6.21,M,M,M,M,M,M,M,M,M,M,M,M,M,M,M,M,59.00,LFBT 122030Z AUTO 18006KT CAVOK 15/13 Q1031 NOSIG,M
LFBT,LFBT,2019-09-12 21:00,59.00,53.60,82.25,160.00,3.00,0.00,30.45,M,6.21,M,M,M,M,M,M,M,M,M,M,M,M,M,M,M,M,59.00,LFBT 122100Z AUTO 16003KT CAVOK 15/12 Q1031 NOSIG,M
LFBT,LFBT,2019-09-12 21:30,57.20,53.60,87.74,170.00,3.00,0.00,30.45,M,6.21,M,M,M,M,M,M,M,M,M,M,M,M,M,M,M,M,57.20,LFBT 122130Z AUTO 17003KT CAVOK 14/12 Q1031 NOSIG,M
LFBT,LFBT,2019-09-12 22:00,57.20,53.60,87.74,160.00,3.00,0.00,30.45,M,6.21,M,M,M,M,M,M,M,M,M,M,M,M,M,M,M,M,57.20,LFBT 122200Z AUTO 16003KT CAVOK 14/12 Q1031 NOSIG,M
LFBT,LFBT,2019-09-12 22:30,57.20,53.60,87.74,150.00,3.00,0.00,30.45,M,6.21,M,M,M,M,M,M,M,M,M,M,M,M,M,M,M,M,57.20,LFBT 122230Z AUTO 15003KT CAVOK 14/12 Q1031 NOSIG,M
LFBT,LFBT,2019-09-12 23:00,59.00,55.40,87.83,120.00,3.00,0.00,30.42,M,6.21,M,M,M,M,M,M,M,M,M,M,M,M,M,M,M,M,59.00,LFBT 122300Z AUTO 12003KT CAVOK 15/13 Q1030 NOSIG,M
LFBT,LFBT,2019-09-12 23:30,55.40,51.80,87.65,170.00,3.00,0.00,30.42,M,6.21,M,M,M,M,M,M,M,M,M,M,M,M,M,M,M,M,55.40,LFBT 122330Z AUTO 17003KT CAVOK 13/11 Q1030 NOSIG,M
LFBY,LFBY,2019-09-12 00:00,53.60,51.80,93.60,0.00,0.00,0.00,30.42,M,6.21,M,M,M,M,M,M,M,M,M,,M,M,M,M,M,M,53.60,LFBY 120000Z AUTO 00000KT 9999 // ////// 12/11 Q1030,M
LFBY,LFBY,2019-09-12 00:30,53.60,51.80,93.60,0.00,0.00,0.00,30.42,M,6.21,M,M,M,M,M,M,M,M,M,,M,M,M,M,M,M,53.60,LFBY 120030Z AUTO 00000KT 9999 // ////// 12/11 Q1030,M
LFBY,LFBY,2019-09-12 01:00,53.60,51.80,93.60,0.00,0.00,0.00,30.42,M,6.21,M,M,M,M,M,M,M,M,M,,M,M,M,M,M,M,53.60,LFBY 120100Z AUTO 00000KT 9999 // ////// 12/11 Q1030,M
LFBY,LFBY,2019-09-12 01:30,53.60,51.80,93.60,0.00,0.00,0.00,30.42,M,5.59,M,M,M,M,M,M,M,M,M,,M,M,M,M,M,M,53.60,LFBY 120130Z AUTO 00000KT 9000 // ////// 12/11 Q1030,M
LFBY,LFBY,2019-09-12 02:00,53.60,51.80,93.60,320.00,3.00,0.00,30.42,M,5.59,M,M,M,M,M,M,M,M,M,,M,M,M,M,M,M,53.60,LFBY 120200Z AUTO 32003KT 9000 // ////// 12/11 Q1030,M
LFBY,LFBY,2019-09-12 02:30,51.80,50.00,93.55,0.00,0.00,0.00,30.42,M,5.59,M,M,M,M,M,M,M,M,M,,M,M,M,M,M,M,51.80,LFBY 120230Z AUTO 00000KT 9000 // ////// 11/10 Q1030,M
LFBY,LFBY,2019-09-12 03:00,51.80,50.00,93.55,0.00,0.00,0.00,30.42,M,6.21,M,M,M,M,M,M,M,M,M,,M,M,M,M,M,M,51.80,LFBY 120300Z AUTO 00000KT 9999 // ////// 11/10 Q1030,M
LFBY,LFBY,2019-09-12 03:30,51.80,50.00,93.55,0.00,0.00,0.00,30.42,M,4.35,M,M,M,M,M,M,M,M,M,,M,M,M,M,M,M,51.80,LFBY 120330Z AUTO 00000KT 7000 // ////// 11/10 Q1030,M
LFBY,LFBY,2019-09-12 04:00,51.80,50.00,93.55,0.00,0.00,0.00,30.42,M,5.59,M,M,M,M,M,M,M,M,M,,M,M,M,M,M,M,51.80,LFBY 120400Z AUTO 00000KT 9000 // ////// 11/10 Q1030,M
LFBY,LFBY,2019-09-12 04:30,50.00,50.00,100.00,0.00,0.00,0.00,30.42,M,6.21,M,M,M,M,M,M,M,M,M,,M,M,M,M,M,M,50.00,LFBY 120430Z AUTO 00000KT 9999 // ////// 10/10 Q1030,M
LFBY,LFBY,2019-09-12 05:00,50.00,48.20,93.50,0.00,0.00,0.00,30.42,M,0.50,M,NSC,M,M,M,M,M,M,M,FG,M,M,M,M,M,M,50.00,LFBY 120500Z 00000KT 0800 FG NSC 10/09 Q1030,M
LFBY,LFBY,2019-09-12 06:00,50.00,48.20,93.50,0.00,0.00,0.00,30.45,M,4.97,M,NSC,M,M,M,M,M,M,M,BCFG,M,M,M,M,M,M,50.00,LFBY 120600Z 00000KT 8000 0900W BCFG NSC 10/09 Q1031,M
LFBY,LFBY,2019-09-12 06:43,51.80,51.80,100.00,170.00,3.00,0.00,30.45,M,4.35,M,NSC,M,M,M,M,M,M,M,MIFG,M,M,M,M,M,M,51.80,LFBY 120643Z 17003KT 7000 MIFG NSC 11/11 Q1031 RMK B2,M
LFBY,LFBY,2019-09-12 08:00,59.00,55.40,87.83,M,1.00,0.00,30.47,M,4.97,M,NSC,M,M,M,M,M,M,M,M,M,M,M,M,M,M,59.00,LFBY 120800Z VRB01KT 8000 NSC 15/13 Q1032,M
LFBY,LFBY,2019-09-12 09:00,64.40,55.40,72.56,M,1.00,0.00,30.47,M,4.97,M,NSC,M,M,M,M,M,M,M,M,M,M,M,M,M,M,64.40,LFBY 120900Z VRB01KT 8000 NSC 18/13 Q1032,M
LFBY,LFBY,2019-09-12 10:00,69.80,57.20,64.26,M,1.00,0.00,30.47,M,6.21,M,M,M,M,M,M,M,M,M,M,M,M,M,M,M,M,69.80,LFBY 121000Z VRB01KT CAVOK 21/14 Q1032,M
LFBY,LFBY,2019-09-12 11:00,73.40,57.20,56.88,70.00,3.00,0.00,30.47,M,6.21,M,M,M,M,M,M,M,M,M,M,M,M,M,M,M,M,73.40,LFBY 121100Z 07003KT 350V140 CAVOK 23/14 Q1032,M
LFBY,LFBY,2019-09-12 12:00,75.20,55.40,50.17,60.00,6.00,0.00,30.45,M,6.21,M,M,M,M,M,M,M,M,M,M,M,M,M,M,M,M,75.20,LFBY 121200Z 06006KT 010V120 CAVOK 24/13 Q1031,M
LFBY,LFBY,2019-09-12 13:00,75.20,53.60,46.98,40.00,5.00,0.00,30.45,M,6.21,M,M,M,M,M,M,M,M,M,M,M,M,M,M,M,M,75.20,LFBY 121300Z 04005KT 330V090 CAVOK 24/12 Q1031,M
LFBY,LFBY,2019-09-12 14:00,77.00,51.80,41.42,50.00,6.00,0.00,30.42,M,6.21,M,M,M,M,M,M,M,M,M,M,M,M,M,M,M,M,77.00,LFBY 121400Z 05006KT 350V110 CAVOK 25/11 Q1030,M
LFBY,LFBY,2019-09-12 15:00,78.80,53.60,41.69,60.00,5.00,0.00,30.39,M,6.21,M,M,M,M,M,M,M,M,M,M,M,M,M,M,M,M,78.80,LFBY 121500Z 06005KT 350V110 CAVOK 26/12 Q1029,M
LFBY,LFBY,2019-09-12 15:30,78.80,53.60,41.69,90.00,7.00,0.00,30.39,M,6.21,M,M,M,M,M,M,M,M,M,,M,M,M,M,M,M,78.80,LFBY 121530Z AUTO 09007KT 060V130 9999 // ////// 26/12 Q1029,M
LFBY,LFBY,2019-09-12 16:00,80.60,53.60,39.30,130.00,5.00,0.00,30.39,M,6.21,M,M,M,M,M,M,M,M,M,,M,M,M,M,M,M,80.29,LFBY 121600Z AUTO 13005KT 090V170 9999 // ////// 27/12 Q1029,M
LFBY,LFBY,2019-09-12 16:30,78.80,53.60,41.69,130.00,5.00,0.00,30.39,M,6.21,M,M,M,M,M,M,M,M,M,,M,M,M,M,M,M,78.80,LFBY 121630Z AUTO 13005KT 100V160 9999 // ////// 26/12 Q1029,M
LFBY,LFBY,2019-09-12 17:00,78.80,53.60,41.69,130.00,4.00,0.00,30.39,M,6.21,M,M,M,M,M,M,M,M,M,,M,M,M,M,M,M,78.80,LFBY 121700Z AUTO 13004KT 090V170 9999 // ////// 26/12 Q1029,M
LFBY,LFBY,2019-09-12 17:30,78.80,53.60,41.69,M,3.00,0.00,30.39,M,6.21,M,M,M,M,M,M,M,M,M,,M,M,M,M,M,M,78.80,LFBY 121730Z AUTO VRB03KT 9999 // ////// 26/12 Q1029,M
LFBY,LFBY,2019-09-12 18:00,75.20,57.20,53.55,290.00,4.00,0.00,30.39,M,6.21,M,M,M,M,M,M,M,M,M,,M,M,M,M,M,M,75.20,LFBY 121800Z AUTO 29004KT 250V360 9999 // ////// 24/14 Q1029,M
LFBY,LFBY,2019-09-12 18:30,71.60,57.20,60.44,290.00,4.00,0.00,30.39,M,6.21,M,M,M,M,M,M,M,M,M,,M,M,M,M,M,M,71.60,LFBY 121830Z AUTO 29004KT 260V320 9999 // ////// 22/14 Q1029,M
LFBY,LFBY,2019-09-12 19:00,69.80,57.20,64.26,300.00,4.00,0.00,30.39,M,6.21,M,M,M,M,M,M,M,M,M,,M,M,M,M,M,M,69.80,LFBY 121900Z AUTO 30004KT 9999 // ////// 21/14 Q1029,M
LFBY,LFBY,2019-09-12 19:30,68.00,57.20,68.35,310.00,3.00,0.00,30.39,M,6.21,M,M,M,M,M,M,M,M,M,,M,M,M,M,M,M,68.00,LFBY 121930Z AUTO 31003KT 270V340 9999 // ////// 20/14 Q1029,M
LFBY,LFBY,2019-09-12 20:00,66.20,55.40,68.15,M,2.00,0.00,30.39,M,6.21,M,M,M,M,M,M,M,M,M,,M,M,M,M,M,M,66.20,LFBY 122000Z AUTO VRB02KT 9999 // ////// 19/13 Q1029,M
LFBY,LFBY,2019-09-12 20:30,64.40,57.20,77.45,M,2.00,0.00,30.39,M,6.21,M,M,M,M,M,M,M,M,M,,M,M,M,M,M,M,64.40,LFBY 122030Z AUTO VRB02KT 9999 // ////// 18/14 Q1029,M
LFBY,LFBY,2019-09-12 21:00,62.60,55.40,77.29,M,1.00,0.00,30.39,M,6.21,M,M,M,M,M,M,M,M,M,,M,M,M,M,M,M,62.60,LFBY 122100Z AUTO VRB01KT 9999 // ////// 17/13 Q1029,M
LFBY,LFBY,2019-09-12 21:30,60.80,57.20,87.92,M,2.00,0.00,30.39,M,6.21,M,M,M,M,M,M,M,M,M,,M,M,M,M,M,M,60.80,LFBY 122130Z AUTO VRB02KT 9999 // ////// 16/14 Q1029,M
LFBY,LFBY,2019-09-12 22:30,60.80,57.20,87.92,190.00,3.00,0.00,30.39,M,6.21,M,M,M,M,M,M,M,M,M,,M,M,M,M,M,M,60.80,LFBY 122230Z AUTO 19003KT 9999 // ////// 16/14 Q1029,M
LFBY,LFBY,2019-09-12 23:00,59.00,57.20,93.74,M,2.00,0.00,30.39,M,6.21,M,M,M,M,M,M,M,M,M,,M,M,M,M,M,M,59.00,LFBY 122300Z AUTO VRB02KT 9999 // ////// 15/14 Q1029,M
LFBY,LFBY,2019-09-12 23:30,59.00,57.20,93.74,M,2.00,0.00,30.39,M,6.21,M,M,M,M,M,M,M,M,M,,M,M,M,M,M,M,59.00,LFBY 122330Z AUTO VRB02KT 9999 // ////// 15/14 Q1029,M
LFBZ,LFBZ,2019-09-12 00:00,59.00,57.20,93.74,10.00,2.00,0.00,30.45,M,6.21,M,M,M,M,M,M,M,M,M,M,M,M,M,M,M,M,59.00,LFBZ 120000Z AUTO 01002KT CAVOK 15/14 Q1031 TEMPO 3000 BR,M
LFBZ,LFBZ,2019-09-12 00:30,57.20,57.20,100.00,320.00,3.00,0.00,30.45,M,6.21,M,M,M,M,M,M,M,M,M,M,M,M,M,M,M,M,57.20,LFBZ 120030Z AUTO 32003KT CAVOK 14/14 Q1031 TEMPO 3000 BR,M
LFBZ,LFBZ,2019-09-12 01:00,57.20,57.20,100.00,330.00,2.00,0.00,30.42,M,6.21,M,M,M,M,M,M,M,M,M,M,M,M,M,M,M,M,57.20,LFBZ 120100Z AUTO 33002KT CAVOK 14/14 Q1030 TEMPO 3000 BR,M
LFBZ,LFBZ,2019-09-12 01:30,59.00,57.20,93.74,M,2.00,0.00,30.42,M,6.21,M,M,M,M,M,M,M,M,M,M,M,M,M,M,M,M,59.00,LFBZ 120130Z AUTO VRB02KT CAVOK 15/14 Q1030 TEMPO 3000 BR,M
LFBZ,LFBZ,2019-09-12 02:00,59.00,57.20,93.74,150.00,2.00,0.00,30.42,M,4.35,M,NSC,M,M,M,M,M,M,M,M,M,M,M,M,M,M,59.00,LFBZ 120200Z AUTO 15002KT 7000 NSC 15/14 Q1030 TEMPO 3000 BR,M
LFBZ,LFBZ,2019-09-12 02:30,57.20,55.40,93.69,M,2.00,0.00,30.42,M,5.59,M,NSC,M,M,M,M,M,M,M,M,M,M,M,M,M,M,57.20,LFBZ 120230Z AUTO VRB02KT 9000 3800 NSC 14/13 Q1030 TEMPO 3000 BR,M
LFBZ,LFBZ,2019-09-12 03:00,55.40,53.60,93.65,M,2.00,0.00,30.42,M,6.21,M,M,M,M,M,M,M,M,M,M,M,M,M,M,M,M,55.40,LFBZ 120300Z AUTO VRB02KT CAVOK 13/12 Q1030 TEMPO 3000 BR,M
LFBZ,LFBZ,2019-09-12 03:30,55.40,53.60,93.65,M,2.00,0.00,30.42,M,6.21,M,M,M,M,M,M,M,M,M,M,M,M,M,M,M,M,55.40,LFBZ 120330Z AUTO VRB02KT CAVOK 13/12 Q1030 TEMPO 3000 BR,M
LFBZ,LFBZ,2019-09-12 04:00,55.40,55.40,100.00,10.00,2.00,0.00,30.42,M,6.21,M,M,M,M,M,M,M,M,M,M,M,M,M,M,M,M,55.40,LFBZ 120400Z AUTO 01002KT CAVOK 13/13 Q1030 TEMPO 3000 BR,M
LFBZ,LFBZ,2019-09-12 04:30,55.40,53.60,93.65,190.00,1.00,0.00,30.42,M,6.21,M,M,M,M,M,M,M,M,M,M,M,M,M,M,M,M,55.40,LFBZ 120430Z AUTO 19001KT CAVOK 13/12 Q1030 TEMPO 3000 BR,M
LFBZ,LFBZ,2019-09-12 05:00,53.60,51.80,93.60,130.00,4.00,0.00,30.42,M,6.21,M,M,M,M,M,M,M,M,M,M,M,M,M,M,M,M,53.60,LFBZ 120500Z AUTO 13004KT 360V170 CAVOK 12/11 Q1030 TEMPO 3000 BR,M
LFBZ,LFBZ,2019-09-12 05:30,53.60,53.60,100.00,150.00,6.00,0.00,30.45,M,6.21,M,M,M,M,M,M,M,M,M,M,M,M,M,M,M,M,53.60,LFBZ 120530Z AUTO 15006KT CAVOK 12/12 Q1031 TEMPO 3000 BR,M
LFBZ,LFBZ,2019-09-12 06:00,53.60,51.80,93.60,150.00,3.00,0.00,30.45,M,6.21,M,M,M,M,M,M,M,M,M,M,M,M,M,M,M,M,53.60,LFBZ 120600Z AUTO 15003KT CAVOK 12/11 Q1031 NOSIG,M
LFBZ,LFBZ,2019-09-12 06:30,55.40,53.60,93.65,170.00,3.00,0.00,30.45,M,6.21,M,M,M,M,M,M,M,M,M,M,M,M,M,M,M,M,55.40,LFBZ 120630Z AUTO 17003KT CAVOK 13/12 Q1031 BECMG 06010KT,M
LFBZ,LFBZ,2019-09-12 07:00,57.20,55.40,93.69,M,2.00,0.00,30.45,M,6.21,M,M,M,M,M,M,M,M,M,M,M,M,M,M,M,M,57.20,LFBZ 120700Z AUTO VRB02KT CAVOK 14/13 Q1031 NOSIG,M
LFBZ,LFBZ,2019-09-12 07:30,59.00,55.40,87.83,M,2.00,0.00,30.45,M,6.21,M,M,M,M,M,M,M,M,M,M,M,M,M,M,M,M,59.00,LFBZ 120730Z AUTO VRB02KT CAVOK 15/13 Q1031 NOSIG,M
LFBZ,LFBZ,2019-09-12 08:00,62.60,57.20,82.50,M,2.00,0.00,30.47,M,6.21,M,M,M,M,M,M,M,M,M,M,M,M,M,M,M,M,62.60,LFBZ 120800Z AUTO VRB02KT CAVOK 17/14 Q1032 NOSIG,M
LFBZ,LFBZ,2019-09-12 08:30,64.40,53.60,67.95,M,2.00,0.00,30.47,M,6.21,M,M,M,M,M,M,M,M,M,M,M,M,M,M,M,M,64.40,LFBZ 120830Z AUTO VRB02KT CAVOK 18/12 Q1032 NOSIG,M
LFBZ,LFBZ,2019-09-12 09:00,66.20,55.40,68.15,360.00,3.00,0.00,30.47,M,6.21,M,M,M,M,M,M,M,M,M,M,M,M,M,M,M,M,66.20,LFBZ 120900Z AUTO 36003KT 290V060 CAVOK 19/13 Q1032 NOSIG,M
LFBZ,LFBZ,2019-09-12 09:30,66.20,57.20,72.74,50.00,3.00,0.00,30.47,M,6.21,M,M,M,M,M,M,M,M,M,M,M,M,M,M,M,M,66.20,LFBZ 120930Z AUTO 05003KT 360V130 CAVOK 19/14 Q1032 NOSIG,M
LFBZ,LFBZ,2019-09-12 10:00,68.00,55.40,64.04,40.00,4.00,0.00,30.47,M,6.21,M,M,M,M,M,M,M,M,M,M,M,M,M,M,M,M,68.00,LFBZ 121000Z AUTO 04004KT 350V100 CAVOK 20/13 Q1032 NOSIG,M
LFBZ,LFBZ,2019-09-12 10:30,69.80,57.20,64.26,350.00,4.00,0.00,30.47,M,6.21,M,M,M,M,M,M,M,M,M,M,M,M,M,M,M,M,69.80,LFBZ 121030Z AUTO 35004KT 300V050 CAVOK 21/14 Q1032 NOSIG,M
LFBZ,LFBZ,2019-09-12 11:00,71.60,59.00,64.48,70.00,4.00,0.00,30.47,M,6.21,M,M,M,M,M,M,M,M,M,M,M,M,M,M,M,M,71.60,LFBZ 121100Z AUTO 07004KT 350V130 CAVOK 22/15 Q1032 NOSIG,M
LFBZ,LFBZ,2019-09-12 11:30,71.60,59.00,64.48,50.00,5.00,0.00,30.45,M,6.21,M,M,M,M,M,M,M,M,M,M,M,M,M,M,M,M,71.60,LFBZ 121130Z AUTO 05005KT 360V110 CAVOK 22/15 Q1031 NOSIG,M
LFBZ,LFBZ,2019-09-12 12:00,69.80,59.00,68.55,70.00,7.00,0.00,30.45,M,6.21,M,M,M,M,M,M,M,M,M,M,M,M,M,M,M,M,69.80,LFBZ 121200Z AUTO 07007KT 030V110 CAVOK 21/15 Q1031 NOSIG,M
LFBZ,LFBZ,2019-09-12 12:30,69.80,60.80,73.09,320.00,6.00,0.00,30.45,M,6.21,M,M,M,M,M,M,M,M,M,M,M,M,M,M,M,M,69.80,LFBZ 121230Z AUTO 32006KT 290V360 CAVOK 21/16 Q1031 NOSIG,M
LFBZ,LFBZ,2019-09-12 13:00,69.80,60.80,73.09,320.00,8.00,0.00,30.45,M,6.21,M,M,M,M,M,M,M,M,M,M,M,M,M,M,M,M,69.80,LFBZ 121300Z AUTO 32008KT 290V350 CAVOK 21/16 Q1031 NOSIG,M
LFBZ,LFBZ,2019-09-12 13:30,69.80,60.80,73.09,310.00,10.00,0.00,30.45,M,6.21,M,M,M,M,M,M,M,M,M,M,M,M,M,M,M,M,69.80,LFBZ 121330Z AUTO 31010KT 290V350 CAVOK 21/16 Q1031 NOSIG,M
LFBZ,LFBZ,2019-09-12 14:00,69.80,59.00,68.55,330.00,10.00,0.00,30.42,M,6.21,M,M,M,M,M,M,M,M,M,M,M,M,M,M,M,M,69.80,LFBZ 121400Z AUTO 33010KT 310V010 CAVOK 21/15 Q1030 NOSIG,M
LFBZ,LFBZ,2019-09-12 14:30,71.60,60.80,68.75,320.00,7.00,0.00,30.42,M,6.21,M,M,M,M,M,M,M,M,M,M,M,M,M,M,M,M,71.60,LFBZ 121430Z AUTO 32007KT 280V360 CAVOK 22/16 Q1030 NOSIG,M
LFBZ,LFBZ,2019-09-12 15:00,71.60,59.00,64.48,350.00,10.00,0.00,30.39,M,6.21,M,M,M,M,M,M,M,M,M,M,M,M,M,M,M,M,71.60,LFBZ 121500Z AUTO 35010KT 310V010 CAVOK 22/15 Q1029 NOSIG,M
LFBZ,LFBZ,2019-09-12 15:30,69.80,60.80,73.09,330.00,10.00,0.00,30.39,M,6.21,M,M,M,M,M,M,M,M,M,M,M,M,M,M,M,M,69.80,LFBZ 121530Z AUTO 33010KT CAVOK 21/16 Q1029 NOSIG,M
LFBZ,LFBZ,2019-09-12 16:00,69.80,60.80,73.09,340.00,9.00,0.00,30.42,M,6.21,M,M,M,M,M,M,M,M,M,M,M,M,M,M,M,M,69.80,LFBZ 121600Z AUTO 34009KT 300V010 CAVOK 21/16 Q1030 NOSIG,M
LFBZ,LFBZ,2019-09-12 16:30,69.80,59.00,68.55,340.00,10.00,0.00,30.42,M,6.21,M,M,M,M,M,M,M,M,M,M,M,M,M,M,M,M,69.80,LFBZ 121630Z AUTO 34010KT CAVOK 21/15 Q1030 NOSIG,M
LFBZ,LFBZ,2019-09-12 17:00,68.00,60.80,77.75,340.00,9.00,0.00,30.42,M,6.21,M,M,M,M,M,M,M,M,M,M,M,M,M,M,M,M,68.00,LFBZ 121700Z AUTO 34009KT CAVOK 20/16 Q1030 NOSIG,M
LFBZ,LFBZ,2019-09-12 17:30,68.00,59.00,72.92,340.00,7.00,0.00,30.42,M,6.21,M,M,M,M,M,M,M,M,M,M,M,M,M,M,M,M,68.00,LFBZ 121730Z AUTO 34007KT 310V010 CAVOK 20/15 Q1030 NOSIG,M
LFBZ,LFBZ,2019-09-12 18:00,68.00,60.80,77.75,340.00,5.00,0.00,30.42,M,6.21,M,M,M,M,M,M,M,M,M,M,M,M,M,M,M,M,68.00,LFBZ 121800Z AUTO 34005KT CAVOK 20/16 Q1030 NOSIG,M
LFBZ,LFBZ,2019-09-12 18:30,66.20,60.80,82.74,310.00,5.00,0.00,30.42,M,6.21,M,M,M,M,M,M,M,M,M,M,M,M,M,M,M,M,66.20,LFBZ 121830Z AUTO 31005KT 270V340 CAVOK 19/16 Q1030 NOSIG,M
LFBZ,LFBZ,2019-09-12 19:00,64.40,60.80,88.09,300.00,5.00,0.00,30.42,M,6.21,M,M,M,M,M,M,M,M,M,M,M,M,M,M,M,M,64.40,LFBZ 121900Z AUTO 30005KT CAVOK 18/16 Q1030 NOSIG,M
LFBZ,LFBZ,2019-09-12 19:30,64.40,60.80,88.09,270.00,3.00,0.00,30.42,M,6.21,M,M,M,M,M,M,M,M,M,M,M,M,M,M,M,M,64.40,LFBZ 121930Z AUTO 27003KT CAVOK 18/16 Q1030 NOSIG,M
LFBZ,LFBZ,2019-09-12 20:00,62.60,60.80,93.83,270.00,3.00,0.00,30.42,M,6.21,M,M,M,M,M,M,M,M,M,M,M,M,M,M,M,M,62.60,LFBZ 122000Z AUTO 27003KT CAVOK 17/16 Q1030 NOSIG,M
LFBZ,LFBZ,2019-09-12 20:30,62.60,60.80,93.83,270.00,4.00,0.00,30.42,M,6.21,M,M,M,M,M,M,M,M,M,M,M,M,M,M,M,M,62.60,LFBZ 122030Z AUTO 27004KT CAVOK 17/16 Q1030 NOSIG,M
LFBZ,LFBZ,2019-09-12 21:00,62.60,60.80,93.83,260.00,3.00,0.00,30.42,M,6.21,M,M,M,M,M,M,M,M,M,M,M,M,M,M,M,M,62.60,LFBZ 122100Z AUTO 26003KT CAVOK 17/16 Q1030 NOSIG,M
LFBZ,LFBZ,2019-09-12 21:30,62.60,60.80,93.83,M,3.00,0.00,30.42,M,6.21,M,M,M,M,M,M,M,M,M,M,M,M,M,M,M,M,62.60,LFBZ 122130Z AUTO VRB03KT CAVOK 17/16 Q1030 NOSIG,M
LFBZ,LFBZ,2019-09-12 22:00,60.80,59.00,93.79,200.00,3.00,0.00,30.42,M,6.21,M,M,M,M,M,M,M,M,M,M,M,M,M,M,M,M,60.80,LFBZ 122200Z AUTO 20003KT CAVOK 16/15 Q1030 NOSIG,M
LFBZ,LFBZ,2019-09-12 22:30,60.80,59.00,93.79,210.00,4.00,0.00,30.42,M,6.21,M,M,M,M,M,M,M,M,M,M,M,M,M,M,M,M,60.80,LFBZ 122230Z AUTO 21004KT CAVOK 16/15 Q1030 NOSIG,M
LFBZ,LFBZ,2019-09-12 23:00,59.00,59.00,100.00,210.00,4.00,0.00,30.42,M,6.21,M,M,M,M,M,M,M,M,M,M,M,M,M,M,M,M,59.00,LFBZ 122300Z AUTO 21004KT 180V240 CAVOK 15/15 Q1030 NOSIG,M
LFBZ,LFBZ,2019-09-12 23:30,60.80,59.00,93.79,230.00,4.00,0.00,30.42,M,6.21,M,M,M,M,M,M,M,M,M,M,M,M,M,M,M,M,60.80,LFBZ 122330Z AUTO 23004KT 190V260 CAVOK 16/15 Q1030 NOSIG,M
LFCK,LFCK,2019-09-12 00:00,53.60,50.00,87.56,0.00,0.00,0.00,30.39,M,6.21,M,M,M,M,M,M,M,M,M,M,M,M,M,M,M,M,53.60,LFCK 120000Z AUTO 00000KT CAVOK 12/10 Q1029,M
LFCK,LFCK,2019-09-12 00:30,53.60,50.00,87.56,M,2.00,0.00,30.39,M,6.21,M,M,M,M,M,M,M,M,M,M,M,M,M,M,M,M,53.60,LFCK 120030Z AUTO VRB02KT CAVOK 12/10 Q1029,M
LFCK,LFCK,2019-09-12 01:00,51.80,50.00,93.55,190.00,3.00,0.00,30.39,M,6.21,M,M,M,M,M,M,M,M,M,M,M,M,M,M,M,M,51.80,LFCK 120100Z AUTO 19003KT CAVOK 11/10 Q1029,M
LFCK,LFCK,2019-09-12 01:30,50.00,48.20,93.50,50.00,2.00,0.00,30.39,M,6.21,M,M,M,M,M,M,M,M,M,M,M,M,M,M,M,M,50.00,LFCK 120130Z AUTO 05002KT CAVOK 10/09 Q1029,M
LFCK,LFCK,2019-09-12 02:00,51.80,50.00,93.55,M,3.00,0.00,30.39,M,6.21,M,M,M,M,M,M,M,M,M,M,M,M,M,M,M,M,51.80,LFCK 120200Z AUTO VRB03KT CAVOK 11/10 Q1029,M
LFCK,LFCK,2019-09-12 02:30,51.80,48.20,87.47,M,3.00,0.00,30.42,M,6.21,M,M,M,M,M,M,M,M,M,M,M,M,M,M,M,M,51.80,LFCK 120230Z AUTO VRB03KT CAVOK 11/09 Q1030,M
LFCK,LFCK,2019-09-12 03:00,50.00,48.20,93.50,M,3.00,0.00,30.42,M,6.21,M,M,M,M,M,M,M,M,M,M,M,M,M,M,M,M,49.27,LFCK 120300Z AUTO VRB03KT CAVOK 10/09 Q1030,M
LFCK,LFCK,2019-09-12 03:30,51.80,48.20,87.47,40.00,4.00,0.00,30.42,M,6.21,M,M,M,M,M,M,M,M,M,M,M,M,M,M,M,M,51.80,LFCK 120330Z AUTO 04004KT CAVOK 11/09 Q1030,M
LFCK,LFCK,2019-09-12 04:00,50.00,46.40,87.37,140.00,3.00,0.00,30.42,M,6.21,M,M,M,M,M,M,M,M,M,M,M,M,M,M,M,M,49.27,LFCK 120400Z AUTO 14003KT 090V160 CAVOK 10/08 Q1030,M
LFCK,LFCK,2019-09-12 04:30,50.00,48.20,93.50,M,3.00,0.00,30.42,M,6.21,M,M,M,M,M,M,M,M,M,M,M,M,M,M,M,M,49.27,LFCK 120430Z AUTO VRB03KT CAVOK 10/09 Q1030,M
LFCK,LFCK,2019-09-12 05:00,48.20,46.40,93.45,120.00,3.00,0.00,30.42,M,6.21,M,M,M,M,M,M,M,M,M,M,M,M,M,M,M,M,47.21,LFCK 120500Z AUTO 12003KT CAVOK 09/08 Q1030,M
LFCK,LFCK,2019-09-12 05:30,50.00,46.40,87.37,M,2.00,0.00,30.45,M,6.21,M,M,M,M,M,M,M,M,M,M,M,M,M,M,M,M,50.00,LFCK 120530Z AUTO VRB02KT CAVOK 10/08 Q1031 NOSIG,M
LFCK,LFCK,2019-09-12 06:00,50.00,48.20,93.50,M,2.00,0.00,30.45,M,6.21,M,M,M,M,M,M,M,M,M,M,M,M,M,M,M,M,50.00,LFCK 120600Z AUTO VRB02KT CAVOK 10/09 Q1031 NOSIG,M
LFCK,LFCK,2019-09-12 06:30,53.60,50.00,87.56,M,2.00,0.00,30.45,M,6.21,M,M,M,M,M,M,M,M,M,M,M,M,M,M,M,M,53.60,LFCK 120630Z AUTO VRB02KT CAVOK 12/10 Q1031 NOSIG,M
LFCK,LFCK,2019-09-12 07:00,55.40,50.00,81.99,M,2.00,0.00,30.47,M,6.21,M,M,M,M,M,M,M,M,M,M,M,M,M,M,M,M,55.40,LFCK 120700Z AUTO VRB02KT CAVOK 13/10 Q1032 NOSIG,M
LFCK,LFCK,2019-09-12 07:30,59.00,51.80,76.98,M,1.00,0.00,30.47,M,6.21,M,M,M,M,M,M,M,M,M,M,M,M,M,M,M,M,59.00,LFCK 120730Z AUTO VRB01KT CAVOK 15/11 Q1032 NOSIG,M
LFCK,LFCK,2019-09-12 08:00,60.80,51.80,72.20,M,2.00,0.00,30.47,M,6.21,M,M,M,M,M,M,M,M,M,M,M,M,M,M,M,M,60.80,LFCK 120800Z AUTO VRB02KT CAVOK 16/11 Q1032 NOSIG,M
LFCK,LFCK,2019-09-12 08:30,62.60,50.00,63.38,M,2.00,0.00,30.50,M,6.21,M,M,M,M,M,M,M,M,M,M,M,M,M,M,M,M,62.60,LFCK 120830Z AUTO VRB02KT CAVOK 17/10 Q1033 NOSIG,M
LFCK,LFCK,2019-09-12 09:00,64.40,51.80,63.60,M,3.00,0.00,30.47,M,6.21,M,M,M,M,M,M,M,M,M,M,M,M,M,M,M,M,64.40,LFCK 120900Z AUTO VRB03KT CAVOK 18/11 Q1032 NOSIG,M
LFCK,LFCK,2019-09-12 09:30,66.20,51.80,59.74,M,3.00,0.00,30.50,M,6.21,M,M,M,M,M,M,M,M,M,M,M,M,M,M,M,M,66.20,LFCK 120930Z AUTO VRB03KT CAVOK 19/11 Q1033 NOSIG,M
LFCK,LFCK,2019-09-12 10:00,66.20,51.80,59.74,300.00,4.00,0.00,30.50,M,6.21,M,M,M,M,M,M,M,M,M,M,M,M,M,M,M,M,66.20,LFCK 121000Z AUTO 30004KT 230V350 CAVOK 19/11 Q1033 NOSIG,M
LFCK,LFCK,2019-09-12 10:30,68.00,51.80,56.13,280.00,4.00,0.00,30.50,M,6.21,M,M,M,M,M,M,M,M,M,M,M,M,M,M,M,M,68.00,LFCK 121030Z AUTO 28004KT 190V320 CAVOK 20/11 Q1033 NOSIG,M
LFCK,LFCK,2019-09-12 11:00,69.80,51.80,52.77,M,3.00,0.00,30.47,M,6.21,M,M,M,M,M,M,M,M,M,M,M,M,M,M,M,M,69.80,LFCK 121100Z AUTO VRB03KT CAVOK 21/11 Q1032 NOSIG,M
LFCK,LFCK,2019-09-12 11:30,71.60,51.80,49.64,M,2.00,0.00,30.47,M,6.21,M,M,M,M,M,M,M,M,M,M,M,M,M,M,M,M,71.60,LFCK 121130Z AUTO VRB02KT CAVOK 22/11 Q1032 NOSIG,M
LFCK,LFCK,2019-09-12 12:00,71.60,50.00,46.43,290.00,6.00,0.00,30.47,M,6.21,M,M,M,M,M,M,M,M,M,M,M,M,M,M,M,M,71.60,LFCK 121200Z AUTO 29006KT 250V340 CAVOK 22/10 Q1032 NOSIG,M
LFCK,LFCK,2019-09-12 12:30,73.40,50.00,43.69,300.00,6.00,0.00,30.47,M,6.21,M,M,M,M,M,M,M,M,M,M,M,M,M,M,M,M,73.40,LFCK 121230Z AUTO 30006KT 260V350 CAVOK 23/10 Q1032 NOSIG,M
LFCK,LFCK,2019-09-12 13:00,75.20,50.00,41.14,340.00,5.00,0.00,30.45,M,6.21,M,M,M,M,M,M,M,M,M,M,M,M,M,M,M,M,75.20,LFCK 121300Z AUTO 34005KT 250V040 CAVOK 24/10 Q1031 NOSIG,M
LFCK,LFCK,2019-09-12 13:30,75.20,51.80,43.97,310.00,3.00,0.00,30.45,M,6.21,M,M,M,M,M,M,M,M,M,M,M,M,M,M,M,M,75.20,LFCK 121330Z AUTO 31003KT 250V020 CAVOK 24/11 Q1031 NOSIG,M
LFCK,LFCK,2019-09-12 14:00,77.00,50.00,38.74,340.00,4.00,0.00,30.45,M,6.21,M,M,M,M,M,M,M,M,M,M,M,M,M,M,M,M,77.00,LFCK 121400Z AUTO 34004KT 230V020 CAVOK 25/10 Q1031 NOSIG,M
LFCK,LFCK,2019-09-12 14:30,77.00,50.00,38.74,M,2.00,0.00,30.45,M,6.21,M,M,M,M,M,M,M,M,M,M,M,M,M,M,M,M,77.00,LFCK 121430Z AUTO VRB02KT CAVOK 25/10 Q1031 NOSIG,M
LFCK,LFCK,2019-09-12 15:00,77.00,50.00,38.74,M,5.00,0.00,30.42,M,6.21,M,M,M,M,M,M,M,M,M,M,M,M,M,M,M,M,77.00,LFCK 121500Z AUTO VRB05KT CAVOK 25/10 Q1030 NOSIG,M
LFCK,LFCK,2019-09-12 15:30,78.80,48.20,34.13,330.00,4.00,0.00,30.42,M,6.21,M,M,M,M,M,M,M,M,M,M,M,M,M,M,M,M,78.80,LFCK 121530Z AUTO 33004KT 290V010 CAVOK 26/09 Q1030 NOSIG,M
LFCK,LFCK,2019-09-12 16:00,78.80,48.20,34.13,250.00,4.00,0.00,30.42,M,6.21,M,M,M,M,M,M,M,M,M,M,M,M,M,M,M,M,78.80,LFCK 121600Z AUTO 25004KT 210V280 CAVOK 26/09 Q1030 NOSIG,M
LFCK,LFCK,2019-09-12 16:30,78.80,48.20,34.13,270.00,4.00,0.00,30.42,M,6.21,M,M,M,M,M,M,M,M,M,M,M,M,M,M,M,M,78.80,LFCK 121630Z AUTO 27004KT 210V320 CAVOK 26/09 Q1030 NOSIG,M
LFCK,LFCK,2019-09-12 17:00,78.80,48.20,34.13,M,3.00,0.00,30.42,M,6.21,M,M,M,M,M,M,M,M,M,M,M,M,M,M,M,M,78.80,LFCK 121700Z AUTO VRB03KT CAVOK 26/09 Q1030 NOSIG,M
LFCK,LFCK,2019-09-12 17:30,78.80,48.20,34.13,290.00,1.00,0.00,30.42,M,6.21,M,M,M,M,M,M,M,M,M,M,M,M,M,M,M,M,78.80,LFCK 121730Z AUTO 29001KT CAVOK 26/09 Q1030 NOSIG,M
LFCK,LFCK,2019-09-12 18:00,71.60,51.80,49.64,170.00,4.00,0.00,30.42,M,6.21,M,M,M,M,M,M,M,M,M,M,M,M,M,M,M,M,71.60,LFCK 121800Z AUTO 17004KT CAVOK 22/11 Q1030 NOSIG,M
LFCK,LFCK,2019-09-12 18:30,68.00,51.80,56.13,140.00,4.00,0.00,30.42,M,6.21,M,M,M,M,M,M,M,M,M,M,M,M,M,M,M,M,68.00,LFCK 121830Z AUTO 14004KT CAVOK 20/11 Q1030 NOSIG,M
LFCK,LFCK,2019-09-12 19:00,64.40,51.80,63.60,130.00,5.00,0.00,30.45,M,6.21,M,M,M,M,M,M,M,M,M,M,M,M,M,M,M,M,64.40,LFCK 121900Z AUTO 13005KT CAVOK 18/11 Q1031 NOSIG,M
LFCK,LFCK,2019-09-12 19:30,62.60,51.80,67.75,130.00,5.00,0.00,30.45,M,6.21,M,M,M,M,M,M,M,M,M,M,M,M,M,M,M,M,62.60,LFCK 121930Z AUTO 13005KT CAVOK 17/11 Q1031 NOSIG,M
LFCK,LFCK,2019-09-12 20:00,62.60,53.60,72.38,140.00,6.00,0.00,30.45,M,6.21,M,M,M,M,M,M,M,M,M,M,M,M,M,M,M,M,62.60,LFCK 122000Z AUTO 14006KT CAVOK 17/12 Q1031 NOSIG,M
LFCK,LFCK,2019-09-12 20:30,62.60,53.60,72.38,80.00,4.00,0.00,30.45,M,6.21,M,M,M,M,M,M,M,M,M,M,M,M,M,M,M,M,62.60,LFCK 122030Z AUTO 08004KT CAVOK 17/12 Q1031 NOSIG,M
LFCK,LFCK,2019-09-12 21:00,60.80,51.80,72.20,120.00,4.00,0.00,30.45,M,6.21,M,M,M,M,M,M,M,M,M,M,M,M,M,M,M,M,60.80,LFCK 122100Z AUTO 12004KT CAVOK 16/11 Q1031 NOSIG,M
LFCK,LFCK,2019-09-12 21:30,60.80,51.80,72.20,120.00,6.00,0.00,30.45,M,6.21,M,M,M,M,M,M,M,M,M,M,M,M,M,M,M,M,60.80,LFCK 122130Z AUTO 12006KT CAVOK 16/11 Q1031,M
LFCK,LFCK,2019-09-12 22:00,59.00,51.80,76.98,150.00,7.00,0.00,30.45,M,6.21,M,M,M,M,M,M,M,M,M,M,M,M,M,M,M,M,59.00,LFCK 122200Z AUTO 15007KT CAVOK 15/11 Q1031,M
LFCK,LFCK,2019-09-12 22:30,60.80,51.80,72.20,140.00,6.00,0.00,30.45,M,6.21,M,M,M,M,M,M,M,M,M,M,M,M,M,M,M,M,60.80,LFCK 122230Z AUTO 14006KT CAVOK 16/11 Q1031,M
LFCK,LFCK,2019-09-12 23:00,59.00,51.80,76.98,130.00,7.00,0.00,30.45,M,6.21,M,M,M,M,M,M,M,M,M,M,M,M,M,M,M,M,59.00,LFCK 122300Z AUTO 13007KT CAVOK 15/11 Q1031,M
LFCK,LFCK,2019-09-12 23:30,59.00,50.00,72.01,140.00,5.00,0.00,30.45,M,6.21,M,M,M,M,M,M,M,M,M,M,M,M,M,M,M,M,59.00,LFCK 122330Z AUTO 14005KT CAVOK 15/10 Q1031,M
LFCR,LFCR,2019-09-12 00:00,51.80,42.80,71.26,230.00,3.00,0.00,30.39,M,6.21,M,M,M,M,M,M,M,M,M,M,M,M,M,M,M,M,51.80,LFCR 120000Z AUTO 23003KT CAVOK 11/06 Q1029 NOSIG,M
LFCR,LFCR,2019-09-12 00:30,51.80,42.80,71.26,260.00,2.00,0.00,30.39,M,6.21,M,M,M,M,M,M,M,M,M,M,M,M,M,M,M,M,51.80,LFCR 120030Z AUTO 26002KT CAVOK 11/06 Q1029 NOSIG,M
LFCR,LFCR,2019-09-12 01:00,50.00,42.80,76.18,M,2.00,0.00,30.39,M,6.21,M,M,M,M,M,M,M,M,M,M,M,M,M,M,M,M,50.00,LFCR 120100Z AUTO VRB02KT CAVOK 10/06 Q1029 NOSIG,M
LFCR,LFCR,2019-09-12 01:30,50.00,41.00,71.07,M,3.00,0.00,30.39,M,6.21,M,M,M,M,M,M,M,M,M,M,M,M,M,M,M,M,49.27,LFCR 120130Z AUTO VRB03KT CAVOK 10/05 Q1029 NOSIG,M
LFCR,LFCR,2019-09-12 02:00,48.20,42.80,81.47,M,2.00,0.00,30.39,M,6.21,M,M,M,M,M,M,M,M,M,M,M,M,M,M,M,M,48.20,LFCR 120200Z AUTO VRB02KT CAVOK 09/06 Q1029 NOSIG,M
LFCR,LFCR,2019-09-12 02:30,46.40,42.80,87.19,M,3.00,0.00,30.39,M,6.21,M,M,M,M,M,M,M,M,M,M,M,M,M,M,M,M,45.15,LFCR 120230Z AUTO VRB03KT CAVOK 08/06 Q1029 NOSIG,M
LFCR,LFCR,2019-09-12 03:00,48.20,42.80,81.47,200.00,2.00,0.00,30.39,M,6.21,M,M,M,M,M,M,M,M,M,M,M,M,M,M,M,M,48.20,LFCR 120300Z AUTO 20002KT CAVOK 09/06 Q1029 NOSIG,M
LFCR,LFCR,2019-09-12 03:30,46.40,42.80,87.19,M,3.00,0.00,30.39,M,6.21,M,M,M,M,M,M,M,M,M,M,M,M,M,M,M,M,45.15,LFCR 120330Z AUTO VRB03KT CAVOK 08/06 Q1029 NOSIG,M
LFCR,LFCR,2019-09-12 04:00,46.40,41.00,81.34,M,3.00,0.00,30.39,M,6.21,M,M,M,M,M,M,M,M,M,M,M,M,M,M,M,M,45.15,LFCR 120400Z AUTO VRB03KT CAVOK 08/05 Q1029 NOSIG,M
LFCR,LFCR,2019-09-12 04:30,46.40,42.80,87.19,200.00,1.00,0.00,30.39,M,6.21,M,M,M,M,M,M,M,M,M,M,M,M,M,M,M,M,46.40,LFCR 120430Z AUTO 20001KT CAVOK 08/06 Q1029 NOSIG,M
LFCR,LFCR,2019-09-12 05:00,44.60,41.00,87.09,190.00,3.00,0.00,30.39,M,6.21,M,M,M,M,M,M,M,M,M,M,M,M,M,M,M,M,43.09,LFCR 120500Z AUTO 19003KT CAVOK 07/05 Q1029 NOSIG,M
LFCR,LFCR,2019-09-12 05:30,48.20,41.00,76.01,M,2.00,0.00,30.39,M,6.21,M,M,M,M,M,M,M,M,M,M,M,M,M,M,M,M,48.20,LFCR 120530Z AUTO VRB02KT CAVOK 09/05 Q1029 NOSIG,M
LFCR,LFCR,2019-09-12 06:00,46.40,42.80,87.19,0.00,0.00,0.00,30.42,M,6.21,M,M,M,M,M,M,M,M,M,M,M,M,M,M,M,M,46.40,LFCR 120600Z AUTO 00000KT CAVOK 08/06 Q1030 NOSIG,M
LFCR,LFCR,2019-09-12 06:30,50.00,44.60,81.61,M,1.00,0.00,30.42,M,6.21,M,M,M,M,M,M,M,M,M,M,M,M,M,M,M,M,50.00,LFCR 120630Z AUTO VRB01KT CAVOK 10/07 Q1030 NOSIG,M
LFCR,LFCR,2019-09-12 07:00,53.60,44.60,71.45,M,2.00,0.00,30.45,M,6.21,M,M,M,M,M,M,M,M,M,M,M,M,M,M,M,M,53.60,LFCR 120700Z AUTO VRB02KT CAVOK 12/07 Q1031 NOSIG,M
LFCR,LFCR,2019-09-12 07:30,57.20,44.60,62.69,160.00,4.00,0.00,30.45,M,6.21,M,M,M,M,M,M,M,M,M,M,M,M,M,M,M,M,57.20,LFCR 120730Z AUTO 16004KT CAVOK 14/07 Q1031 NOSIG,M
LFCR,LFCR,2019-09-12 08:00,60.80,42.80,51.45,M,1.00,0.00,30.45,M,6.21,M,M,M,M,M,M,M,M,M,M,M,M,M,M,M,M,60.80,LFCR 120800Z AUTO VRB01KT CAVOK 16/06 Q1031 NOSIG,M
LFCR,LFCR,2019-09-12 08:30,64.40,42.80,45.32,M,2.00,0.00,30.45,M,6.21,M,M,M,M,M,M,M,M,M,M,M,M,M,M,M,M,64.40,LFCR 120830Z AUTO VRB02KT CAVOK 18/06 Q1031 NOSIG,M
LFCR,LFCR,2019-09-12 09:00,64.40,44.60,48.55,360.00,5.00,0.00,30.47,M,6.21,M,M,M,M,M,M,M,M,M,M,M,M,M,M,M,M,64.40,LFCR 120900Z AUTO 36005KT 320V060 CAVOK 18/07 Q1032 NOSIG,M
LFCR,LFCR,2019-09-12 09:30,69.80,46.40,43.13,350.00,3.00,0.00,30.47,M,6.21,M,M,M,M,M,M,M,M,M,M,M,M,M,M,M,M,69.80,LFCR 120930Z AUTO 35003KT 300V040 CAVOK 21/08 Q1032 NOSIG,M
LFCR,LFCR,2019-09-12 10:00,69.80,42.80,37.61,M,3.00,0.00,30.47,M,6.21,M,M,M,M,M,M,M,M,M,M,M,M,M,M,M,M,69.80,LFCR 121000Z AUTO VRB03KT CAVOK 21/06 Q1032 NOSIG,M
LFCR,LFCR,2019-09-12 10:30,71.60,44.60,37.89,10.00,3.00,0.00,30.47,M,6.21,M,M,M,M,M,M,M,M,M,M,M,M,M,M,M,M,71.60,LFCR 121030Z AUTO 01003KT 340V070 CAVOK 22/07 Q1032 NOSIG,M
LFCR,LFCR,2019-09-12 11:00,71.60,42.80,35.37,M,5.00,0.00,30.47,M,6.21,M,M,M,M,M,M,M,M,M,M,M,M,M,M,M,M,71.60,LFCR 121100Z AUTO VRB05KT CAVOK 22/06 Q1032 NOSIG,M
LFCR,LFCR,2019-09-12 11:30,73.40,44.60,35.66,320.00,4.00,0.00,30.47,M,6.21,M,M,M,M,M,M,M,M,M,M,M,M,M,M,M,M,73.40,LFCR 121130Z AUTO 32004KT 250V030 CAVOK 23/07 Q1032 NOSIG,M
LFCR,LFCR,2019-09-12 12:00,73.40,44.60,35.66,M,3.00,0.00,30.45,M,6.21,M,M,M,M,M,M,M,M,M,M,M,M,M,M,M,M,73.40,LFCR 121200Z AUTO VRB03KT CAVOK 23/07 Q1031 NOSIG,M
LFCR,LFCR,2019-09-12 12:30,75.20,44.60,33.57,340.00,6.00,0.00,30.45,M,6.21,M,M,M,M,M,M,M,M,M,M,M,M,M,M,M,M,75.20,LFCR 121230Z AUTO 34006KT 270V040 CAVOK 24/07 Q1031 NOSIG,M
LFCR,LFCR,2019-09-12 13:00,77.00,46.40,33.85,20.00,4.00,0.00,30.45,M,6.21,M,M,M,M,M,M,M,M,M,M,M,M,M,M,M,M,77.00,LFCR 121300Z AUTO 02004KT 320V100 CAVOK 25/08 Q1031 NOSIG,M
LFCR,LFCR,2019-09-12 13:30,78.80,46.40,31.90,10.00,4.00,0.00,30.45,M,6.21,M,M,M,M,M,M,M,M,M,M,M,M,M,M,M,M,78.80,LFCR 121330Z AUTO 01004KT 300V110 CAVOK 26/08 Q1031 NOSIG,M
LFCR,LFCR,2019-09-12 14:00,80.60,46.40,30.07,M,3.00,0.00,30.45,M,6.21,M,M,M,M,M,M,M,M,M,M,M,M,M,M,M,M,79.56,LFCR 121400Z AUTO VRB03KT CAVOK 27/08 Q1031 NOSIG,M
LFCR,LFCR,2019-09-12 14:30,80.60,46.40,30.07,320.00,4.00,0.00,30.45,M,6.21,M,M,M,M,M,M,M,M,M,M,M,M,M,M,M,M,79.56,LFCR 121430Z AUTO 32004KT 250V010 CAVOK 27/08 Q1031 NOSIG,M
LFCR,LFCR,2019-09-12 15:00,80.60,46.40,30.07,330.00,4.00,0.00,30.42,M,6.21,M,M,M,M,M,M,M,M,M,M,M,M,M,M,M,M,79.56,LFCR 121500Z AUTO 33004KT 270V030 CAVOK 27/08 Q1030 NOSIG,M
LFCR,LFCR,2019-09-12 15:30,80.60,46.40,30.07,330.00,5.00,0.00,30.42,M,6.21,M,M,M,M,M,M,M,M,M,M,M,M,M,M,M,M,79.56,LFCR 121530Z AUTO 33005KT 280V010 CAVOK 27/08 Q1030 NOSIG,M
LFCR,LFCR,2019-09-12 16:00,78.80,44.60,29.79,320.00,5.00,0.00,30.42,M,6.21,M,M,M,M,M,M,M,M,M,M,M,M,M,M,M,M,78.80,LFCR 121600Z AUTO 32005KT 240V030 CAVOK 26/07 Q1030 NOSIG,M
LFCR,LFCR,2019-09-12 16:30,78.80,44.60,29.79,290.00,8.00,0.00,30.42,M,6.21,M,M,M,M,M,M,M,M,M,M,M,M,M,M,M,M,78.80,LFCR 121630Z AUTO 29008KT CAVOK 26/07 Q1030 NOSIG,M
LFCR,LFCR,2019-09-12 17:00,78.80,44.60,29.79,300.00,8.00,0.00,30.42,M,6.21,M,M,M,M,M,M,M,M,M,M,M,M,M,M,M,M,78.80,LFCR 121700Z AUTO 30008KT CAVOK 26/07 Q1030 NOSIG,M
LFCR,LFCR,2019-09-12 17:30,75.20,46.40,35.94,300.00,7.00,0.00,30.42,M,6.21,M,M,M,M,M,M,M,M,M,M,M,M,M,M,M,M,75.20,LFCR 121730Z AUTO 30007KT CAVOK 24/08 Q1030 NOSIG,M
LFCR,LFCR,2019-09-12 18:00,71.60,46.40,40.57,290.00,6.00,0.00,30.42,M,6.21,M,M,M,M,M,M,M,M,M,M,M,M,M,M,M,M,71.60,LFCR 121800Z AUTO 29006KT CAVOK 22/08 Q1030 NOSIG,M
LFCR,LFCR,2019-09-12 18:30,68.00,46.40,45.88,250.00,5.00,0.00,30.42,M,6.21,M,M,M,M,M,M,M,M,M,M,M,M,M,M,M,M,68.00,LFCR 121830Z AUTO 25005KT CAVOK 20/08 Q1030 NOSIG,M
LFCR,LFCR,2019-09-12 19:00,68.00,46.40,45.88,220.00,3.00,0.00,30.45,M,6.21,M,M,M,M,M,M,M,M,M,M,M,M,M,M,M,M,68.00,LFCR 121900Z AUTO 22003KT CAVOK 20/08 Q1031 NOSIG,M
LFCR,LFCR,2019-09-12 19:30,68.00,46.40,45.88,260.00,4.00,0.00,30.45,M,6.21,M,M,M,M,M,M,M,M,M,M,M,M,M,M,M,M,68.00,LFCR 121930Z AUTO 26004KT CAVOK 20/08 Q1031 NOSIG,M
LFCR,LFCR,2019-09-12 20:00,66.20,44.60,45.60,270.00,4.00,0.00,30.45,M,6.21,M,M,M,M,M,M,M,M,M,M,M,M,M,M,M,M,66.20,LFCR 122000Z AUTO 27004KT CAVOK 19/07 Q1031 NOSIG,M
LFCR,LFCR,2019-09-12 20:30,64.40,44.60,48.55,120.00,3.00,0.00,30.45,M,6.21,M,M,M,M,M,M,M,M,M,M,M,M,M,M,M,M,64.40,LFCR 122030Z AUTO 12003KT CAVOK 18/07 Q1031 NOSIG,M
LFCR,LFCR,2019-09-12 21:00,64.40,44.60,48.55,M,2.00,0.00,30.45,M,6.21,M,M,M,M,M,M,M,M,M,M,M,M,M,M,M,M,64.40,LFCR 122100Z AUTO VRB02KT CAVOK 18/07 Q1031 NOSIG,M
LFCR,LFCR,2019-09-12 21:30,62.60,44.60,51.72,M,1.00,0.00,30.45,M,6.21,M,M,M,M,M,M,M,M,M,M,M,M,M,M,M,M,62.60,LFCR 122130Z AUTO VRB01KT CAVOK 17/07 Q1031 NOSIG,M
LFCR,LFCR,2019-09-12 22:00,59.00,46.40,62.92,160.00,3.00,0.00,30.45,M,6.21,M,M,M,M,M,M,M,M,M,M,M,M,M,M,M,M,59.00,LFCR 122200Z AUTO 16003KT CAVOK 15/08 Q1031 NOSIG,M
LFCR,LFCR,2019-09-12 22:30,59.00,48.20,67.33,120.00,3.00,0.00,30.45,M,6.21,M,M,M,M,M,M,M,M,M,M,M,M,M,M,M,M,59.00,LFCR 122230Z AUTO 12003KT CAVOK 15/09 Q1031 NOSIG,M
LFCR,LFCR,2019-09-12 23:00,60.80,48.20,63.15,130.00,3.00,0.00,30.45,M,6.21,M,M,M,M,M,M,M,M,M,M,M,M,M,M,M,M,60.80,LFCR 122300Z AUTO 13003KT 100V170 CAVOK 16/09 Q1031 NOSIG,M
LFCR,LFCR,2019-09-12 23:30,57.20,48.20,71.83,150.00,4.00,0.00,30.45,M,6.21,M,M,M,M,M,M,M,M,M,M,M,M,M,M,M,M,57.20,LFCR 122330Z AUTO 15004KT CAVOK 14/09 Q1031 NOSIG,M
LFKJ,LFKJ,2019-09-12 00:00,64.40,55.40,72.56,M,3.00,0.00,30.21,M,6.21,M,M,M,M,M,M,M,M,M,M,M,M,M,M,M,M,64.40,LFKJ 120000Z AUTO VRB03KT CAVOK 18/13 Q1023 NOSIG,M
LFKJ,LFKJ,2019-09-12 00:30,64.40,55.40,72.56,30.00,5.00,0.00,30.21,M,6.21,M,M,M,M,M,M,M,M,M,M,M,M,M,M,M,M,64.40,LFKJ 120030Z AUTO 03005KT CAVOK 18/13 Q1023 NOSIG,M
LFKJ,LFKJ,2019-09-12 01:00,62.60,55.40,77.29,70.00,6.00,0.00,30.21,M,6.21,M,M,M,M,M,M,M,M,M,M,M,M,M,M,M,M,62.60,LFKJ 120100Z AUTO 07006KT 040V100 CAVOK 17/13 Q1023 NOSIG,M
LFKJ,LFKJ,2019-09-12 01:30,62.60,55.40,77.29,50.00,5.00,0.00,30.21,M,6.21,M,M,M,M,M,M,M,M,M,M,M,M,M,M,M,M,62.60,LFKJ 120130Z AUTO 05005KT CAVOK 17/13 Q1023 NOSIG,M
LFKJ,LFKJ,2019-09-12 02:00,62.60,55.40,77.29,50.00,6.00,0.00,30.21,M,6.21,M,M,M,M,M,M,M,M,M,M,M,M,M,M,M,M,62.60,LFKJ 120200Z AUTO 05006KT CAVOK 17/13 Q1023 NOSIG,M
LFKJ,LFKJ,2019-09-12 02:30,62.60,55.40,77.29,40.00,7.00,0.00,30.21,M,6.21,M,M,M,M,M,M,M,M,M,M,M,M,M,M,M,M,62.60,LFKJ 120230Z AUTO 04007KT CAVOK 17/13 Q1023 NOSIG,M
LFKJ,LFKJ,2019-09-12 03:00,62.60,55.40,77.29,40.00,7.00,0.00,30.21,M,6.21,M,M,M,M,M,M,M,M,M,M,M,M,M,M,M,M,62.60,LFKJ 120300Z AUTO 04007KT CAVOK 17/13 Q1023 NOSIG,M
LFKJ,LFKJ,2019-09-12 03:30,62.60,55.40,77.29,40.00,7.00,0.00,30.21,M,6.21,M,M,M,M,M,M,M,M,M,M,M,M,M,M,M,M,62.60,LFKJ 120330Z AUTO 04007KT CAVOK 17/13 Q1023 NOSIG,M
LFKJ,LFKJ,2019-09-12 04:00,62.60,53.60,72.38,50.00,6.00,0.00,30.21,M,6.21,M,M,M,M,M,M,M,M,M,M,M,M,M,M,M,M,62.60,LFKJ 120400Z AUTO 05006KT CAVOK 17/12 Q1023 NOSIG,M
LFKJ,LFKJ,2019-09-12 04:30,62.60,53.60,72.38,50.00,6.00,0.00,30.24,M,6.21,M,M,M,M,M,M,M,M,M,M,M,M,M,M,M,M,62.60,LFKJ 120430Z AUTO 05006KT CAVOK 17/12 Q1024 NOSIG,M
LFKJ,LFKJ,2019-09-12 05:00,60.80,53.60,77.14,50.00,6.00,0.00,30.24,M,6.21,M,M,M,M,M,M,M,M,M,M,M,M,M,M,M,M,60.80,LFKJ 120500Z AUTO 05006KT CAVOK 16/12 Q1024 NOSIG,M
LFKJ,LFKJ,2019-09-12 05:30,60.80,53.60,77.14,M,3.00,0.00,30.27,M,6.21,M,M,M,M,M,M,M,M,M,M,M,M,M,M,M,M,60.80,LFKJ 120530Z AUTO VRB03KT CAVOK 16/12 Q1025 NOSIG,M
LFKJ,LFKJ,2019-09-12 06:00,62.60,53.60,72.38,40.00,5.00,0.00,30.27,M,6.21,M,M,M,M,M,M,M,M,M,M,M,M,M,M,M,M,62.60,LFKJ 120600Z AUTO 04005KT CAVOK 17/12 Q1025 NOSIG,M
LFKJ,LFKJ,2019-09-12 06:30,66.20,55.40,68.15,50.00,7.00,0.00,30.27,M,6.21,M,M,M,M,M,M,M,M,M,M,M,M,M,M,M,M,66.20,LFKJ 120630Z AUTO 05007KT CAVOK 19/13 Q1025 NOSIG,M
LFKJ,LFKJ,2019-09-12 07:00,69.80,55.40,60.21,40.00,6.00,0.00,30.27,M,6.21,M,M,M,M,M,M,M,M,M,M,M,M,M,M,M,M,69.80,LFKJ 120700Z AUTO 04006KT CAVOK 21/13 Q1025 NOSIG,M
LFKJ,LFKJ,2019-09-12 07:30,73.40,57.20,56.88,40.00,4.00,0.00,30.27,M,6.21,M,M,M,M,M,M,M,M,M,M,M,M,M,M,M,M,73.40,LFKJ 120730Z AUTO 04004KT 010V070 CAVOK 23/14 Q1025 NOSIG,M
LFKJ,LFKJ,2019-09-12 08:00,78.80,57.20,47.52,30.00,5.00,0.00,30.30,M,6.21,M,M,M,M,M,M,M,M,M,M,M,M,M,M,M,M,78.80,LFKJ 120800Z AUTO 03005KT 010V070 CAVOK 26/14 Q1026 NOSIG,M
LFKJ,LFKJ,2019-09-12 08:30,80.60,55.40,41.97,30.00,5.00,0.00,30.30,M,6.21,M,M,M,M,M,M,M,M,M,M,M,M,M,M,M,M,80.53,LFKJ 120830Z AUTO 03005KT CAVOK 27/13 Q1026 BECMG 24010KT,M
LFKJ,LFKJ,2019-09-12 09:00,84.20,55.40,37.35,M,2.00,0.00,30.30,M,6.21,M,M,M,M,M,M,M,M,M,M,M,M,M,M,M,M,83.08,LFKJ 120900Z AUTO VRB02KT CAVOK 29/13 Q1026 NOSIG,M
LFKJ,LFKJ,2019-09-12 09:30,80.60,60.80,50.95,250.00,8.00,0.00,30.30,M,6.21,M,M,M,M,M,M,M,M,M,M,M,M,M,M,M,M,81.46,LFKJ 120930Z AUTO 25008KT CAVOK 27/16 Q1026 NOSIG,M
LFKJ,LFKJ,2019-09-12 10:00,82.40,66.20,58.08,230.00,9.00,0.00,30.30,M,6.21,M,M,M,M,M,M,M,M,M,M,M,M,M,M,M,M,84.63,LFKJ 121000Z AUTO 23009KT CAVOK 28/19 Q1026 NOSIG,M
LFKJ,LFKJ,2019-09-12 10:30,84.20,62.60,48.32,230.00,8.00,0.00,30.30,M,6.21,M,M,M,M,M,M,M,M,M,M,M,M,M,M,M,M,85.03,LFKJ 121030Z AUTO 23008KT CAVOK 29/17 Q1026 NOSIG,M
LFKJ,LFKJ,2019-09-12 11:00,84.20,64.40,51.47,200.00,9.00,0.00,30.30,M,6.21,M,M,M,M,M,M,M,M,M,M,M,M,M,M,M,M,85.71,LFKJ 121100Z AUTO 20009KT CAVOK 29/18 Q1026 NOSIG,M
LFKJ,LFKJ,2019-09-12 11:30,86.00,62.60,45.61,200.00,10.00,0.00,30.30,M,6.21,M,M,M,M,M,M,M,M,M,M,M,M,M,M,M,M,86.72,LFKJ 121130Z AUTO 20010KT CAVOK 30/17 Q1026 NOSIG,M
LFKJ,LFKJ,2019-09-12 12:00,86.00,64.40,48.58,200.00,10.00,0.00,30.30,M,6.21,M,M,M,M,M,M,M,M,M,M,M,M,M,M,M,M,87.49,LFKJ 121200Z AUTO 20010KT 160V220 CAVOK 30/18 Q1026 NOSIG,M
LFKJ,LFKJ,2019-09-12 12:30,84.20,64.40,51.47,220.00,11.00,0.00,30.30,M,6.21,M,M,M,M,M,M,M,M,M,M,M,M,M,M,M,M,85.71,LFKJ 121230Z AUTO 22011KT CAVOK 29/18 Q1026 NOSIG,M
LFKJ,LFKJ,2019-09-12 13:00,84.20,62.60,48.32,220.00,10.00,0.00,30.30,M,6.21,M,M,M,M,M,M,M,M,M,M,M,M,M,M,M,M,85.03,LFKJ 121300Z AUTO 22010KT CAVOK 29/17 Q1026 NOSIG,M
LFKJ,LFKJ,2019-09-12 13:30,84.20,64.40,51.47,210.00,10.00,0.00,30.30,M,6.21,M,M,M,M,M,M,M,M,M,M,M,M,M,M,M,M,85.71,LFKJ 121330Z AUTO 21010KT CAVOK 29/18 Q1026 NOSIG,M
LFKJ,LFKJ,2019-09-12 14:00,84.20,64.40,51.47,220.00,10.00,0.00,30.27,M,6.21,M,M,M,M,M,M,M,M,M,M,M,M,M,M,M,M,85.71,LFKJ 121400Z AUTO 22010KT CAVOK 29/18 Q1025 NOSIG,M
LFKJ,LFKJ,2019-09-12 14:30,84.20,66.20,54.80,200.00,9.00,0.00,30.27,M,6.21,M,M,M,M,M,M,M,M,M,M,M,M,M,M,M,M,86.50,LFKJ 121430Z AUTO 20009KT CAVOK 29/19 Q1025 NOSIG,M
LFKJ,LFKJ,2019-09-12 15:00,82.40,64.40,54.55,210.00,8.00,0.00,30.27,M,6.21,M,M,M,M,M,M,M,M,M,M,M,M,M,M,M,M,83.98,LFKJ 121500Z AUTO 21008KT CAVOK 28/18 Q1025 NOSIG,M
LFKJ,LFKJ,2019-09-12 15:30,82.40,62.60,51.21,230.00,9.00,0.00,30.27,M,6.21,M,NSC,M,M,M,M,M,M,M,M,M,M,M,M,M,M,83.41,LFKJ 121530Z AUTO 23009KT 9999 NSC 28/17 Q1025 NOSIG,M
LFKJ,LFKJ,2019-09-12 16:00,82.40,62.60,51.21,220.00,6.00,0.00,30.27,M,6.21,M,M,M,M,M,M,M,M,M,M,M,M,M,M,M,M,83.41,LFKJ 121600Z AUTO 22006KT CAVOK 28/17 Q1025 NOSIG,M
LFKJ,LFKJ,2019-09-12 16:30,82.40,62.60,51.21,190.00,5.00,0.00,30.27,M,6.21,M,M,M,M,M,M,M,M,M,M,M,M,M,M,M,M,83.41,LFKJ 121630Z AUTO 19005KT CAVOK 28/17 Q1025 NOSIG,M
LFKJ,LFKJ,2019-09-12 17:00,80.60,60.80,50.95,190.00,6.00,0.00,30.27,M,6.21,M,M,M,M,M,M,M,M,M,M,M,M,M,M,M,M,81.46,LFKJ 121700Z AUTO 19006KT CAVOK 27/16 Q1025 NOSIG,M
LFKJ,LFKJ,2019-09-12 17:30,78.80,60.80,54.05,200.00,4.00,0.00,30.27,M,6.21,M,M,M,M,M,M,M,M,M,M,M,M,M,M,M,M,78.80,LFKJ 121730Z AUTO 20004KT CAVOK 26/16 Q1025 NOSIG,M
LFKJ,LFKJ,2019-09-12 18:00,77.00,60.80,57.36,40.00,2.00,0.00,30.27,M,6.21,M,M,M,M,M,M,M,M,M,M,M,M,M,M,M,M,77.00,LFKJ 121800Z AUTO 04002KT CAVOK 25/16 Q1025 NOSIG,M
LFKJ,LFKJ,2019-09-12 18:30,75.20,57.20,53.55,40.00,2.00,0.00,30.27,M,6.21,M,M,M,M,M,M,M,M,M,M,M,M,M,M,M,M,75.20,LFKJ 121830Z AUTO 04002KT CAVOK 24/14 Q1025 NOSIG,M
LFKJ,LFKJ,2019-09-12 19:00,73.40,59.00,60.67,M,2.00,0.00,30.30,M,6.21,M,M,M,M,M,M,M,M,M,M,M,M,M,M,M,M,73.40,LFKJ 121900Z AUTO VRB02KT CAVOK 23/15 Q1026 NOSIG,M
LFKJ,LFKJ,2019-09-12 19:30,73.40,59.00,60.67,0.00,0.00,0.00,30.30,M,6.21,M,M,M,M,M,M,M,M,M,M,M,M,M,M,M,M,73.40,LFKJ 121930Z AUTO 00000KT CAVOK 23/15 Q1026 NOSIG,M
LFKJ,LFKJ,2019-09-12 20:00,69.80,57.20,64.26,40.00,4.00,0.00,30.30,M,6.21,M,M,M,M,M,M,M,M,M,M,M,M,M,M,M,M,69.80,LFKJ 122000Z AUTO 04004KT CAVOK 21/14 Q1026 NOSIG,M
LFKJ,LFKJ,2019-09-12 20:30,68.00,57.20,68.35,50.00,5.00,0.00,30.30,M,6.21,M,M,M,M,M,M,M,M,M,M,M,M,M,M,M,M,68.00,LFKJ 122030Z AUTO 05005KT CAVOK 20/14 Q1026 NOSIG,M
LFKJ,LFKJ,2019-09-12 21:00,68.00,57.20,68.35,40.00,6.00,0.00,30.33,M,6.21,M,M,M,M,M,M,M,M,M,M,M,M,M,M,M,M,68.00,LFKJ 122100Z AUTO 04006KT CAVOK 20/14 Q1027 NOSIG,M
LFKJ,LFKJ,2019-09-12 21:30,68.00,57.20,68.35,40.00,4.00,0.00,30.33,M,6.21,M,M,M,M,M,M,M,M,M,M,M,M,M,M,M,M,68.00,LFKJ 122130Z AUTO 04004KT CAVOK 20/14 Q1027 NOSIG,M
LFKJ,LFKJ,2019-09-12 22:00,66.20,57.20,72.74,50.00,7.00,0.00,30.33,M,6.21,M,M,M,M,M,M,M,M,M,M,M,M,M,M,M,M,66.20,LFKJ 122200Z AUTO 05007KT CAVOK 19/14 Q1027 NOSIG,M
LFKJ,LFKJ,2019-09-12 22:30,66.20,57.20,72.74,50.00,6.00,0.00,30.33,M,6.21,M,M,M,M,M,M,M,M,M,M,M,M,M,M,M,M,66.20,LFKJ 122230Z AUTO 05006KT CAVOK 19/14 Q1027 NOSIG,M
LFKJ,LFKJ,2019-09-12 23:00,66.20,57.20,72.74,50.00,5.00,0.00,30.33,M,6.21,M,M,M,M,M,M,M,M,M,M,M,M,M,M,M,M,66.20,LFKJ 122300Z AUTO 05005KT CAVOK 19/14 Q1027 NOSIG,M
LFKJ,LFKJ,2019-09-12 23:30,66.20,57.20,72.74,40.00,7.00,0.00,30.33,M,6.21,M,M,M,M,M,M,M,M,M,M,M,M,M,M,M,M,66.20,LFKJ 122330Z AUTO 04007KT CAVOK 19/14 Q1027 NOSIG,M
LFLP,LFLP,2019-09-12 00:00,51.80,50.00,93.55,30.00,3.00,0.00,30.39,M,6.21,M,M,M,M,M,M,M,M,M,M,M,M,M,M,M,M,51.80,LFLP 120000Z AUTO 03003KT 330V050 CAVOK 11/10 Q1029,M
LFLP,LFLP,2019-09-12 00:30,51.80,50.00,93.55,M,2.00,0.00,30.39,M,6.21,M,M,M,M,M,M,M,M,M,M,M,M,M,M,M,M,51.80,LFLP 120030Z AUTO VRB02KT CAVOK 11/10 Q1029,M
LFLP,LFLP,2019-09-12 01:00,51.80,50.00,93.55,70.00,3.00,0.00,30.39,M,6.21,M,M,M,M,M,M,M,M,M,M,M,M,M,M,M,M,51.80,LFLP 120100Z AUTO 07003KT CAVOK 11/10 Q1029,M
LFLP,LFLP,2019-09-12 01:30,51.80,48.20,87.47,20.00,3.00,0.00,30.39,M,6.21,M,M,M,M,M,M,M,M,M,M,M,M,M,M,M,M,51.80,LFLP 120130Z AUTO 02003KT CAVOK 11/09 Q1029,M
LFLP,LFLP,2019-09-12 02:00,50.00,48.20,93.50,10.00,2.00,0.00,30.39,M,6.21,M,M,M,M,M,M,M,M,M,M,M,M,M,M,M,M,50.00,LFLP 120200Z AUTO 01002KT CAVOK 10/09 Q1029,M
LFLP,LFLP,2019-09-12 02:30,50.00,48.20,93.50,M,2.00,0.00,30.39,M,6.21,M,M,M,M,M,M,M,M,M,M,M,M,M,M,M,M,50.00,LFLP 120230Z AUTO VRB02KT CAVOK 10/09 Q1029 NOSIG,M
LFLP,LFLP,2019-09-12 03:00,50.00,48.20,93.50,M,2.00,0.00,30.42,M,6.21,M,M,M,M,M,M,M,M,M,M,M,M,M,M,M,M,50.00,LFLP 120300Z AUTO VRB02KT CAVOK 10/09 Q1030 NOSIG,M
LFLP,LFLP,2019-09-12 03:30,50.00,48.20,93.50,M,2.00,0.00,30.42,M,6.21,M,M,M,M,M,M,M,M,M,M,M,M,M,M,M,M,50.00,LFLP 120330Z AUTO VRB02KT CAVOK 10/09 Q1030 NOSIG,M
LFLP,LFLP,2019-09-12 04:00,50.00,48.20,93.50,0.00,0.00,0.00,30.42,M,6.21,M,M,M,M,M,M,M,M,M,M,M,M,M,M,M,M,50.00,LFLP 120400Z AUTO 00000KT CAVOK 10/09 Q1030 NOSIG,M
LFLP,LFLP,2019-09-12 04:30,50.00,48.20,93.50,M,2.00,0.00,30.42,M,6.21,M,M,M,M,M,M,M,M,M,M,M,M,M,M,M,M,50.00,LFLP 120430Z AUTO VRB02KT CAVOK 10/09 Q1030 NOSIG,M
LFLP,LFLP,2019-09-12 05:00,48.20,46.40,93.45,0.00,0.00,0.00,30.42,M,6.21,M,M,M,M,M,M,M,M,M,M,M,M,M,M,M,M,48.20,LFLP 120500Z AUTO 00000KT CAVOK 09/08 Q1030 NOSIG,M
LFLP,LFLP,2019-09-12 05:30,50.00,48.20,93.50,360.00,3.00,0.00,30.42,M,6.21,M,M,M,M,M,M,M,M,M,M,M,M,M,M,M,M,49.27,LFLP 120530Z AUTO 36003KT CAVOK 10/09 Q1030 NOSIG,M
LFLP,LFLP,2019-09-12 06:00,51.80,48.20,87.47,M,2.00,0.00,30.42,M,6.21,M,M,M,M,M,M,M,M,M,M,M,M,M,M,M,M,51.80,LFLP 120600Z AUTO VRB02KT CAVOK 11/09 Q1030 NOSIG,M
LFLP,LFLP,2019-09-12 06:30,53.60,50.00,87.56,M,1.00,0.00,30.45,M,6.21,M,M,M,M,M,M,M,M,M,M,M,M,M,M,M,M,53.60,LFLP 120630Z AUTO VRB01KT CAVOK 12/10 Q1031 NOSIG,M
LFLP,LFLP,2019-09-12 07:00,55.40,50.00,81.99,M,2.00,0.00,30.45,M,6.21,M,M,M,M,M,M,M,M,M,M,M,M,M,M,M,M,55.40,LFLP 120700Z AUTO VRB02KT CAVOK 13/10 Q1031 NOSIG,M
LFLP,LFLP,2019-09-12 07:30,59.00,51.80,76.98,M,2.00,0.00,30.45,M,6.21,M,M,M,M,M,M,M,M,M,M,M,M,M,M,M,M,59.00,LFLP 120730Z AUTO VRB02KT CAVOK 15/11 Q1031 NOSIG,M
LFLP,LFLP,2019-09-12 08:00,62.60,53.60,72.38,0.00,0.00,0.00,30.45,M,6.21,M,M,M,M,M,M,M,M,M,M,M,M,M,M,M,M,62.60,LFLP 120800Z AUTO 00000KT CAVOK 17/12 Q1031 NOSIG,M
LFLP,LFLP,2019-09-12 08:30,62.60,51.80,67.75,M,2.00,0.00,30.45,M,6.21,M,M,M,M,M,M,M,M,M,M,M,M,M,M,M,M,62.60,LFLP 120830Z AUTO VRB02KT CAVOK 17/11 Q1031 NOSIG,M
LFLP,LFLP,2019-09-12 09:00,66.20,53.60,63.82,M,2.00,0.00,30.47,M,6.21,M,M,M,M,M,M,M,M,M,M,M,M,M,M,M,M,66.20,LFLP 120900Z AUTO VRB02KT CAVOK 19/12 Q1032 NOSIG,M
LFLP,LFLP,2019-09-12 09:30,66.20,53.60,63.82,190.00,4.00,0.00,30.47,M,6.21,M,M,M,M,M,M,M,M,M,M,M,M,M,M,M,M,66.20,LFLP 120930Z AUTO 19004KT 140V230 CAVOK 19/12 Q1032 NOSIG,M
LFLP,LFLP,2019-09-12 10:00,69.80,55.40,60.21,M,3.00,0.00,30.47,M,6.21,M,M,M,M,M,M,M,M,M,M,M,M,M,M,M,M,69.80,LFLP 121000Z AUTO VRB03KT CAVOK 21/13 Q1032 NOSIG,M
LFLP,LFLP,2019-09-12 10:30,69.80,55.40,60.21,M,3.00,0.00,30.47,M,6.21,M,M,M,M,M,M,M,M,M,M,M,M,M,M,M,M,69.80,LFLP 121030Z AUTO VRB03KT CAVOK 21/13 Q1032 NOSIG,M
LFLP,LFLP,2019-09-12 11:00,71.60,53.60,53.03,200.00,5.00,0.00,30.45,M,6.21,M,M,M,M,M,M,M,M,M,M,M,M,M,M,M,M,71.60,LFLP 121100Z AUTO 20005KT 140V290 CAVOK 22/12 Q1031 NOSIG,M
LFLP,LFLP,2019-09-12 11:30,73.40,55.40,53.29,M,3.00,0.00,30.45,M,6.21,M,M,M,M,M,M,M,M,M,M,M,M,M,M,M,M,73.40,LFLP 121130Z AUTO VRB03KT CAVOK 23/13 Q1031 NOSIG,M
LFLP,LFLP,2019-09-12 12:00,75.20,55.40,50.17,M,3.00,0.00,30.45,M,6.21,M,M,M,M,M,M,M,M,M,M,M,M,M,M,M,M,75.20,LFLP 121200Z AUTO VRB03KT CAVOK 24/13 Q1031 NOSIG,M
LFLP,LFLP,2019-09-12 12:30,75.20,53.60,46.98,M,6.00,0.00,30.45,M,6.21,16.00,M,M,M,M,M,M,M,M,M,M,M,M,M,M,M,75.20,LFLP 121230Z AUTO VRB06G16KT CAVOK 24/12 Q1031 NOSIG,M
LFLP,LFLP,2019-09-12 13:00,77.00,53.60,44.25,260.00,5.00,0.00,30.45,M,6.21,M,M,M,M,M,M,M,M,M,M,M,M,M,M,M,M,77.00,LFLP 121300Z AUTO 26005KT 210V320 CAVOK 25/12 Q1031 NOSIG,M
LFLP,LFLP,2019-09-12 13:30,77.00,53.60,44.25,270.00,5.00,0.00,30.45,M,6.21,M,M,M,M,M,M,M,M,M,M,M,M,M,M,M,M,77.00,LFLP 121330Z AUTO 27005KT 220V310 CAVOK 25/12 Q1031 NOSIG,M
LFLP,LFLP,2019-09-12 14:00,78.80,53.60,41.69,250.00,6.00,0.00,30.42,M,6.21,M,M,M,M,M,M,M,M,M,M,M,M,M,M,M,M,78.80,LFLP 121400Z AUTO 25006KT 190V320 CAVOK 26/12 Q1030 NOSIG,M
LFLP,LFLP,2019-09-12 14:30,78.80,48.20,34.13,350.00,5.00,0.00,30.42,M,6.21,M,M,M,M,M,M,M,M,M,M,M,M,M,M,M,M,78.80,LFLP 121430Z AUTO 35005KT 290V040 CAVOK 26/09 Q1030 NOSIG,M
LFLP,LFLP,2019-09-12 15:00,78.80,51.80,39.02,310.00,8.00,0.00,30.42,M,6.21,M,M,M,M,M,M,M,M,M,M,M,M,M,M,M,M,78.80,LFLP 121500Z AUTO 31008KT 270V330 CAVOK 26/11 Q1030 NOSIG,M
LFLP,LFLP,2019-09-12 15:30,78.80,48.20,34.13,320.00,10.00,0.00,30.42,M,6.21,M,NSC,M,M,M,M,M,M,M,M,M,M,M,M,M,M,78.80,LFLP 121530Z AUTO 32010KT 9999 NSC 26/09 Q1030 NOSIG,M
LFLP,LFLP,2019-09-12 16:00,78.80,50.00,36.51,320.00,7.00,0.00,30.42,M,6.21,M,M,M,M,M,M,M,M,M,M,M,M,M,M,M,M,78.80,LFLP 121600Z AUTO 32007KT CAVOK 26/10 Q1030 NOSIG,M
LFLP,LFLP,2019-09-12 16:30,77.00,51.80,41.42,320.00,6.00,0.00,30.42,M,6.21,M,M,M,M,M,M,M,M,M,M,M,M,M,M,M,M,77.00,LFLP 121630Z AUTO 32006KT 290V360 CAVOK 25/11 Q1030 NOSIG,M
LFLP,LFLP,2019-09-12 17:00,75.20,51.80,43.97,320.00,5.00,0.00,30.42,M,6.21,M,M,M,M,M,M,M,M,M,M,M,M,M,M,M,M,75.20,LFLP 121700Z AUTO 32005KT CAVOK 24/11 Q1030 NOSIG,M
LFLP,LFLP,2019-09-12 17:30,73.40,53.60,49.90,320.00,5.00,0.00,30.42,M,6.21,M,M,M,M,M,M,M,M,M,M,M,M,M,M,M,M,73.40,LFLP 121730Z AUTO 32005KT 290V350 CAVOK 23/12 Q1030 NOSIG,M
LFLP,LFLP,2019-09-12 18:00,71.60,53.60,53.03,20.00,4.00,0.00,30.42,M,6.21,M,M,M,M,M,M,M,M,M,M,M,M,M,M,M,M,71.60,LFLP 121800Z AUTO 02004KT 320V050 CAVOK 22/12 Q1030 NOSIG,M
LFLP,LFLP,2019-09-12 18:30,69.80,53.60,56.38,M,2.00,0.00,30.45,M,6.21,M,M,M,M,M,M,M,M,M,M,M,M,M,M,M,M,69.80,LFLP 121830Z AUTO VRB02KT CAVOK 21/12 Q1031 NOSIG,M
LFLP,LFLP,2019-09-12 19:00,66.20,53.60,63.82,60.00,3.00,0.00,30.45,M,6.21,M,M,M,M,M,M,M,M,M,M,M,M,M,M,M,M,66.20,LFLP 121900Z AUTO 06003KT 020V090 CAVOK 19/12 Q1031 NOSIG,M
LFLP,LFLP,2019-09-12 19:30,64.40,55.40,72.56,M,3.00,0.00,30.45,M,6.21,M,M,M,M,M,M,M,M,M,M,M,M,M,M,M,M,64.40,LFLP 121930Z AUTO VRB03KT CAVOK 18/13 Q1031,M
LFLP,LFLP,2019-09-12 20:00,62.60,55.40,77.29,50.00,4.00,0.00,30.45,M,6.21,M,M,M,M,M,M,M,M,M,M,M,M,M,M,M,M,62.60,LFLP 122000Z AUTO 05004KT CAVOK 17/13 Q1031,M
LFLP,LFLP,2019-09-12 20:30,60.80,53.60,77.14,20.00,4.00,0.00,30.45,M,6.21,M,M,M,M,M,M,M,M,M,M,M,M,M,M,M,M,60.80,LFLP 122030Z AUTO 02004KT CAVOK 16/12 Q1031,M
LFLP,LFLP,2019-09-12 21:00,60.80,53.60,77.14,30.00,3.00,0.00,30.47,M,6.21,M,M,M,M,M,M,M,M,M,M,M,M,M,M,M,M,60.80,LFLP 122100Z AUTO 03003KT CAVOK 16/12 Q1032,M
LFLP,LFLP,2019-09-12 21:30,59.00,53.60,82.25,60.00,3.00,0.00,30.47,M,6.21,M,M,M,M,M,M,M,M,M,M,M,M,M,M,M,M,59.00,LFLP 122130Z AUTO 06003KT CAVOK 15/12 Q1032,M
LFLP,LFLP,2019-09-12 22:00,59.00,53.60,82.25,50.00,5.00,0.00,30.47,M,6.21,M,M,M,M,M,M,M,M,M,M,M,M,M,M,M,M,59.00,LFLP 122200Z AUTO 05005KT CAVOK 15/12 Q1032,M
LFLP,LFLP,2019-09-12 22:30,57.20,51.80,82.12,360.00,2.00,0.00,30.47,M,6.21,M,M,M,M,M,M,M,M,M,M,M,M,M,M,M,M,57.20,LFLP 122230Z AUTO 36002KT CAVOK 14/11 Q1032,M
LFLP,LFLP,2019-09-12 23:00,57.20,53.60,87.74,50.00,5.00,0.00,30.45,M,6.21,M,M,M,M,M,M,M,M,M,M,M,M,M,M,M,M,57.20,LFLP 122300Z AUTO 05005KT CAVOK 14/12 Q1031,M
LFLP,LFLP,2019-09-12 23:30,57.20,53.60,87.74,50.00,5.00,0.00,30.47,M,6.21,M,M,M,M,M,M,M,M,M,M,M,M,M,M,M,M,57.20,LFLP 122330Z AUTO 05005KT CAVOK 14/12 Q1032,M
LFMC,LFMC,2019-09-12 00:00,60.80,57.20,87.92,M,1.00,0.00,30.21,M,6.21,M,M,M,M,M,M,M,M,M,,M,M,M,M,M,M,60.80,LFMC 120000Z AUTO VRB01KT 9999 ////// 16/14 Q1023,M
LFMC,LFMC,2019-09-12 00:30,60.80,57.20,87.92,0.00,0.00,0.00,30.21,M,6.21,M,M,M,M,M,M,M,M,M,,M,M,M,M,M,M,60.80,LFMC 120030Z AUTO 00000KT 9999 ////// 16/14 Q1023,M
LFMC,LFMC,2019-09-12 01:00,59.00,55.40,87.83,190.00,4.00,0.00,30.21,M,6.21,M,M,M,M,M,M,M,M,M,,M,M,M,M,M,M,59.00,LFMC 120100Z AUTO 19004KT 170V230 9999 ////// 15/13 Q1023,M
LFMC,LFMC,2019-09-12 01:30,59.00,57.20,93.74,0.00,0.00,0.00,30.21,M,6.21,M,M,M,M,M,M,M,M,M,,M,M,M,M,M,M,59.00,LFMC 120130Z AUTO 00000KT 9999 ////// 15/14 Q1023,M
LFMC,LFMC,2019-09-12 02:00,59.00,57.20,93.74,M,3.00,0.00,30.24,M,6.21,M,M,M,M,M,M,M,M,M,,M,M,M,M,M,M,59.00,LFMC 120200Z AUTO VRB03KT 9999 ////// 15/14 Q1024,M
LFMC,LFMC,2019-09-12 02:30,59.00,57.20,93.74,0.00,0.00,0.00,30.24,M,6.21,M,M,M,M,M,M,M,M,M,,M,M,M,M,M,M,59.00,LFMC 120230Z AUTO 00000KT 9999 ////// 15/14 Q1024,M
LFMC,LFMC,2019-09-12 03:00,57.20,55.40,93.69,M,2.00,0.00,30.24,M,6.21,M,M,M,M,M,M,M,M,M,,M,M,M,M,M,M,57.20,LFMC 120300Z AUTO VRB02KT 9999 ////// 14/13 Q1024,M
LFMC,LFMC,2019-09-12 03:30,57.20,57.20,100.00,M,2.00,0.00,30.24,M,6.21,M,M,M,M,M,M,M,M,M,,M,M,M,M,M,M,57.20,LFMC 120330Z AUTO VRB02KT 9999 ////// 14/14 Q1024,M
LFMC,LFMC,2019-09-12 04:00,57.20,55.40,93.69,310.00,3.00,0.00,30.27,M,6.21,M,M,M,M,M,M,M,M,M,,M,M,M,M,M,M,57.20,LFMC 120400Z AUTO 31003KT 9999 ////// 14/13 Q1025,M
LFMC,LFMC,2019-09-12 04:30,57.20,55.40,93.69,M,2.00,0.00,30.27,M,6.21,M,M,M,M,M,M,M,M,M,,M,M,M,M,M,M,57.20,LFMC 120430Z AUTO VRB02KT 9999 ////// 14/13 Q1025,M
LFMC,LFMC,2019-09-12 05:00,57.20,55.40,93.69,0.00,0.00,0.00,30.27,M,6.21,M,M,M,M,M,M,M,M,M,,M,M,M,M,M,M,57.20,LFMC 120500Z AUTO 00000KT 9999 ////// 14/13 Q1025,M
LFMC,LFMC,2019-09-12 05:30,57.20,55.40,93.69,0.00,0.00,0.00,30.30,M,6.21,M,M,M,M,M,M,M,M,M,,M,M,M,M,M,M,57.20,LFMC 120530Z AUTO 00000KT 9999 ////// 14/13 Q1026,M
LFMC,LFMC,2019-09-12 06:00,59.00,57.20,93.74,0.00,0.00,0.00,30.30,M,6.21,M,M,M,M,M,M,M,M,M,,M,M,M,M,M,M,59.00,LFMC 120600Z AUTO 00000KT 9999 ////// 15/14 Q1026,M
LFMC,LFMC,2019-09-12 06:30,60.80,57.20,87.92,0.00,0.00,0.00,30.30,M,6.21,M,M,M,M,M,M,M,M,M,,M,M,M,M,M,M,60.80,LFMC 120630Z AUTO 00000KT 9999 ////// 16/14 Q1026,M
LFMC,LFMC,2019-09-12 07:00,62.60,57.20,82.50,M,1.00,0.00,30.33,M,6.21,M,M,M,M,M,M,M,M,M,,M,M,M,M,M,M,62.60,LFMC 120700Z AUTO VRB01KT 9999 ////// 17/14 Q1027,M
LFMC,LFMC,2019-09-12 07:30,66.20,57.20,72.74,M,2.00,0.00,30.33,M,6.21,M,M,M,M,M,M,M,M,M,,M,M,M,M,M,M,66.20,LFMC 120730Z AUTO VRB02KT 9999 ////// 19/14 Q1027,M
LFMC,LFMC,2019-09-12 08:00,68.00,57.20,68.35,M,1.00,0.00,30.36,M,6.21,M,M,M,M,M,M,M,M,M,,M,M,M,M,M,M,68.00,LFMC 120800Z AUTO VRB01KT 9999 ////// 20/14 Q1028,M
LFMC,LFMC,2019-09-12 08:30,71.60,59.00,64.48,0.00,0.00,0.00,30.36,M,6.21,M,M,M,M,M,M,M,M,M,,M,M,M,M,M,M,71.60,LFMC 120830Z AUTO 00000KT 9999 ////// 22/15 Q1028,M
LFMC,LFMC,2019-09-12 09:00,75.20,59.00,57.12,M,2.00,0.00,30.36,M,6.21,M,M,M,M,M,M,M,M,M,,M,M,M,M,M,M,75.20,LFMC 120900Z AUTO VRB02KT 9999 ////// 24/15 Q1028,M
LFMC,LFMC,2019-09-12 09:30,78.80,59.00,50.69,M,2.00,0.00,30.36,M,6.21,M,M,M,M,M,M,M,M,M,,M,M,M,M,M,M,78.80,LFMC 120930Z AUTO VRB02KT 9999 ////// 26/15 Q1028,M
LFMC,LFMC,2019-09-12 10:00,82.40,57.20,42.25,M,3.00,0.00,30.36,M,6.21,M,M,M,M,M,M,M,M,M,,M,M,M,M,M,M,82.08,LFMC 121000Z AUTO VRB03KT 9999 ////// 28/14 Q1028,M
LFMC,LFMC,2019-09-12 10:30,84.20,55.40,37.35,M,2.00,0.00,30.36,M,6.21,M,M,M,M,M,M,M,M,M,,M,M,M,M,M,M,83.08,LFMC 121030Z AUTO VRB02KT 9999 ////// 29/13 Q1028,M
LFMC,LFMC,2019-09-12 11:00,84.20,55.40,37.35,M,2.00,0.00,30.36,M,6.21,M,M,M,M,M,M,M,M,M,,M,M,M,M,M,M,83.08,LFMC 121100Z AUTO VRB02KT 9999 ////// 29/13 Q1028,M
LFMC,LFMC,2019-09-12 11:30,86.00,55.40,35.25,M,2.00,0.00,30.33,M,6.21,M,M,M,M,M,M,M,M,M,,M,M,M,M,M,M,84.54,LFMC 121130Z AUTO VRB02KT 9999 ////// 30/13 Q1027,M
LFMC,LFMC,2019-09-12 12:00,86.00,51.80,30.90,120.00,7.00,0.00,30.33,M,6.21,M,M,M,M,M,M,M,M,M,,M,M,M,M,M,M,83.87,LFMC 121200Z AUTO 12007KT 080V160 9999 ////// 30/11 Q1027,M
LFMC,LFMC,2019-09-12 12:30,86.00,53.60,33.01,130.00,6.00,0.00,30.33,M,6.21,M,M,M,M,M,M,M,M,M,,M,M,M,M,M,M,84.18,LFMC 121230Z AUTO 13006KT 070V180 9999 ////// 30/12 Q1027,M
LFMC,LFMC,2019-09-12 13:00,87.80,51.80,29.18,110.00,6.00,0.00,30.33,M,6.21,M,M,M,M,M,M,M,M,M,,M,M,M,M,M,M,85.39,LFMC 121300Z AUTO 11006KT 080V180 9999 ////// 31/11 Q1027,M
LFMC,LFMC,2019-09-12 13:30,87.80,50.00,27.29,160.00,6.00,0.00,30.33,M,6.21,M,M,M,M,M,M,M,M,M,,M,M,M,M,M,M,85.11,LFMC 121330Z AUTO 16006KT 100V230 9999 ////// 31/10 Q1027,M
LFMC,LFMC,2019-09-12 14:00,87.80,48.20,25.52,130.00,6.00,0.00,30.33,M,6.21,M,M,M,M,M,M,M,M,M,,M,M,M,M,M,M,84.87,LFMC 121400Z AUTO 13006KT 090V170 9999 ////// 31/09 Q1027,M
LFMC,LFMC,2019-09-12 14:30,87.80,50.00,27.29,M,5.00,0.00,30.30,M,6.21,M,M,M,M,M,M,M,M,M,,M,M,M,M,M,M,85.11,LFMC 121430Z AUTO VRB05KT 9999 ////// 31/10 Q1026,M
LFMC,LFMC,2019-09-12 15:00,87.80,50.00,27.29,130.00,5.00,0.00,30.30,M,6.21,M,M,M,M,M,M,M,M,M,,M,M,M,M,M,M,85.11,LFMC 121500Z AUTO 13005KT 080V180 9999 ////// 31/10 Q1026,M
LFMC,LFMC,2019-09-12 15:30,87.80,50.00,27.29,0.00,0.00,0.00,30.30,M,6.21,M,M,M,M,M,M,M,M,M,,M,M,M,M,M,M,85.11,LFMC 121530Z AUTO 00000KT 9999 ////// 31/10 Q1026,M
LFMC,LFMC,2019-09-12 16:00,87.80,50.00,27.29,110.00,5.00,0.00,30.30,M,6.21,M,M,M,M,M,M,M,M,M,,M,M,M,M,M,M,85.11,LFMC 121600Z AUTO 11005KT 070V140 9999 ////// 31/10 Q1026,M
LFMC,LFMC,2019-09-12 16:30,86.00,51.80,30.90,140.00,7.00,0.00,30.30,M,6.21,M,M,M,M,M,M,M,M,M,,M,M,M,M,M,M,83.87,LFMC 121630Z AUTO 14007KT 9999 ////// 30/11 Q1026,M
LFMC,LFMC,2019-09-12 17:00,84.20,53.60,34.97,120.00,7.00,0.00,30.30,M,6.21,M,M,M,M,M,M,M,M,M,,M,M,M,M,M,M,82.76,LFMC 121700Z AUTO 12007KT 9999 ////// 29/12 Q1026,M
LFMC,LFMC,2019-09-12 17:30,80.60,55.40,41.97,140.00,4.00,0.00,30.33,M,6.21,M,M,M,M,M,M,M,M,M,,M,M,M,M,M,M,80.53,LFMC 121730Z AUTO 14004KT 110V180 9999 ////// 27/13 Q1027,M
LFMC,LFMC,2019-09-12 18:00,77.00,57.20,50.43,80.00,4.00,0.00,30.33,M,6.21,M,M,M,M,M,M,M,M,M,,M,M,M,M,M,M,77.00,LFMC 121800Z AUTO 08004KT 9999 ////// 25/14 Q1027,M
LFMC,LFMC,2019-09-12 18:30,75.20,59.00,57.12,80.00,4.00,0.00,30.33,M,6.21,M,M,M,M,M,M,M,M,M,,M,M,M,M,M,M,75.20,LFMC 121830Z AUTO 08004KT 060V140 9999 ////// 24/15 Q1027,M
LFMC,LFMC,2019-09-12 19:00,73.40,57.20,56.88,M,2.00,0.00,30.36,M,6.21,M,M,M,M,M,M,M,M,M,,M,M,M,M,M,M,73.40,LFMC 121900Z AUTO VRB02KT 9999 ////// 23/14 Q1028,M
LFMC,LFMC,2019-09-12 19:30,71.60,57.20,60.44,M,2.00,0.00,30.36,M,6.21,M,M,M,M,M,M,M,M,M,,M,M,M,M,M,M,71.60,LFMC 121930Z AUTO VRB02KT 9999 ////// 22/14 Q1028,M
LFMC,LFMC,2019-09-12 20:00,69.80,59.00,68.55,160.00,3.00,0.00,30.36,M,6.21,M,M,M,M,M,M,M,M,M,,M,M,M,M,M,M,69.80,LFMC 122000Z AUTO 16003KT 100V250 9999 ////// 21/15 Q1028,M
LFMC,LFMC,2019-09-12 20:30,69.80,59.00,68.55,M,2.00,0.00,30.36,M,6.21,M,M,M,M,M,M,M,M,M,,M,M,M,M,M,M,69.80,LFMC 122030Z AUTO VRB02KT 9999 ////// 21/15 Q1028,M
LFMC,LFMC,2019-09-12 21:00,68.00,59.00,72.92,0.00,0.00,0.00,30.36,M,6.21,M,M,M,M,M,M,M,M,M,,M,M,M,M,M,M,68.00,LFMC 122100Z AUTO 00000KT 9999 ////// 20/15 Q1028,M
LFMC,LFMC,2019-09-12 21:30,66.20,59.00,77.60,0.00,0.00,0.00,30.36,M,6.21,M,M,M,M,M,M,M,M,M,,M,M,M,M,M,M,66.20,LFMC 122130Z AUTO 00000KT 9999 ////// 19/15 Q1028,M
LFMC,LFMC,2019-09-12 22:00,66.20,59.00,77.60,0.00,0.00,0.00,30.36,M,6.21,M,M,M,M,M,M,M,M,M,,M,M,M,M,M,M,66.20,LFMC 122200Z AUTO 00000KT 9999 ////// 19/15 Q1028,M
LFMC,LFMC,2019-09-12 22:30,64.40,57.20,77.45,M,1.00,0.00,30.36,M,6.21,M,M,M,M,M,M,M,M,M,,M,M,M,M,M,M,64.40,LFMC 122230Z AUTO VRB01KT 9999 ////// 18/14 Q1028,M
LFMC,LFMC,2019-09-12 23:00,62.60,57.20,82.50,0.00,0.00,0.00,30.36,M,6.21,M,M,M,M,M,M,M,M,M,,M,M,M,M,M,M,62.60,LFMC 122300Z AUTO 00000KT 9999 ////// 17/14 Q1028,M
LFMC,LFMC,2019-09-12 23:30,62.60,57.20,82.50,0.00,0.00,0.00,30.36,M,6.21,M,M,M,M,M,M,M,M,M,,M,M,M,M,M,M,62.60,LFMC 122330Z AUTO 00000KT 9999 ////// 17/14 Q1028,M
LFMD,LFMD,2019-09-12 00:00,62.60,59.00,88.00,10.00,5.00,0.00,30.21,M,6.21,M,M,M,M,M,M,M,M,M,M,M,M,M,M,M,M,62.60,LFMD 120000Z AUTO 01005KT 330V050 CAVOK 17/15 Q1023,M
LFMD,LFMD,2019-09-12 00:30,62.60,59.00,88.00,340.00,3.00,0.00,30.21,M,6.21,M,M,M,M,M,M,M,M,M,M,M,M,M,M,M,M,62.60,LFMD 120030Z AUTO 34003KT 290V030 CAVOK 17/15 Q1023,M
LFMD,LFMD,2019-09-12 01:00,60.80,57.20,87.92,M,2.00,0.00,30.21,M,6.21,M,M,M,M,M,M,M,M,M,M,M,M,M,M,M,M,60.80,LFMD 120100Z AUTO VRB02KT CAVOK 16/14 Q1023,M
LFMD,LFMD,2019-09-12 01:30,62.60,57.20,82.50,10.00,3.00,0.00,30.21,M,6.21,M,M,M,M,M,M,M,M,M,M,M,M,M,M,M,M,62.60,LFMD 120130Z AUTO 01003KT 320V080 CAVOK 17/14 Q1023,M
LFMD,LFMD,2019-09-12 02:00,60.80,57.20,87.92,360.00,4.00,0.00,30.21,M,6.21,M,M,M,M,M,M,M,M,M,M,M,M,M,M,M,M,60.80,LFMD 120200Z AUTO 36004KT 330V030 CAVOK 16/14 Q1023,M
LFMD,LFMD,2019-09-12 02:30,60.80,57.20,87.92,M,2.00,0.00,30.21,M,6.21,M,M,M,M,M,M,M,M,M,M,M,M,M,M,M,M,60.80,LFMD 120230Z AUTO VRB02KT CAVOK 16/14 Q1023 NOSIG,M
LFMD,LFMD,2019-09-12 03:00,60.80,57.20,87.92,360.00,4.00,0.00,30.21,M,6.21,M,M,M,M,M,M,M,M,M,M,M,M,M,M,M,M,60.80,LFMD 120300Z AUTO 36004KT 320V030 CAVOK 16/14 Q1023 NOSIG,M
LFMD,LFMD,2019-09-12 03:30,60.80,57.20,87.92,10.00,6.00,0.00,30.24,M,6.21,M,M,M,M,M,M,M,M,M,M,M,M,M,M,M,M,60.80,LFMD 120330Z AUTO 01006KT 340V040 CAVOK 16/14 Q1024 NOSIG,M
LFMD,LFMD,2019-09-12 04:00,60.80,57.20,87.92,10.00,7.00,0.00,30.24,M,6.21,M,M,M,M,M,M,M,M,M,M,M,M,M,M,M,M,60.80,LFMD 120400Z AUTO 01007KT 330V030 CAVOK 16/14 Q1024 NOSIG,M
LFMD,LFMD,2019-09-12 04:30,60.80,57.20,87.92,M,2.00,0.00,30.27,M,6.21,M,M,M,M,M,M,M,M,M,M,M,M,M,M,M,M,60.80,LFMD 120430Z AUTO VRB02KT CAVOK 16/14 Q1025 NOSIG,M
LFMD,LFMD,2019-09-12 05:00,60.80,57.20,87.92,10.00,5.00,0.00,30.27,M,6.21,M,M,M,M,M,M,M,M,M,M,M,M,M,M,M,M,60.80,LFMD 120500Z AUTO 01005KT 340V060 CAVOK 16/14 Q1025 NOSIG,M
LFMD,LFMD,2019-09-12 05:30,60.80,57.20,87.92,10.00,4.00,0.00,30.27,M,6.21,M,M,M,M,M,M,M,M,M,M,M,M,M,M,M,M,60.80,LFMD 120530Z AUTO 01004KT 340V040 CAVOK 16/14 Q1025 NOSIG,M
LFMD,LFMD,2019-09-12 06:00,62.60,57.20,82.50,350.00,4.00,0.00,30.27,M,6.21,M,M,M,M,M,M,M,M,M,M,M,M,M,M,M,M,62.60,LFMD 120600Z AUTO 35004KT 300V030 CAVOK 17/14 Q1025 NOSIG,M
LFMD,LFMD,2019-09-12 06:30,64.40,57.20,77.45,360.00,4.00,0.00,30.27,M,6.21,M,M,M,M,M,M,M,M,M,M,M,M,M,M,M,M,64.40,LFMD 120630Z AUTO 36004KT 300V050 CAVOK 18/14 Q1025 NOSIG,M
LFMD,LFMD,2019-09-12 07:00,68.00,59.00,72.92,350.00,3.00,0.00,30.30,M,6.21,M,M,M,M,M,M,M,M,M,M,M,M,M,M,M,M,68.00,LFMD 120700Z AUTO 35003KT 300V040 CAVOK 20/15 Q1026 NOSIG,M
LFMD,LFMD,2019-09-12 07:30,71.60,59.00,64.48,360.00,4.00,0.00,30.30,M,6.21,M,M,M,M,M,M,M,M,M,M,M,M,M,M,M,M,71.60,LFMD 120730Z AUTO 36004KT 330V060 CAVOK 22/15 Q1026 BECMG 17010KT,M
LFMD,LFMD,2019-09-12 08:00,75.20,60.80,60.90,0.00,0.00,0.00,30.33,M,6.21,M,M,M,M,M,M,M,M,M,M,M,M,M,M,M,M,75.20,LFMD 120800Z AUTO 00000KT CAVOK 24/16 Q1027 BECMG 17010KT,M
LFMD,LFMD,2019-09-12 08:30,78.80,59.00,50.69,0.00,0.00,0.00,30.33,M,6.21,M,M,M,M,M,M,M,M,M,M,M,M,M,M,M,M,78.80,LFMD 120830Z AUTO 00000KT CAVOK 26/15 Q1027 BECMG 16010KT,M
LFMD,LFMD,2019-09-12 09:00,82.40,55.40,39.58,M,1.00,0.00,30.33,M,6.21,M,M,M,M,M,M,M,M,M,M,M,M,M,M,M,M,81.75,LFMD 120900Z AUTO VRB01KT CAVOK 28/13 Q1027 NOSIG,M
LFMD,LFMD,2019-09-12 09:30,82.40,55.40,39.58,200.00,3.00,0.00,30.33,M,6.21,M,M,M,M,M,M,M,M,M,M,M,M,M,M,M,M,81.75,LFMD 120930Z AUTO 20003KT 160V240 CAVOK 28/13 Q1027 NOSIG,M
LFMD,LFMD,2019-09-12 10:00,82.40,53.60,37.07,190.00,5.00,0.00,30.33,M,6.21,M,M,M,M,M,M,M,M,M,M,M,M,M,M,M,M,81.46,LFMD 121000Z AUTO 19005KT 140V220 CAVOK 28/12 Q1027 NOSIG,M
LFMD,LFMD,2019-09-12 10:30,84.20,55.40,37.35,180.00,5.00,0.00,30.33,M,6.21,M,M,M,M,M,M,M,M,M,M,M,M,M,M,M,M,83.08,LFMD 121030Z AUTO 18005KT CAVOK 29/13 Q1027 NOSIG,M
LFMD,LFMD,2019-09-12 11:00,82.40,55.40,39.58,160.00,6.00,0.00,30.33,M,6.21,M,M,M,M,M,M,M,M,M,M,M,M,M,M,M,M,81.75,LFMD 121100Z AUTO 16006KT 120V190 CAVOK 28/13 Q1027 NOSIG,M
LFMD,LFMD,2019-09-12 11:30,82.40,55.40,39.58,170.00,9.00,0.00,30.33,M,6.21,M,M,M,M,M,M,M,M,M,M,M,M,M,M,M,M,81.75,LFMD 121130Z AUTO 17009KT CAVOK 28/13 Q1027 NOSIG,M
LFMD,LFMD,2019-09-12 12:00,82.40,57.20,42.25,180.00,9.00,0.00,30.33,M,6.21,M,M,M,M,M,M,M,M,M,M,M,M,M,M,M,M,82.08,LFMD 121200Z AUTO 18009KT CAVOK 28/14 Q1027 NOSIG,M
LFMD,LFMD,2019-09-12 12:30,82.40,57.20,42.25,180.00,10.00,0.00,30.33,M,6.21,M,M,M,M,M,M,M,M,M,M,M,M,M,M,M,M,82.08,LFMD 121230Z AUTO 18010KT CAVOK 28/14 Q1027 NOSIG,M
LFMD,LFMD,2019-09-12 13:00,82.40,59.00,45.07,170.00,8.00,0.00,30.33,M,6.21,M,M,M,M,M,M,M,M,M,M,M,M,M,M,M,M,82.46,LFMD 121300Z AUTO 17008KT CAVOK 28/15 Q1027 NOSIG,M
LFMD,LFMD,2019-09-12 13:30,80.60,60.80,50.95,160.00,8.00,0.00,30.33,M,6.21,M,M,M,M,M,M,M,M,M,M,M,M,M,M,M,M,81.46,LFMD 121330Z AUTO 16008KT 130V190 CAVOK 27/16 Q1027 NOSIG,M
LFMD,LFMD,2019-09-12 14:00,80.60,60.80,50.95,170.00,8.00,0.00,30.33,M,6.21,M,M,M,M,M,M,M,M,M,M,M,M,M,M,M,M,81.46,LFMD 121400Z AUTO 17008KT CAVOK 27/16 Q1027 NOSIG,M
LFMD,LFMD,2019-09-12 14:30,80.60,64.40,57.84,170.00,7.00,0.00,30.33,M,6.21,M,M,M,M,M,M,M,M,M,M,M,M,M,M,M,M,82.27,LFMD 121430Z AUTO 17007KT 130V210 CAVOK 27/18 Q1027 NOSIG,M
LFMD,LFMD,2019-09-12 15:00,80.60,62.60,54.30,180.00,5.00,0.00,30.33,M,6.21,M,M,M,M,M,M,M,M,M,M,M,M,M,M,M,M,81.84,LFMD 121500Z AUTO 18005KT 130V230 CAVOK 27/17 Q1027 NOSIG,M
LFMD,LFMD,2019-09-12 15:30,80.60,60.80,50.95,M,3.00,0.00,30.30,M,6.21,M,M,M,M,M,M,M,M,M,M,M,M,M,M,M,M,81.46,LFMD 121530Z AUTO VRB03KT CAVOK 27/16 Q1026 NOSIG,M
LFMD,LFMD,2019-09-12 16:00,80.60,60.80,50.95,M,3.00,0.00,30.30,M,6.21,M,M,M,M,M,M,M,M,M,M,M,M,M,M,M,M,81.46,LFMD 121600Z AUTO VRB03KT CAVOK 27/16 Q1026 NOSIG,M
LFMD,LFMD,2019-09-12 16:30,78.80,60.80,54.05,190.00,3.00,0.00,30.30,M,6.21,M,M,M,M,M,M,M,M,M,M,M,M,M,M,M,M,78.80,LFMD 121630Z AUTO 19003KT 150V230 CAVOK 26/16 Q1026 NOSIG,M
LFMD,LFMD,2019-09-12 17:00,78.80,59.00,50.69,190.00,3.00,0.00,30.30,M,6.21,M,M,M,M,M,M,M,M,M,M,M,M,M,M,M,M,78.80,LFMD 121700Z AUTO 19003KT 140V230 CAVOK 26/15 Q1026 NOSIG,M
LFMD,LFMD,2019-09-12 17:30,75.20,59.00,57.12,200.00,3.00,0.00,30.33,M,6.21,M,M,M,M,M,M,M,M,M,M,M,M,M,M,M,M,75.20,LFMD 121730Z AUTO 20003KT CAVOK 24/15 Q1027 NOSIG,M
LFMD,LFMD,2019-09-12 18:00,73.40,59.00,60.67,260.00,2.00,0.00,30.33,M,6.21,M,M,M,M,M,M,M,M,M,M,M,M,M,M,M,M,73.40,LFMD 121800Z AUTO 26002KT CAVOK 23/15 Q1027 TEMPO 16010KT,M
LFMD,LFMD,2019-09-12 18:30,71.60,59.00,64.48,360.00,3.00,0.00,30.33,M,6.21,M,M,M,M,M,M,M,M,M,M,M,M,M,M,M,M,71.60,LFMD 121830Z AUTO 36003KT CAVOK 22/15 Q1027 NOSIG,M
LFMD,LFMD,2019-09-12 19:00,69.80,59.00,68.55,M,2.00,0.00,30.33,M,6.21,M,M,M,M,M,M,M,M,M,M,M,M,M,M,M,M,69.80,LFMD 121900Z AUTO VRB02KT CAVOK 21/15 Q1027 NOSIG,M
LFMD,LFMD,2019-09-12 19:30,69.80,59.00,68.55,M,2.00,0.00,30.33,M,6.21,M,M,M,M,M,M,M,M,M,M,M,M,M,M,M,M,69.80,LFMD 121930Z AUTO VRB02KT CAVOK 21/15 Q1027 NOSIG,M
LFMD,LFMD,2019-09-12 20:00,68.00,59.00,72.92,M,2.00,0.00,30.33,M,6.21,M,M,M,M,M,M,M,M,M,M,M,M,M,M,M,M,68.00,LFMD 122000Z AUTO VRB02KT CAVOK 20/15 Q1027 NOSIG,M
LFMD,LFMD,2019-09-12 20:30,68.00,59.00,72.92,M,3.00,0.00,30.33,M,6.21,M,M,M,M,M,M,M,M,M,M,M,M,M,M,M,M,68.00,LFMD 122030Z AUTO VRB03KT CAVOK 20/15 Q1027 NOSIG,M
LFMD,LFMD,2019-09-12 21:00,66.20,59.00,77.60,360.00,4.00,0.00,30.33,M,6.21,M,M,M,M,M,M,M,M,M,M,M,M,M,M,M,M,66.20,LFMD 122100Z AUTO 36004KT CAVOK 19/15 Q1027 NOSIG,M
LFMD,LFMD,2019-09-12 21:30,66.20,59.00,77.60,340.00,3.00,0.00,30.33,M,6.21,M,M,M,M,M,M,M,M,M,M,M,M,M,M,M,M,66.20,LFMD 122130Z AUTO 34003KT 290V030 CAVOK 19/15 Q1027,M
LFMD,LFMD,2019-09-12 22:00,66.20,59.00,77.60,360.00,3.00,0.00,30.33,M,6.21,M,M,M,M,M,M,M,M,M,M,M,M,M,M,M,M,66.20,LFMD 122200Z AUTO 36003KT 320V040 CAVOK 19/15 Q1027,M
LFMD,LFMD,2019-09-12 22:30,66.20,59.00,77.60,360.00,4.00,0.00,30.33,M,6.21,M,M,M,M,M,M,M,M,M,M,M,M,M,M,M,M,66.20,LFMD 122230Z AUTO 36004KT 330V030 CAVOK 19/15 Q1027,M
LFMD,LFMD,2019-09-12 23:00,66.20,59.00,77.60,360.00,3.00,0.00,30.33,M,6.21,M,M,M,M,M,M,M,M,M,M,M,M,M,M,M,M,66.20,LFMD 122300Z AUTO 36003KT 320V030 CAVOK 19/15 Q1027,M
LFMD,LFMD,2019-09-12 23:30,66.20,59.00,77.60,360.00,3.00,0.00,30.36,M,6.21,M,M,M,M,M,M,M,M,M,M,M,M,M,M,M,M,66.20,LFMD 122330Z AUTO 36003KT 320V040 CAVOK 19/15 Q1028,M
LFMH,LFMH,2019-09-12 00:00,48.20,44.60,87.28,50.00,1.00,0.00,30.42,M,6.21,M,M,M,M,M,M,M,M,M,M,M,M,M,M,M,M,48.20,LFMH 120000Z AUTO 05001KT CAVOK 09/07 Q1030,M
LFMH,LFMH,2019-09-12 00:30,46.40,44.60,93.40,M,2.00,0.00,30.42,M,6.21,M,M,M,M,M,M,M,M,M,M,M,M,M,M,M,M,46.40,LFMH 120030Z AUTO VRB02KT CAVOK 08/07 Q1030,M
LFMH,LFMH,2019-09-12 01:00,46.40,42.80,87.19,170.00,2.00,0.00,30.42,M,6.21,M,M,M,M,M,M,M,M,M,M,M,M,M,M,M,M,46.40,LFMH 120100Z AUTO 17002KT CAVOK 08/06 Q1030,M
LFMH,LFMH,2019-09-12 01:30,44.60,42.80,93.35,170.00,3.00,0.00,30.42,M,6.21,M,M,M,M,M,M,M,M,M,M,M,M,M,M,M,M,43.09,LFMH 120130Z AUTO 17003KT CAVOK 07/06 Q1030,M
LFMH,LFMH,2019-09-12 02:00,44.60,41.00,87.09,180.00,3.00,0.00,30.42,M,6.21,M,M,M,M,M,M,M,M,M,M,M,M,M,M,M,M,43.09,LFMH 120200Z AUTO 18003KT CAVOK 07/05 Q1030,M
LFMH,LFMH,2019-09-12 02:30,44.60,42.80,93.35,M,2.00,0.00,30.42,M,6.21,M,M,M,M,M,M,M,M,M,M,M,M,M,M,M,M,44.60,LFMH 120230Z AUTO VRB02KT CAVOK 07/06 Q1030 NOSIG,M
LFMH,LFMH,2019-09-12 03:00,46.40,44.60,93.40,40.00,2.00,0.00,30.42,M,6.21,M,M,M,M,M,M,M,M,M,M,M,M,M,M,M,M,46.40,LFMH 120300Z AUTO 04002KT CAVOK 08/07 Q1030 NOSIG,M
LFMH,LFMH,2019-09-12 03:30,44.60,42.80,93.35,M,2.00,0.00,30.42,M,6.21,M,M,M,M,M,M,M,M,M,M,M,M,M,M,M,M,44.60,LFMH 120330Z AUTO VRB02KT CAVOK 07/06 Q1030 NOSIG,M
LFMH,LFMH,2019-09-12 04:00,44.60,42.80,93.35,310.00,2.00,0.00,30.42,M,6.21,M,M,M,M,M,M,M,M,M,M,M,M,M,M,M,M,44.60,LFMH 120400Z AUTO 31002KT CAVOK 07/06 Q1030 NOSIG,M
LFMH,LFMH,2019-09-12 04:30,44.60,41.00,87.09,0.00,0.00,0.00,30.45,M,6.21,M,M,M,M,M,M,M,M,M,M,M,M,M,M,M,M,44.60,LFMH 120430Z AUTO 00000KT CAVOK 07/05 Q1031 NOSIG,M
LFMH,LFMH,2019-09-12 05:00,44.60,42.80,93.35,180.00,2.00,0.00,30.45,M,6.21,M,M,M,M,M,M,M,M,M,M,M,M,M,M,M,M,44.60,LFMH 120500Z AUTO 18002KT CAVOK 07/06 Q1031 NOSIG,M
LFMH,LFMH,2019-09-12 05:30,42.80,41.00,93.30,M,1.00,0.00,30.45,M,6.21,M,M,M,M,M,M,M,M,M,M,M,M,M,M,M,M,42.80,LFMH 120530Z AUTO VRB01KT CAVOK 06/05 Q1031 NOSIG,M
LFMH,LFMH,2019-09-12 06:00,46.40,44.60,93.40,190.00,3.00,0.00,30.45,M,6.21,M,M,M,M,M,M,M,M,M,M,M,M,M,M,M,M,45.15,LFMH 120600Z AUTO 19003KT CAVOK 08/07 Q1031 NOSIG,M
LFMH,LFMH,2019-09-12 06:30,50.00,46.40,87.37,50.00,1.00,0.00,30.45,M,6.21,M,M,M,M,M,M,M,M,M,M,M,M,M,M,M,M,50.00,LFMH 120630Z AUTO 05001KT CAVOK 10/08 Q1031 NOSIG,M
LFMH,LFMH,2019-09-12 07:00,53.60,46.40,76.50,M,1.00,0.00,30.45,M,6.21,M,M,M,M,M,M,M,M,M,M,M,M,M,M,M,M,53.60,LFMH 120700Z AUTO VRB01KT CAVOK 12/08 Q1031 NOSIG,M
LFMH,LFMH,2019-09-12 07:30,57.20,46.40,67.12,M,2.00,0.00,30.47,M,6.21,M,M,M,M,M,M,M,M,M,M,M,M,M,M,M,M,57.20,LFMH 120730Z AUTO VRB02KT CAVOK 14/08 Q1032 NOSIG,M
LFMH,LFMH,2019-09-12 08:00,60.80,48.20,63.15,M,2.00,0.00,30.47,M,6.21,M,M,M,M,M,M,M,M,M,M,M,M,M,M,M,M,60.80,LFMH 120800Z AUTO VRB02KT CAVOK 16/09 Q1032 NOSIG,M
LFMH,LFMH,2019-09-12 08:30,62.60,46.40,55.37,M,2.00,0.00,30.50,M,6.21,M,M,M,M,M,M,M,M,M,M,M,M,M,M,M,M,62.60,LFMH 120830Z AUTO VRB02KT CAVOK 17/08 Q1033 NOSIG,M
LFMH,LFMH,2019-09-12 09:00,64.40,46.40,51.98,M,2.00,0.00,30.50,M,6.21,M,M,M,M,M,M,M,M,M,M,M,M,M,M,M,M,64.40,LFMH 120900Z AUTO VRB02KT CAVOK 18/08 Q1033 NOSIG,M
LFMH,LFMH,2019-09-12 09:30,66.20,46.40,48.83,M,3.00,0.00,30.50,M,6.21,M,M,M,M,M,M,M,M,M,M,M,M,M,M,M,M,66.20,LFMH 120930Z AUTO VRB03KT CAVOK 19/08 Q1033 NOSIG,M
LFMH,LFMH,2019-09-12 10:00,68.00,46.40,45.88,M,4.00,0.00,30.50,M,6.21,M,M,M,M,M,M,M,M,M,M,M,M,M,M,M,M,68.00,LFMH 121000Z AUTO VRB04KT CAVOK 20/08 Q1033 NOSIG,M
LFMH,LFMH,2019-09-12 10:30,69.80,48.20,46.16,330.00,4.00,0.00,30.50,M,6.21,M,M,M,M,M,M,M,M,M,M,M,M,M,M,M,M,69.80,LFMH 121030Z AUTO 33004KT 260V030 CAVOK 21/09 Q1033 NOSIG,M
LFMH,LFMH,2019-09-12 11:00,69.80,48.20,46.16,310.00,5.00,0.00,30.47,M,6.21,M,M,M,M,M,M,M,M,M,M,M,M,M,M,M,M,69.80,LFMH 121100Z AUTO 31005KT 270V020 CAVOK 21/09 Q1032 NOSIG,M
LFMH,LFMH,2019-09-12 11:30,71.60,50.00,46.43,300.00,3.00,0.00,30.47,M,6.21,M,M,M,M,M,M,M,M,M,M,M,M,M,M,M,M,71.60,LFMH 121130Z AUTO 30003KT 190V330 CAVOK 22/10 Q1032 NOSIG,M
LFMH,LFMH,2019-09-12 12:00,73.40,48.20,40.85,310.00,4.00,0.00,30.47,M,6.21,M,M,M,M,M,M,M,M,M,M,M,M,M,M,M,M,73.40,LFMH 121200Z AUTO 31004KT 260V020 CAVOK 23/09 Q1032 NOSIG,M
LFMH,LFMH,2019-09-12 12:30,75.20,50.00,41.14,320.00,4.00,0.00,30.47,M,6.21,M,M,M,M,M,M,M,M,M,M,M,M,M,M,M,M,75.20,LFMH 121230Z AUTO 32004KT 230V040 CAVOK 24/10 Q1032 NOSIG,M
LFMH,LFMH,2019-09-12 13:00,75.20,48.20,38.46,290.00,4.00,0.00,30.47,M,6.21,M,M,M,M,M,M,M,M,M,M,M,M,M,M,M,M,75.20,LFMH 121300Z AUTO 29004KT 230V350 CAVOK 24/09 Q1032 NOSIG,M
LFMH,LFMH,2019-09-12 13:30,77.00,48.20,36.22,M,4.00,0.00,30.45,M,6.21,M,M,M,M,M,M,M,M,M,M,M,M,M,M,M,M,77.00,LFMH 121330Z AUTO VRB04KT CAVOK 25/09 Q1031 NOSIG,M
LFMH,LFMH,2019-09-12 14:00,77.00,48.20,36.22,M,5.00,0.00,30.45,M,6.21,M,M,M,M,M,M,M,M,M,M,M,M,M,M,M,M,77.00,LFMH 121400Z AUTO VRB05KT CAVOK 25/09 Q1031 NOSIG,M
LFMH,LFMH,2019-09-12 14:30,77.00,48.20,36.22,280.00,4.00,0.00,30.45,M,6.21,M,M,M,M,M,M,M,M,M,M,M,M,M,M,M,M,77.00,LFMH 121430Z AUTO 28004KT 210V320 CAVOK 25/09 Q1031 NOSIG,M
LFMH,LFMH,2019-09-12 15:00,77.00,50.00,38.74,300.00,4.00,0.00,30.45,M,6.21,M,M,M,M,M,M,M,M,M,M,M,M,M,M,M,M,77.00,LFMH 121500Z AUTO 30004KT 240V350 CAVOK 25/10 Q1031 NOSIG,M
LFMH,LFMH,2019-09-12 15:30,77.00,50.00,38.74,M,3.00,0.00,30.45,M,6.21,M,NSC,M,M,M,M,M,M,M,M,M,M,M,M,M,M,77.00,LFMH 121530Z AUTO VRB03KT 9999 NSC 25/10 Q1031 NOSIG,M
LFMH,LFMH,2019-09-12 16:00,77.00,50.00,38.74,310.00,5.00,0.00,30.45,M,6.21,M,M,M,M,M,M,M,M,M,M,M,M,M,M,M,M,77.00,LFMH 121600Z AUTO 31005KT 270V350 CAVOK 25/10 Q1031 NOSIG,M
LFMH,LFMH,2019-09-12 16:30,77.00,50.00,38.74,330.00,4.00,0.00,30.45,M,6.21,M,M,M,M,M,M,M,M,M,M,M,M,M,M,M,M,77.00,LFMH 121630Z AUTO 33004KT 310V020 CAVOK 25/10 Q1031 NOSIG,M
LFMH,LFMH,2019-09-12 17:00,77.00,50.00,38.74,320.00,4.00,0.00,30.45,M,6.21,M,M,M,M,M,M,M,M,M,M,M,M,M,M,M,M,77.00,LFMH 121700Z AUTO 32004KT 290V360 CAVOK 25/10 Q1031 NOSIG,M
LFMH,LFMH,2019-09-12 17:30,75.20,50.00,41.14,310.00,3.00,0.00,30.45,M,6.21,M,M,M,M,M,M,M,M,M,M,M,M,M,M,M,M,75.20,LFMH 121730Z AUTO 31003KT CAVOK 24/10 Q1031 NOSIG,M
LFMH,LFMH,2019-09-12 18:00,71.60,48.20,43.42,290.00,2.00,0.00,30.45,M,6.21,M,M,M,M,M,M,M,M,M,M,M,M,M,M,M,M,71.60,LFMH 121800Z AUTO 29002KT CAVOK 22/09 Q1031 NOSIG,M
LFMH,LFMH,2019-09-12 18:30,66.20,51.80,59.74,120.00,2.00,0.00,30.45,M,4.35,M,NSC,M,M,M,M,M,M,M,-RA,M,M,M,M,M,M,66.20,LFMH 121830Z AUTO 12002KT 7000 -RA NSC 19/11 Q1031 NOSIG,M
LFMH,LFMH,2019-09-12 19:00,62.60,53.60,72.38,170.00,3.00,0.00,30.45,M,6.21,M,M,M,M,M,M,M,M,M,M,M,M,M,M,M,M,62.60,LFMH 121900Z AUTO 17003KT CAVOK 17/12 Q1031 NOSIG,M
LFMH,LFMH,2019-09-12 19:30,57.20,50.00,76.82,160.00,2.00,0.00,30.47,M,6.21,M,M,M,M,M,M,M,M,M,M,M,M,M,M,M,M,57.20,LFMH 121930Z AUTO 16002KT CAVOK 14/10 Q1032 NOSIG,M
LFMH,LFMH,2019-09-12 20:00,59.00,50.00,72.01,M,2.00,0.00,30.47,M,6.21,M,M,M,M,M,M,M,M,M,M,M,M,M,M,M,M,59.00,LFMH 122000Z AUTO VRB02KT CAVOK 15/10 Q1032 NOSIG,M
LFMH,LFMH,2019-09-12 20:30,57.20,51.80,82.12,M,2.00,0.00,30.47,M,6.21,M,M,M,M,M,M,M,M,M,M,M,M,M,M,M,M,57.20,LFMH 122030Z AUTO VRB02KT CAVOK 14/11 Q1032,M
LFMH,LFMH,2019-09-12 21:00,57.20,48.20,71.83,M,3.00,0.00,30.47,M,6.21,M,M,M,M,M,M,M,M,M,M,M,M,M,M,M,M,57.20,LFMH 122100Z AUTO VRB03KT CAVOK 14/09 Q1032,M
LFMH,LFMH,2019-09-12 21:30,55.40,50.00,81.99,0.00,0.00,0.00,30.47,M,6.21,M,M,M,M,M,M,M,M,M,M,M,M,M,M,M,M,55.40,LFMH 122130Z AUTO 00000KT CAVOK 13/10 Q1032,M
LFMH,LFMH,2019-09-12 22:00,53.60,50.00,87.56,M,1.00,0.00,30.47,M,6.21,M,M,M,M,M,M,M,M,M,M,M,M,M,M,M,M,53.60,LFMH 122200Z AUTO VRB01KT CAVOK 12/10 Q1032,M
LFMH,LFMH,2019-09-12 22:30,51.80,48.20,87.47,M,1.00,0.00,30.47,M,6.21,M,M,M,M,M,M,M,M,M,M,M,M,M,M,M,M,51.80,LFMH 122230Z AUTO VRB01KT CAVOK 11/09 Q1032,M
LFMH,LFMH,2019-09-12 23:00,51.80,48.20,87.47,40.00,3.00,0.00,30.47,M,6.21,M,M,M,M,M,M,M,M,M,M,M,M,M,M,M,M,51.80,LFMH 122300Z AUTO 04003KT CAVOK 11/09 Q1032,M
LFMH,LFMH,2019-09-12 23:30,51.80,48.20,87.47,180.00,2.00,0.00,30.47,M,6.21,M,M,M,M,M,M,M,M,M,M,M,M,M,M,M,M,51.80,LFMH 122330Z AUTO 18002KT CAVOK 11/09 Q1032,M
LFMI,LFMI,2019-09-12 00:00,69.80,44.60,40.29,330.00,14.00,0.00,30.21,M,6.21,M,M,M,M,M,M,M,M,M,M,M,M,M,M,M,M,69.80,LFMI 120000Z AUTO 33014KT CAVOK 21/07 Q1023 TEMPO 34020G30KT,M
LFMI,LFMI,2019-09-12 00:30,69.80,44.60,40.29,340.00,11.00,0.00,30.21,M,6.21,M,M,M,M,M,M,M,M,M,M,M,M,M,M,M,M,69.80,LFMI 120030Z AUTO 34011KT CAVOK 21/07 Q1023 NOSIG,M
LFMI,LFMI,2019-09-12 01:00,68.00,44.60,42.85,360.00,7.00,0.00,30.21,M,6.21,M,M,M,M,M,M,M,M,M,M,M,M,M,M,M,M,68.00,LFMI 120100Z AUTO 36007KT 330V030 CAVOK 20/07 Q1023 NOSIG,M
LFMI,LFMI,2019-09-12 01:30,68.00,44.60,42.85,330.00,9.00,0.00,30.21,M,6.21,M,M,M,M,M,M,M,M,M,M,M,M,M,M,M,M,68.00,LFMI 120130Z AUTO 33009KT CAVOK 20/07 Q1023 NOSIG,M
LFMI,LFMI,2019-09-12 02:00,68.00,44.60,42.85,340.00,8.00,0.00,30.21,M,6.21,M,M,M,M,M,M,M,M,M,M,M,M,M,M,M,M,68.00,LFMI 120200Z AUTO 34008KT CAVOK 20/07 Q1023 NOSIG,M
LFMI,LFMI,2019-09-12 02:30,66.20,46.40,48.83,350.00,11.00,0.00,30.21,M,6.21,M,M,M,M,M,M,M,M,M,M,M,M,M,M,M,M,66.20,LFMI 120230Z AUTO 35011KT CAVOK 19/08 Q1023 NOSIG,M
LFMI,LFMI,2019-09-12 03:00,66.20,46.40,48.83,350.00,12.00,0.00,30.21,M,6.21,M,M,M,M,M,M,M,M,M,M,M,M,M,M,M,M,66.20,LFMI 120300Z AUTO 35012KT CAVOK 19/08 Q1023 NOSIG,M
LFMI,LFMI,2019-09-12 03:30,62.60,48.20,59.26,10.00,6.00,0.00,30.24,M,6.21,M,M,M,M,M,M,M,M,M,M,M,M,M,M,M,M,62.60,LFMI 120330Z AUTO 01006KT CAVOK 17/09 Q1024 NOSIG,M
LFMI,LFMI,2019-09-12 04:00,62.60,48.20,59.26,10.00,8.00,0.00,30.24,M,6.21,M,M,M,M,M,M,M,M,M,M,M,M,M,M,M,M,62.60,LFMI 120400Z AUTO 01008KT CAVOK 17/09 Q1024 NOSIG,M
LFMI,LFMI,2019-09-12 04:30,60.80,48.20,63.15,20.00,6.00,0.00,30.24,M,6.21,M,M,M,M,M,M,M,M,M,M,M,M,M,M,M,M,60.80,LFMI 120430Z AUTO 02006KT CAVOK 16/09 Q1024 NOSIG,M
LFMI,LFMI,2019-09-12 05:00,59.00,48.20,67.33,30.00,4.00,0.00,30.27,M,6.21,M,M,M,M,M,M,M,M,M,M,M,M,M,M,M,M,59.00,LFMI 120500Z AUTO 03004KT CAVOK 15/09 Q1025 NOSIG,M
LFMI,LFMI,2019-09-12 05:30,60.80,48.20,63.15,10.00,5.00,0.00,30.27,M,6.21,M,M,M,M,M,M,M,M,M,M,M,M,M,M,M,M,60.80,LFMI 120530Z AUTO 01005KT CAVOK 16/09 Q1025 NOSIG,M
LFMI,LFMI,2019-09-12 06:00,62.60,48.20,59.26,360.00,8.00,0.00,30.27,M,6.21,M,M,M,M,M,M,M,M,M,M,M,M,M,M,M,M,62.60,LFMI 120600Z AUTO 36008KT CAVOK 17/09 Q1025 NOSIG,M
LFMI,LFMI,2019-09-12 06:30,66.20,48.20,52.25,10.00,9.00,0.00,30.30,M,6.21,M,M,M,M,M,M,M,M,M,M,M,M,M,M,M,M,66.20,LFMI 120630Z AUTO 01009KT CAVOK 19/09 Q1026 NOSIG,M
LFMI,LFMI,2019-09-12 07:00,68.00,48.20,49.10,10.00,7.00,0.00,30.30,M,6.21,M,M,M,M,M,M,M,M,M,M,M,M,M,M,M,M,68.00,LFMI 120700Z AUTO 01007KT CAVOK 20/09 Q1026 NOSIG,M
LFMI,LFMI,2019-09-12 07:30,69.80,50.00,49.37,350.00,9.00,0.00,30.33,M,6.21,M,M,M,M,M,M,M,M,M,M,M,M,M,M,M,M,69.80,LFMI 120730Z AUTO 35009KT CAVOK 21/10 Q1027 NOSIG,M
LFMI,LFMI,2019-09-12 08:00,73.40,50.00,43.69,10.00,7.00,0.00,30.33,M,6.21,M,M,M,M,M,M,M,M,M,M,M,M,M,M,M,M,73.40,LFMI 120800Z AUTO 01007KT 340V040 CAVOK 23/10 Q1027 NOSIG,M
LFMI,LFMI,2019-09-12 08:30,75.20,51.80,43.97,20.00,6.00,0.00,30.33,M,6.21,M,M,M,M,M,M,M,M,M,M,M,M,M,M,M,M,75.20,LFMI 120830Z AUTO 02006KT 360V060 CAVOK 24/11 Q1027 NOSIG,M
LFMI,LFMI,2019-09-12 09:00,77.00,51.80,41.42,20.00,6.00,0.00,30.36,M,6.21,M,M,M,M,M,M,M,M,M,M,M,M,M,M,M,M,77.00,LFMI 120900Z AUTO 02006KT 350V060 CAVOK 25/11 Q1028 NOSIG,M
LFMI,LFMI,2019-09-12 09:30,78.80,53.60,41.69,40.00,4.00,0.00,30.36,M,6.21,M,M,M,M,M,M,M,M,M,M,M,M,M,M,M,M,78.80,LFMI 120930Z AUTO 04004KT 330V100 CAVOK 26/12 Q1028 NOSIG,M
LFMI,LFMI,2019-09-12 10:00,80.60,55.40,41.97,M,3.00,0.00,30.36,M,6.21,M,M,M,M,M,M,M,M,M,M,M,M,M,M,M,M,80.53,LFMI 121000Z AUTO VRB03KT CAVOK 27/13 Q1028 NOSIG,M
LFMI,LFMI,2019-09-12 10:30,82.40,55.40,39.58,M,3.00,0.00,30.36,M,6.21,M,M,M,M,M,M,M,M,M,M,M,M,M,M,M,M,81.75,LFMI 121030Z AUTO VRB03KT CAVOK 28/13 Q1028 NOSIG,M
LFMI,LFMI,2019-09-12 11:00,84.20,53.60,34.97,M,2.00,0.00,30.36,M,6.21,M,M,M,M,M,M,M,M,M,M,M,M,M,M,M,M,82.76,LFMI 121100Z AUTO VRB02KT CAVOK 29/12 Q1028 NOSIG,M
LFMI,LFMI,2019-09-12 11:30,84.20,53.60,34.97,M,2.00,0.00,30.36,M,6.21,M,M,M,M,M,M,M,M,M,M,M,M,M,M,M,M,82.76,LFMI 121130Z AUTO VRB02KT CAVOK 29/12 Q1028 BECMG 22012KT,M
LFMI,LFMI,2019-09-12 12:00,86.00,53.60,33.01,M,3.00,0.00,30.33,M,6.21,M,M,M,M,M,M,M,M,M,M,M,M,M,M,M,M,84.18,LFMI 121200Z AUTO VRB03KT CAVOK 30/12 Q1027 NOSIG,M
LFMI,LFMI,2019-09-12 12:30,87.80,53.60,31.17,340.00,3.00,0.00,30.33,M,6.21,M,M,M,M,M,M,M,M,M,M,M,M,M,M,M,M,85.72,LFMI 121230Z AUTO 34003KT 300V010 CAVOK 31/12 Q1027 BECMG 22012KT,M
LFMI,LFMI,2019-09-12 13:00,87.80,53.60,31.17,180.00,4.00,0.00,30.33,M,6.21,M,M,M,M,M,M,M,M,M,M,M,M,M,M,M,M,85.72,LFMI 121300Z AUTO 18004KT 100V230 CAVOK 31/12 Q1027 NOSIG,M
LFMI,LFMI,2019-09-12 13:30,87.80,55.40,33.29,180.00,10.00,0.00,30.33,M,6.21,M,M,M,M,M,M,M,M,M,M,M,M,M,M,M,M,86.11,LFMI 121330Z AUTO 18010KT CAVOK 31/13 Q1027 NOSIG,M
LFMI,LFMI,2019-09-12 14:00,86.00,57.20,37.62,190.00,10.00,0.00,30.33,M,6.21,M,M,M,M,M,M,M,M,M,M,M,M,M,M,M,M,84.97,LFMI 121400Z AUTO 19010KT 170V230 CAVOK 30/14 Q1027 NOSIG,M
LFMI,LFMI,2019-09-12 14:30,86.00,57.20,37.62,190.00,10.00,0.00,30.33,M,6.21,M,M,M,M,M,M,M,M,M,M,M,M,M,M,M,M,84.97,LFMI 121430Z AUTO 19010KT CAVOK 30/14 Q1027 NOSIG,M
LFMI,LFMI,2019-09-12 15:00,86.00,55.40,35.25,190.00,8.00,0.00,30.33,M,6.21,M,M,M,M,M,M,M,M,M,M,M,M,M,M,M,M,84.54,LFMI 121500Z AUTO 19008KT 170V230 CAVOK 30/13 Q1027 NOSIG,M
LFMI,LFMI,2019-09-12 15:30,84.20,55.40,37.35,200.00,11.00,0.00,30.33,M,6.21,M,NSC,M,M,M,M,M,M,M,M,M,M,M,M,M,M,83.08,LFMI 121530Z AUTO 20011KT 9999 NSC 29/13 Q1027 NOSIG,M
LFMI,LFMI,2019-09-12 16:00,82.40,53.60,37.07,200.00,10.00,0.00,30.33,M,6.21,M,FEW,M,M,M,900.00,M,M,M,M,M,M,M,M,M,M,81.46,LFMI 121600Z AUTO 20010KT 9999 FEW009 28/12 Q1027 NOSIG,M
LFMI,LFMI,2019-09-12 16:30,82.40,53.60,37.07,200.00,10.00,0.00,30.33,M,6.21,M,M,M,M,M,M,M,M,M,M,M,M,M,M,M,M,81.46,LFMI 121630Z AUTO 20010KT CAVOK 28/12 Q1027 NOSIG,M
LFMI,LFMI,2019-09-12 17:00,80.60,53.60,39.30,210.00,8.00,0.00,30.33,M,6.21,M,M,M,M,M,M,M,M,M,M,M,M,M,M,M,M,80.29,LFMI 121700Z AUTO 21008KT CAVOK 27/12 Q1027 NOSIG,M
LFMI,LFMI,2019-09-12 17:30,78.80,53.60,41.69,210.00,6.00,0.00,30.33,M,6.21,M,M,M,M,M,M,M,M,M,M,M,M,M,M,M,M,78.80,LFMI 121730Z AUTO 21006KT 180V240 CAVOK 26/12 Q1027 NOSIG,M
LFMI,LFMI,2019-09-12 18:00,75.20,55.40,50.17,230.00,3.00,0.00,30.33,M,6.21,M,M,M,M,M,M,M,M,M,M,M,M,M,M,M,M,75.20,LFMI 121800Z AUTO 23003KT 180V250 CAVOK 24/13 Q1027 NOSIG,M
LFMI,LFMI,2019-09-12 18:30,73.40,55.40,53.29,280.00,3.00,0.00,30.33,M,6.21,M,M,M,M,M,M,M,M,M,M,M,M,M,M,M,M,73.40,LFMI 121830Z AUTO 28003KT CAVOK 23/13 Q1027 NOSIG,M
LFMI,LFMI,2019-09-12 19:00,73.40,55.40,53.29,290.00,4.00,0.00,30.33,M,6.21,M,M,M,M,M,M,M,M,M,M,M,M,M,M,M,M,73.40,LFMI 121900Z AUTO 29004KT CAVOK 23/13 Q1027 NOSIG,M
LFMI,LFMI,2019-09-12 19:30,73.40,55.40,53.29,330.00,3.00,0.00,30.36,M,6.21,M,M,M,M,M,M,M,M,M,M,M,M,M,M,M,M,73.40,LFMI 121930Z AUTO 33003KT CAVOK 23/13 Q1028 NOSIG,M
LFMI,LFMI,2019-09-12 20:00,69.80,57.20,64.26,310.00,2.00,0.00,30.36,M,6.21,M,M,M,M,M,M,M,M,M,M,M,M,M,M,M,M,69.80,LFMI 122000Z AUTO 31002KT CAVOK 21/14 Q1028 NOSIG,M
LFMI,LFMI,2019-09-12 20:30,68.00,59.00,72.92,240.00,3.00,0.00,30.36,M,6.21,M,M,M,M,M,M,M,M,M,M,M,M,M,M,M,M,68.00,LFMI 122030Z AUTO 24003KT 200V260 CAVOK 20/15 Q1028 NOSIG,M
LFMI,LFMI,2019-09-12 21:00,68.00,59.00,72.92,170.00,2.00,0.00,30.36,M,6.21,M,M,M,M,M,M,M,M,M,M,M,M,M,M,M,M,68.00,LFMI 122100Z AUTO 17002KT CAVOK 20/15 Q1028 NOSIG,M
LFMI,LFMI,2019-09-12 21:30,68.00,57.20,68.35,M,2.00,0.00,30.36,M,6.21,M,M,M,M,M,M,M,M,M,M,M,M,M,M,M,M,68.00,LFMI 122130Z AUTO VRB02KT CAVOK 20/14 Q1028 NOSIG,M
LFMI,LFMI,2019-09-12 22:00,68.00,57.20,68.35,M,2.00,0.00,30.36,M,6.21,M,M,M,M,M,M,M,M,M,M,M,M,M,M,M,M,68.00,LFMI 122200Z AUTO VRB02KT CAVOK 20/14 Q1028 NOSIG,M
LFMI,LFMI,2019-09-12 22:30,66.20,57.20,72.74,0.00,0.00,0.00,30.36,M,6.21,M,M,M,M,M,M,M,M,M,M,M,M,M,M,M,M,66.20,LFMI 122230Z AUTO 00000KT CAVOK 19/14 Q1028 NOSIG,M
LFMI,LFMI,2019-09-12 23:00,66.20,57.20,72.74,M,3.00,0.00,30.36,M,6.21,M,M,M,M,M,M,M,M,M,M,M,M,M,M,M,M,66.20,LFMI 122300Z AUTO VRB03KT CAVOK 19/14 Q1028 NOSIG,M
LFMI,LFMI,2019-09-12 23:30,64.40,57.20,77.45,0.00,0.00,0.00,30.36,M,6.21,M,M,M,M,M,M,M,M,M,M,M,M,M,M,M,M,64.40,LFMI 122330Z AUTO 00000KT CAVOK 18/14 Q1028 NOSIG,M
LFMK,LFMK,2019-09-12 00:00,60.80,51.80,72.20,260.00,6.00,0.00,30.36,M,6.21,M,M,M,M,M,M,M,M,M,M,M,M,M,M,M,M,60.80,LFMK 120000Z AUTO 26006KT CAVOK 16/11 Q1028,M
LFMK,LFMK,2019-09-12 00:30,59.00,51.80,76.98,270.00,4.00,0.00,30.36,M,6.21,M,M,M,M,M,M,M,M,M,M,M,M,M,M,M,M,59.00,LFMK 120030Z AUTO 27004KT CAVOK 15/11 Q1028,M
LFMK,LFMK,2019-09-12 01:00,57.20,51.80,82.12,290.00,5.00,0.00,30.36,M,6.21,M,M,M,M,M,M,M,M,M,M,M,M,M,M,M,M,57.20,LFMK 120100Z AUTO 29005KT CAVOK 14/11 Q1028,M
LFMK,LFMK,2019-09-12 01:30,57.20,51.80,82.12,300.00,6.00,0.00,30.36,M,6.21,M,M,M,M,M,M,M,M,M,M,M,M,M,M,M,M,57.20,LFMK 120130Z AUTO 30006KT CAVOK 14/11 Q1028,M
LFMK,LFMK,2019-09-12 02:00,57.20,51.80,82.12,290.00,8.00,0.00,30.36,M,6.21,M,M,M,M,M,M,M,M,M,M,M,M,M,M,M,M,57.20,LFMK 120200Z AUTO 29008KT CAVOK 14/11 Q1028,M
LFMK,LFMK,2019-09-12 02:30,57.20,50.00,76.82,280.00,7.00,0.00,30.36,M,6.21,M,M,M,M,M,M,M,M,M,M,M,M,M,M,M,M,57.20,LFMK 120230Z AUTO 28007KT CAVOK 14/10 Q1028,M
LFMK,LFMK,2019-09-12 03:00,57.20,50.00,76.82,260.00,7.00,0.00,30.39,M,6.21,M,M,M,M,M,M,M,M,M,M,M,M,M,M,M,M,57.20,LFMK 120300Z AUTO 26007KT 220V290 CAVOK 14/10 Q1029,M
LFMK,LFMK,2019-09-12 03:30,59.00,50.00,72.01,280.00,8.00,0.00,30.36,M,6.21,M,M,M,M,M,M,M,M,M,M,M,M,M,M,M,M,59.00,LFMK 120330Z AUTO 28008KT CAVOK 15/10 Q1028 NOSIG,M
LFMK,LFMK,2019-09-12 04:00,57.20,50.00,76.82,280.00,9.00,0.00,30.36,M,6.21,M,M,M,M,M,M,M,M,M,M,M,M,M,M,M,M,57.20,LFMK 120400Z AUTO 28009KT CAVOK 14/10 Q1028 NOSIG,M
LFMK,LFMK,2019-09-12 04:30,57.20,50.00,76.82,270.00,9.00,0.00,30.36,M,6.21,M,M,M,M,M,M,M,M,M,M,M,M,M,M,M,M,57.20,LFMK 120430Z AUTO 27009KT CAVOK 14/10 Q1028 NOSIG,M
LFMK,LFMK,2019-09-12 05:00,57.20,50.00,76.82,270.00,8.00,0.00,30.39,M,6.21,M,M,M,M,M,M,M,M,M,M,M,M,M,M,M,M,57.20,LFMK 120500Z AUTO 27008KT 240V300 CAVOK 14/10 Q1029 NOSIG,M
LFMK,LFMK,2019-09-12 05:30,57.20,50.00,76.82,270.00,9.00,0.00,30.39,M,6.21,M,M,M,M,M,M,M,M,M,M,M,M,M,M,M,M,57.20,LFMK 120530Z AUTO 27009KT CAVOK 14/10 Q1029 NOSIG,M
LFMK,LFMK,2019-09-12 06:00,57.20,50.00,76.82,260.00,8.00,0.00,30.39,M,6.21,M,M,M,M,M,M,M,M,M,M,M,M,M,M,M,M,57.20,LFMK 120600Z AUTO 26008KT 230V290 CAVOK 14/10 Q1029 NOSIG,M
LFMK,LFMK,2019-09-12 06:30,59.00,51.80,76.98,270.00,7.00,0.00,30.42,M,6.21,M,M,M,M,M,M,M,M,M,M,M,M,M,M,M,M,59.00,LFMK 120630Z AUTO 27007KT CAVOK 15/11 Q1030 NOSIG,M
LFMK,LFMK,2019-09-12 07:00,60.80,51.80,72.20,270.00,10.00,0.00,30.42,M,6.21,M,M,M,M,M,M,M,M,M,M,M,M,M,M,M,M,60.80,LFMK 120700Z AUTO 27010KT CAVOK 16/11 Q1030 NOSIG,M
LFMK,LFMK,2019-09-12 07:30,62.60,51.80,67.75,270.00,13.00,0.00,30.42,M,6.21,M,M,M,M,M,M,M,M,M,M,M,M,M,M,M,M,62.60,LFMK 120730Z AUTO 27013KT 240V300 CAVOK 17/11 Q1030 NOSIG,M
LFMK,LFMK,2019-09-12 08:00,64.40,53.60,67.95,270.00,13.00,0.00,30.42,M,6.21,M,M,M,M,M,M,M,M,M,M,M,M,M,M,M,M,64.40,LFMK 120800Z AUTO 27013KT CAVOK 18/12 Q1030 NOSIG,M
LFMK,LFMK,2019-09-12 08:30,66.20,53.60,63.82,270.00,12.00,0.00,30.45,M,6.21,M,M,M,M,M,M,M,M,M,M,M,M,M,M,M,M,66.20,LFMK 120830Z AUTO 27012KT 230V290 CAVOK 19/12 Q1031 NOSIG,M
LFMK,LFMK,2019-09-12 09:00,68.00,53.60,59.97,280.00,12.00,0.00,30.45,M,6.21,M,M,M,M,M,M,M,M,M,M,M,M,M,M,M,M,68.00,LFMK 120900Z AUTO 28012KT CAVOK 20/12 Q1031 NOSIG,M
LFMK,LFMK,2019-09-12 09:30,69.80,53.60,56.38,270.00,12.00,0.00,30.45,M,6.21,M,M,M,M,M,M,M,M,M,M,M,M,M,M,M,M,69.80,LFMK 120930Z AUTO 27012KT 240V300 CAVOK 21/12 Q1031 NOSIG,M
LFMK,LFMK,2019-09-12 10:00,71.60,53.60,53.03,280.00,12.00,0.00,30.45,M,6.21,M,M,M,M,M,M,M,M,M,M,M,M,M,M,M,M,71.60,LFMK 121000Z AUTO 28012KT 250V310 CAVOK 22/12 Q1031 NOSIG,M
LFMK,LFMK,2019-09-12 10:30,73.40,55.40,53.29,280.00,11.00,0.00,30.45,M,6.21,M,M,M,M,M,M,M,M,M,M,M,M,M,M,M,M,73.40,LFMK 121030Z AUTO 28011KT CAVOK 23/13 Q1031 NOSIG,M
LFMK,LFMK,2019-09-12 11:00,73.40,51.80,46.71,280.00,14.00,0.00,30.42,M,6.21,M,M,M,M,M,M,M,M,M,M,M,M,M,M,M,M,73.40,LFMK 121100Z AUTO 28014KT CAVOK 23/11 Q1030 NOSIG,M
LFMK,LFMK,2019-09-12 11:30,77.00,53.60,44.25,270.00,12.00,0.00,30.42,M,6.21,M,M,M,M,M,M,M,M,M,M,M,M,M,M,M,M,77.00,LFMK 121130Z AUTO 27012KT 240V300 CAVOK 25/12 Q1030 NOSIG,M
LFMK,LFMK,2019-09-12 12:00,78.80,51.80,39.02,280.00,11.00,0.00,30.42,M,6.21,M,M,M,M,M,M,M,M,M,M,M,M,M,M,M,M,78.80,LFMK 121200Z AUTO 28011KT 260V320 CAVOK 26/11 Q1030 NOSIG,M
LFMK,LFMK,2019-09-12 12:30,78.80,50.00,36.51,290.00,11.00,0.00,30.42,M,6.21,M,M,M,M,M,M,M,M,M,M,M,M,M,M,M,M,78.80,LFMK 121230Z AUTO 29011KT CAVOK 26/10 Q1030 NOSIG,M
LFMK,LFMK,2019-09-12 13:00,78.80,50.00,36.51,290.00,11.00,0.00,30.39,M,6.21,M,M,M,M,M,M,M,M,M,M,M,M,M,M,M,M,78.80,LFMK 121300Z AUTO 29011KT CAVOK 26/10 Q1029 NOSIG,M
LFMK,LFMK,2019-09-12 13:30,80.60,50.00,34.41,270.00,10.00,0.00,30.39,M,6.21,M,M,M,M,M,M,M,M,M,M,M,M,M,M,M,M,79.88,LFMK 121330Z AUTO 27010KT 230V300 CAVOK 27/10 Q1029 NOSIG,M
LFMK,LFMK,2019-09-12 14:00,80.60,50.00,34.41,270.00,10.00,0.00,30.39,M,6.21,M,M,M,M,M,M,M,M,M,M,M,M,M,M,M,M,79.88,LFMK 121400Z AUTO 27010KT 230V300 CAVOK 27/10 Q1029 NOSIG,M
LFMK,LFMK,2019-09-12 14:30,82.40,48.20,30.35,250.00,8.00,0.00,30.39,M,6.21,M,M,M,M,M,M,M,M,M,M,M,M,M,M,M,M,80.80,LFMK 121430Z AUTO 25008KT 200V280 CAVOK 28/09 Q1029 NOSIG,M
LFMK,LFMK,2019-09-12 15:00,82.40,48.20,30.35,280.00,8.00,0.00,30.36,M,6.21,M,M,M,M,M,M,M,M,M,M,M,M,M,M,M,M,80.80,LFMK 121500Z AUTO 28008KT 240V320 CAVOK 28/09 Q1028 NOSIG,M
LFMK,LFMK,2019-09-12 15:30,80.60,48.20,32.18,260.00,9.00,0.00,30.36,M,6.21,M,M,M,M,M,M,M,M,M,M,M,M,M,M,M,M,79.71,LFMK 121530Z AUTO 26009KT 230V290 CAVOK 27/09 Q1028 NOSIG,M
LFMK,LFMK,2019-09-12 16:00,82.40,48.20,30.35,270.00,8.00,0.00,30.36,M,6.21,M,M,M,M,M,M,M,M,M,M,M,M,M,M,M,M,80.80,LFMK 121600Z AUTO 27008KT 230V290 CAVOK 28/09 Q1028 NOSIG,M
LFMK,LFMK,2019-09-12 16:30,80.60,46.40,30.07,280.00,8.00,0.00,30.36,M,6.21,M,M,M,M,M,M,M,M,M,M,M,M,M,M,M,M,79.56,LFMK 121630Z AUTO 28008KT CAVOK 27/08 Q1028 NOSIG,M
LFMK,LFMK,2019-09-12 17:00,80.60,48.20,32.18,280.00,8.00,0.00,30.39,M,6.21,M,M,M,M,M,M,M,M,M,M,M,M,M,M,M,M,79.71,LFMK 121700Z AUTO 28008KT CAVOK 27/09 Q1029 NOSIG,M
LFMK,LFMK,2019-09-12 17:30,78.80,48.20,34.13,270.00,4.00,0.00,30.39,M,6.21,M,M,M,M,M,M,M,M,M,M,M,M,M,M,M,M,78.80,LFMK 121730Z AUTO 27004KT CAVOK 26/09 Q1029 NOSIG,M
LFMK,LFMK,2019-09-12 18:00,73.40,50.00,43.69,240.00,5.00,0.00,30.39,M,6.21,M,M,M,M,M,M,M,M,M,M,M,M,M,M,M,M,73.40,LFMK 121800Z AUTO 24005KT 210V270 CAVOK 23/10 Q1029 NOSIG,M
LFMK,LFMK,2019-09-12 18:30,69.80,50.00,49.37,220.00,3.00,0.00,30.39,M,6.21,M,M,M,M,M,M,M,M,M,M,M,M,M,M,M,M,69.80,LFMK 121830Z AUTO 22003KT 170V250 CAVOK 21/10 Q1029,M
LFMK,LFMK,2019-09-12 19:00,66.20,50.00,55.88,210.00,4.00,0.00,30.39,M,6.21,M,M,M,M,M,M,M,M,M,M,M,M,M,M,M,M,66.20,LFMK 121900Z AUTO 21004KT 150V260 CAVOK 19/10 Q1029,M
LFMK,LFMK,2019-09-12 19:30,66.20,50.00,55.88,M,2.00,0.00,30.39,M,6.21,M,M,M,M,M,M,M,M,M,M,M,M,M,M,M,M,66.20,LFMK 121930Z AUTO VRB02KT CAVOK 19/10 Q1029,M
LFMK,LFMK,2019-09-12 20:00,64.40,50.00,59.50,M,2.00,0.00,30.39,M,6.21,M,M,M,M,M,M,M,M,M,M,M,M,M,M,M,M,64.40,LFMK 122000Z AUTO VRB02KT CAVOK 18/10 Q1029,M
LFMK,LFMK,2019-09-12 20:30,62.60,51.80,67.75,M,3.00,0.00,30.39,M,6.21,M,M,M,M,M,M,M,M,M,M,M,M,M,M,M,M,62.60,LFMK 122030Z AUTO VRB03KT CAVOK 17/11 Q1029,M
LFMK,LFMK,2019-09-12 21:00,60.80,51.80,72.20,M,3.00,0.00,30.39,M,6.21,M,M,M,M,M,M,M,M,M,M,M,M,M,M,M,M,60.80,LFMK 122100Z AUTO VRB03KT CAVOK 16/11 Q1029,M
LFMK,LFMK,2019-09-12 21:30,60.80,53.60,77.14,170.00,6.00,0.00,30.39,M,6.21,M,M,M,M,M,M,M,M,M,M,M,M,M,M,M,M,60.80,LFMK 122130Z AUTO 17006KT 150V210 CAVOK 16/12 Q1029,M
LFMK,LFMK,2019-09-12 22:00,60.80,51.80,72.20,180.00,5.00,0.00,30.39,M,6.21,M,M,M,M,M,M,M,M,M,M,M,M,M,M,M,M,60.80,LFMK 122200Z AUTO 18005KT 140V210 CAVOK 16/11 Q1029,M
LFMK,LFMK,2019-09-12 22:30,59.00,51.80,76.98,M,3.00,0.00,30.42,M,6.21,M,M,M,M,M,M,M,M,M,M,M,M,M,M,M,M,59.00,LFMK 122230Z AUTO VRB03KT CAVOK 15/11 Q1030,M
LFMK,LFMK,2019-09-12 23:00,57.20,51.80,82.12,M,2.00,0.00,30.39,M,6.21,M,M,M,M,M,M,M,M,M,M,M,M,M,M,M,M,57.20,LFMK 122300Z AUTO VRB02KT CAVOK 14/11 Q1029,M
LFMK,LFMK,2019-09-12 23:30,57.20,51.80,82.12,180.00,3.00,0.00,30.42,M,6.21,M,M,M,M,M,M,M,M,M,M,M,M,M,M,M,M,57.20,LFMK 122330Z AUTO 18003KT 160V220 CAVOK 14/11 Q1030,M
LFML,LFML,2019-09-12 00:00,68.00,48.20,49.10,350.00,6.00,0.00,30.21,M,6.21,M,M,M,M,M,M,M,M,M,M,M,M,M,M,M,M,68.00,LFML 120000Z AUTO 35006KT CAVOK 20/09 Q1023 NOSIG,M
LFML,LFML,2019-09-12 00:30,68.00,48.20,49.10,350.00,9.00,0.00,30.21,M,6.21,M,M,M,M,M,M,M,M,M,M,M,M,M,M,M,M,68.00,LFML 120030Z AUTO 35009KT CAVOK 20/09 Q1023 NOSIG,M
LFML,LFML,2019-09-12 01:00,66.20,50.00,55.88,350.00,5.00,0.00,30.21,M,6.21,M,M,M,M,M,M,M,M,M,M,M,M,M,M,M,M,66.20,LFML 120100Z AUTO 35005KT CAVOK 19/10 Q1023 NOSIG,M
LFML,LFML,2019-09-12 01:30,62.60,50.00,63.38,M,3.00,0.00,30.21,M,6.21,M,M,M,M,M,M,M,M,M,M,M,M,M,M,M,M,62.60,LFML 120130Z AUTO VRB03KT CAVOK 17/10 Q1023 NOSIG,M
LFML,LFML,2019-09-12 02:00,59.00,51.80,76.98,M,3.00,0.00,30.21,M,6.21,M,M,M,M,M,M,M,M,M,M,M,M,M,M,M,M,59.00,LFML 120200Z AUTO VRB03KT CAVOK 15/11 Q1023 NOSIG,M
LFML,LFML,2019-09-12 02:30,59.00,51.80,76.98,110.00,2.00,0.00,30.21,M,6.21,M,M,M,M,M,M,M,M,M,M,M,M,M,M,M,M,59.00,LFML 120230Z AUTO 11002KT CAVOK 15/11 Q1023 NOSIG,M
LFML,LFML,2019-09-12 03:00,60.80,51.80,72.20,M,2.00,0.00,30.24,M,6.21,M,M,M,M,M,M,M,M,M,M,M,M,M,M,M,M,60.80,LFML 120300Z AUTO VRB02KT CAVOK 16/11 Q1024 NOSIG,M
LFML,LFML,2019-09-12 03:30,57.20,51.80,82.12,150.00,4.00,0.00,30.24,M,6.21,M,M,M,M,M,M,M,M,M,M,M,M,M,M,M,M,57.20,LFML 120330Z AUTO 15004KT 120V190 CAVOK 14/11 Q1024 NOSIG,M
LFML,LFML,2019-09-12 04:00,59.00,51.80,76.98,160.00,4.00,0.00,30.24,M,6.21,M,M,M,M,M,M,M,M,M,M,M,M,M,M,M,M,59.00,LFML 120400Z AUTO 16004KT CAVOK 15/11 Q1024 NOSIG,M
LFML,LFML,2019-09-12 04:30,59.00,51.80,76.98,120.00,3.00,0.00,30.24,M,6.21,M,M,M,M,M,M,M,M,M,M,M,M,M,M,M,M,59.00,LFML 120430Z AUTO 12003KT CAVOK 15/11 Q1024 NOSIG,M
LFML,LFML,2019-09-12 05:00,59.00,51.80,76.98,150.00,4.00,0.00,30.27,M,6.21,M,M,M,M,M,M,M,M,M,M,M,M,M,M,M,M,59.00,LFML 120500Z AUTO 15004KT CAVOK 15/11 Q1025 NOSIG,M
LFML,LFML,2019-09-12 05:30,57.20,51.80,82.12,160.00,3.00,0.00,30.27,M,6.21,M,M,M,M,M,M,M,M,M,M,M,M,M,M,M,M,57.20,LFML 120530Z AUTO 16003KT CAVOK 14/11 Q1025 NOSIG,M
LFML,LFML,2019-09-12 06:00,60.80,55.40,82.37,140.00,1.00,0.00,30.27,M,6.21,M,M,M,M,M,M,M,M,M,M,M,M,M,M,M,M,60.80,LFML 120600Z AUTO 14001KT CAVOK 16/13 Q1025 NOSIG,M
LFML,LFML,2019-09-12 06:30,62.60,55.40,77.29,150.00,4.00,0.00,30.30,M,6.21,M,FEW,M,M,M,1100.00,M,M,M,M,M,M,M,M,M,M,62.60,LFML 120630Z AUTO 15004KT 9999 FEW011 17/13 Q1026 NOSIG,M
LFML,LFML,2019-09-12 07:00,66.20,53.60,63.82,0.00,0.00,0.00,30.30,M,6.21,M,M,M,M,M,M,M,M,M,M,M,M,M,M,M,M,66.20,LFML 120700Z AUTO 00000KT CAVOK 19/12 Q1026 NOSIG,M
LFML,LFML,2019-09-12 07:30,68.00,53.60,59.97,M,2.00,0.00,30.33,M,6.21,M,M,M,M,M,M,M,M,M,M,M,M,M,M,M,M,68.00,LFML 120730Z AUTO VRB02KT CAVOK 20/12 Q1027 NOSIG,M
LFML,LFML,2019-09-12 08:00,69.80,55.40,60.21,260.00,3.00,0.00,30.33,M,6.21,M,M,M,M,M,M,M,M,M,M,M,M,M,M,M,M,69.80,LFML 120800Z AUTO 26003KT 230V300 CAVOK 21/13 Q1027 NOSIG,M
LFML,LFML,2019-09-12 08:30,71.60,55.40,56.63,250.00,3.00,0.00,30.33,M,6.21,M,M,M,M,M,M,M,M,M,M,M,M,M,M,M,M,71.60,LFML 120830Z AUTO 25003KT 230V290 CAVOK 22/13 Q1027 NOSIG,M
LFML,LFML,2019-09-12 09:00,75.20,57.20,53.55,260.00,5.00,0.00,30.36,M,6.21,M,M,M,M,M,M,M,M,M,M,M,M,M,M,M,M,75.20,LFML 120900Z AUTO 26005KT CAVOK 24/14 Q1028 NOSIG,M
LFML,LFML,2019-09-12 09:30,75.20,55.40,50.17,260.00,5.00,0.00,30.36,M,6.21,M,M,M,M,M,M,M,M,M,M,M,M,M,M,M,M,75.20,LFML 120930Z AUTO 26005KT CAVOK 24/13 Q1028 NOSIG,M
LFML,LFML,2019-09-12 10:00,77.00,57.20,50.43,260.00,5.00,0.00,30.36,M,6.21,M,M,M,M,M,M,M,M,M,M,M,M,M,M,M,M,77.00,LFML 121000Z AUTO 26005KT CAVOK 25/14 Q1028 NOSIG,M
LFML,LFML,2019-09-12 10:30,77.00,57.20,50.43,290.00,4.00,0.00,30.36,M,6.21,M,M,M,M,M,M,M,M,M,M,M,M,M,M,M,M,77.00,LFML 121030Z AUTO 29004KT CAVOK 25/14 Q1028 BECMG 20012KT,M
LFML,LFML,2019-09-12 11:00,78.80,57.20,47.52,290.00,4.00,0.00,30.36,M,6.21,M,M,M,M,M,M,M,M,M,M,M,M,M,M,M,M,78.80,LFML 121100Z AUTO 29004KT 230V320 CAVOK 26/14 Q1028 NOSIG,M
LFML,LFML,2019-09-12 11:30,80.60,55.40,41.97,260.00,5.00,0.00,30.36,M,6.21,M,M,M,M,M,M,M,M,M,M,M,M,M,M,M,M,80.53,LFML 121130Z AUTO 26005KT 230V300 CAVOK 27/13 Q1028 NOSIG,M
LFML,LFML,2019-09-12 12:00,82.40,55.40,39.58,260.00,7.00,0.00,30.33,M,6.21,M,M,M,M,M,M,M,M,M,M,M,M,M,M,M,M,81.75,LFML 121200Z AUTO 26007KT CAVOK 28/13 Q1027 BECMG 20012KT,M
LFML,LFML,2019-09-12 12:30,82.40,57.20,42.25,270.00,6.00,0.00,30.33,M,6.21,M,M,M,M,M,M,M,M,M,M,M,M,M,M,M,M,82.08,LFML 121230Z AUTO 27006KT CAVOK 28/14 Q1027 BECMG 20012KT,M
LFML,LFML,2019-09-12 13:00,84.20,55.40,37.35,250.00,7.00,0.00,30.33,M,6.21,M,M,M,M,M,M,M,M,M,M,M,M,M,M,M,M,83.08,LFML 121300Z AUTO 25007KT CAVOK 29/13 Q1027 NOSIG,M
LFML,LFML,2019-09-12 13:30,86.00,55.40,35.25,240.00,10.00,0.00,30.33,M,6.21,M,M,M,M,M,M,M,M,M,M,M,M,M,M,M,M,84.54,LFML 121330Z AUTO 24010KT CAVOK 30/13 Q1027 NOSIG,M
LFML,LFML,2019-09-12 14:00,86.00,53.60,33.01,200.00,9.00,0.00,30.33,M,6.21,M,M,M,M,M,M,M,M,M,M,M,M,M,M,M,M,84.18,LFML 121400Z AUTO 20009KT CAVOK 30/12 Q1027 NOSIG,M
LFML,LFML,2019-09-12 14:30,86.00,53.60,33.01,260.00,7.00,0.00,30.33,M,6.21,M,M,M,M,M,M,M,M,M,M,M,M,M,M,M,M,84.18,LFML 121430Z AUTO 26007KT CAVOK 30/12 Q1027 TEMPO 20010KT,M
LFML,LFML,2019-09-12 15:00,86.00,51.80,30.90,260.00,9.00,0.00,30.33,M,6.21,M,M,M,M,M,M,M,M,M,M,M,M,M,M,M,M,83.87,LFML 121500Z AUTO 26009KT CAVOK 30/11 Q1027 NOSIG,M
LFML,LFML,2019-09-12 15:30,84.20,51.80,32.73,200.00,8.00,0.00,30.33,M,6.21,M,NSC,M,M,M,M,M,M,M,M,M,M,M,M,M,M,82.48,LFML 121530Z AUTO 20008KT 190V250 9999 NSC 29/11 Q1027 NOSIG,M
LFML,LFML,2019-09-12 16:00,84.20,51.80,32.73,190.00,8.00,0.00,30.33,M,6.21,M,M,M,M,M,M,M,M,M,M,M,M,M,M,M,M,82.48,LFML 121600Z AUTO 19008KT CAVOK 29/11 Q1027 NOSIG,M
LFML,LFML,2019-09-12 16:30,82.40,50.00,32.46,190.00,8.00,0.00,30.33,M,6.21,M,M,M,M,M,M,M,M,M,M,M,M,M,M,M,M,80.99,LFML 121630Z AUTO 19008KT CAVOK 28/10 Q1027 NOSIG,M
LFML,LFML,2019-09-12 17:00,80.60,50.00,34.41,190.00,8.00,0.00,30.33,M,6.21,M,M,M,M,M,M,M,M,M,M,M,M,M,M,M,M,79.88,LFML 121700Z AUTO 19008KT CAVOK 27/10 Q1027 NOSIG,M
LFML,LFML,2019-09-12 17:30,78.80,50.00,36.51,190.00,5.00,0.00,30.33,M,6.21,M,M,M,M,M,M,M,M,M,M,M,M,M,M,M,M,78.80,LFML 121730Z AUTO 19005KT CAVOK 26/10 Q1027 NOSIG,M
LFML,LFML,2019-09-12 18:00,77.00,51.80,41.42,260.00,3.00,0.00,30.33,M,6.21,M,M,M,M,M,M,M,M,M,M,M,M,M,M,M,M,77.00,LFML 121800Z AUTO 26003KT 200V300 CAVOK 25/11 Q1027 NOSIG,M
LFML,LFML,2019-09-12 18:30,75.20,55.40,50.17,M,3.00,0.00,30.33,M,6.21,M,M,M,M,M,M,M,M,M,M,M,M,M,M,M,M,75.20,LFML 121830Z AUTO VRB03KT CAVOK 24/13 Q1027 NOSIG,M
LFML,LFML,2019-09-12 19:00,73.40,59.00,60.67,270.00,3.00,0.00,30.36,M,6.21,M,FEW,M,M,M,1200.00,M,M,M,M,M,M,M,M,M,M,73.40,LFML 121900Z AUTO 27003KT 9999 FEW012 23/15 Q1028 NOSIG,M
LFML,LFML,2019-09-12 19:30,73.40,57.20,56.88,M,3.00,0.00,30.36,M,6.21,M,FEW,M,M,M,800.00,M,M,M,M,M,M,M,M,M,M,73.40,LFML 121930Z AUTO VRB03KT 9999 FEW008 23/14 Q1028 NOSIG,M
LFML,LFML,2019-09-12 20:00,73.40,55.40,53.29,M,3.00,0.00,30.36,M,6.21,M,M,M,M,M,M,M,M,M,M,M,M,M,M,M,M,73.40,LFML 122000Z AUTO VRB03KT CAVOK 23/13 Q1028 NOSIG,M
LFML,LFML,2019-09-12 20:30,69.80,57.20,64.26,210.00,3.00,0.00,30.36,M,6.21,M,M,M,M,M,M,M,M,M,M,M,M,M,M,M,M,69.80,LFML 122030Z AUTO 21003KT CAVOK 21/14 Q1028 NOSIG,M
LFML,LFML,2019-09-12 21:00,68.00,55.40,64.04,130.00,5.00,0.00,30.36,M,6.21,M,M,M,M,M,M,M,M,M,M,M,M,M,M,M,M,68.00,LFML 122100Z AUTO 13005KT CAVOK 20/13 Q1028 NOSIG,M
LFML,LFML,2019-09-12 21:30,66.20,55.40,68.15,140.00,5.00,0.00,30.36,M,6.21,M,M,M,M,M,M,M,M,M,M,M,M,M,M,M,M,66.20,LFML 122130Z AUTO 14005KT CAVOK 19/13 Q1028 NOSIG,M
LFML,LFML,2019-09-12 22:00,66.20,55.40,68.15,120.00,5.00,0.00,30.36,M,6.21,M,M,M,M,M,M,M,M,M,M,M,M,M,M,M,M,66.20,LFML 122200Z AUTO 12005KT CAVOK 19/13 Q1028 NOSIG,M
LFML,LFML,2019-09-12 22:30,64.40,55.40,72.56,130.00,7.00,0.00,30.36,M,6.21,M,M,M,M,M,M,M,M,M,M,M,M,M,M,M,M,64.40,LFML 122230Z AUTO 13007KT CAVOK 18/13 Q1028 NOSIG,M
LFML,LFML,2019-09-12 23:00,68.00,53.60,59.97,70.00,3.00,0.00,30.36,M,6.21,M,M,M,M,M,M,M,M,M,M,M,M,M,M,M,M,68.00,LFML 122300Z AUTO 07003KT 360V100 CAVOK 20/12 Q1028 NOSIG,M
LFML,LFML,2019-09-12 23:30,66.20,55.40,68.15,M,2.00,0.00,30.36,M,6.21,M,M,M,M,M,M,M,M,M,M,M,M,M,M,M,M,66.20,LFML 122330Z AUTO VRB02KT CAVOK 19/13 Q1028 NOSIG,M
LFMN,LFMN,2019-09-12 00:00,69.80,57.20,64.26,340.00,5.00,0.00,30.21,M,6.21,M,M,M,M,M,M,M,M,M,M,M,M,M,M,M,M,69.80,LFMN 120000Z 34005KT 320V030 CAVOK 21/14 Q1023 NOSIG,M
LFMN,LFMN,2019-09-12 00:30,69.80,57.20,64.26,340.00,5.00,0.00,30.21,M,6.21,M,M,M,M,M,M,M,M,M,M,M,M,M,M,M,M,69.80,LFMN 120030Z 34005KT CAVOK 21/14 Q1023 NOSIG,M
LFMN,LFMN,2019-09-12 01:00,69.80,57.20,64.26,350.00,6.00,0.00,30.18,M,6.21,M,M,M,M,M,M,M,M,M,M,M,M,M,M,M,M,69.80,LFMN 120100Z 35006KT 320V050 CAVOK 21/14 Q1022 NOSIG,M
LFMN,LFMN,2019-09-12 01:30,69.80,57.20,64.26,320.00,3.00,0.00,30.21,M,6.21,M,M,M,M,M,M,M,M,M,M,M,M,M,M,M,M,69.80,LFMN 120130Z 32003KT 280V020 CAVOK 21/14 Q1023 NOSIG,M
LFMN,LFMN,2019-09-12 02:00,69.80,57.20,64.26,340.00,4.00,0.00,30.21,M,6.21,M,M,M,M,M,M,M,M,M,M,M,M,M,M,M,M,69.80,LFMN 120200Z 34004KT 310V020 CAVOK 21/14 Q1023 NOSIG,M
LFMN,LFMN,2019-09-12 02:30,69.80,57.20,64.26,340.00,6.00,0.00,30.21,M,6.21,M,M,M,M,M,M,M,M,M,M,M,M,M,M,M,M,69.80,LFMN 120230Z 34006KT CAVOK 21/14 Q1023 NOSIG,M
LFMN,LFMN,2019-09-12 03:00,69.80,57.20,64.26,330.00,7.00,0.00,30.21,M,6.21,M,M,M,M,M,M,M,M,M,M,M,M,M,M,M,M,69.80,LFMN 120300Z 33007KT CAVOK 21/14 Q1023 NOSIG,M
LFMN,LFMN,2019-09-12 03:30,68.00,57.20,68.35,330.00,7.00,0.00,30.24,M,6.21,M,M,M,M,M,M,M,M,M,M,M,M,M,M,M,M,68.00,LFMN 120330Z 33007KT CAVOK 20/14 Q1024 NOSIG,M
LFMN,LFMN,2019-09-12 04:00,68.00,57.20,68.35,330.00,9.00,0.00,30.24,M,6.21,M,M,M,M,M,M,M,M,M,M,M,M,M,M,M,M,68.00,LFMN 120400Z 33009KT CAVOK 20/14 Q1024 NOSIG,M
LFMN,LFMN,2019-09-12 04:30,68.00,57.20,68.35,330.00,9.00,0.00,30.24,M,6.21,M,M,M,M,M,M,M,M,M,M,M,M,M,M,M,M,68.00,LFMN 120430Z 33009KT CAVOK 20/14 Q1024 NOSIG,M
LFMN,LFMN,2019-09-12 05:00,66.20,57.20,72.74,340.00,8.00,0.00,30.27,M,6.21,M,M,M,M,M,M,M,M,M,M,M,M,M,M,M,M,66.20,LFMN 120500Z 34008KT CAVOK 19/14 Q1025 NOSIG,M
LFMN,LFMN,2019-09-12 05:30,66.20,57.20,72.74,330.00,10.00,0.00,30.27,M,6.21,M,M,M,M,M,M,M,M,M,M,M,M,M,M,M,M,66.20,LFMN 120530Z 33010KT CAVOK 19/14 Q1025 NOSIG,M
LFMN,LFMN,2019-09-12 06:00,68.00,57.20,68.35,330.00,9.00,0.00,30.27,M,6.21,M,M,M,M,M,M,M,M,M,M,M,M,M,M,M,M,68.00,LFMN 120600Z 33009KT CAVOK 20/14 Q1025 NOSIG,M
LFMN,LFMN,2019-09-12 06:30,68.00,57.20,68.35,330.00,10.00,0.00,30.30,M,6.21,M,M,M,M,M,M,M,M,M,M,M,M,M,M,M,M,68.00,LFMN 120630Z 33010KT CAVOK 20/14 Q1026 NOSIG,M
LFMN,LFMN,2019-09-12 07:00,69.80,57.20,64.26,330.00,9.00,0.00,30.30,M,6.21,M,M,M,M,M,M,M,M,M,M,M,M,M,M,M,M,69.80,LFMN 120700Z 33009KT CAVOK 21/14 Q1026 NOSIG,M
LFMN,LFMN,2019-09-12 07:30,71.60,57.20,60.44,330.00,9.00,0.00,30.30,M,6.21,M,M,M,M,M,M,M,M,M,M,M,M,M,M,M,M,71.60,LFMN 120730Z 33009KT CAVOK 22/14 Q1026 NOSIG,M
LFMN,LFMN,2019-09-12 08:00,75.20,59.00,57.12,330.00,8.00,0.00,30.33,M,6.21,M,M,M,M,M,M,M,M,M,M,M,M,M,M,M,M,75.20,LFMN 120800Z 33008KT CAVOK 24/15 Q1027 NOSIG,M
LFMN,LFMN,2019-09-12 08:30,77.00,59.00,53.80,330.00,10.00,0.00,30.33,M,6.21,M,M,M,M,M,M,M,M,M,M,M,M,M,M,M,M,77.00,LFMN 120830Z 33010KT CAVOK 25/15 Q1027 NOSIG,M
LFMN,LFMN,2019-09-12 09:00,78.80,57.20,47.52,330.00,9.00,0.00,30.33,M,6.21,M,M,M,M,M,M,M,M,M,M,M,M,M,M,M,M,78.80,LFMN 120900Z 33009KT CAVOK 26/14 Q1027 NOSIG,M
LFMN,LFMN,2019-09-12 09:30,82.40,55.40,39.58,340.00,5.00,0.00,30.33,M,6.21,M,M,M,M,M,M,M,M,M,M,M,M,M,M,M,M,81.75,LFMN 120930Z 34005KT CAVOK 28/13 Q1027 NOSIG,M
LFMN,LFMN,2019-09-12 10:00,82.40,57.20,42.25,M,3.00,0.00,30.33,M,6.21,M,M,M,M,M,M,M,M,M,M,M,M,M,M,M,M,82.08,LFMN 121000Z VRB03KT CAVOK 28/14 Q1027 NOSIG,M
LFMN,LFMN,2019-09-12 10:30,80.60,60.80,50.95,200.00,7.00,0.00,30.33,M,6.21,M,M,M,M,M,M,M,M,M,M,M,M,M,M,M,M,81.46,LFMN 121030Z 20007KT CAVOK 27/16 Q1027 NOSIG,M
LFMN,LFMN,2019-09-12 11:00,80.60,64.40,57.84,180.00,7.00,0.00,30.33,M,6.21,M,M,M,M,M,M,M,M,M,M,M,M,M,M,M,M,82.27,LFMN 121100Z 18007KT CAVOK 27/18 Q1027 NOSIG,M
LFMN,LFMN,2019-09-12 11:30,80.60,66.20,61.58,170.00,7.00,0.00,30.33,M,6.21,M,M,M,M,M,M,M,M,M,M,M,M,M,M,M,M,82.75,LFMN 121130Z 17007KT CAVOK 27/19 Q1027 NOSIG,M
LFMN,LFMN,2019-09-12 12:00,80.60,64.40,57.84,140.00,6.00,0.00,30.36,M,6.21,M,M,M,M,M,M,M,M,M,M,M,M,M,M,M,M,82.27,LFMN 121200Z 14006KT CAVOK 27/18 Q1028 NOSIG,M
LFMN,LFMN,2019-09-12 12:30,78.80,62.60,57.60,130.00,6.00,0.00,30.36,M,6.21,M,M,M,M,M,M,M,M,M,M,M,M,M,M,M,M,78.80,LFMN 121230Z 13006KT CAVOK 26/17 Q1028 NOSIG,M
LFMN,LFMN,2019-09-12 13:00,78.80,60.80,54.05,140.00,6.00,0.00,30.33,M,6.21,M,M,M,M,M,M,M,M,M,M,M,M,M,M,M,M,78.80,LFMN 121300Z 14006KT CAVOK 26/16 Q1027 NOSIG,M
LFMN,LFMN,2019-09-12 13:30,78.80,64.40,61.36,130.00,5.00,0.00,30.33,M,6.21,M,FEW,M,M,M,5000.00,M,M,M,M,M,M,M,M,M,M,78.80,LFMN 121330Z 13005KT 9999 FEW050 26/18 Q1027 NOSIG,M
LFMN,LFMN,2019-09-12 14:00,78.80,62.60,57.60,150.00,4.00,0.00,30.33,M,6.21,M,M,M,M,M,M,M,M,M,M,M,M,M,M,M,M,78.80,LFMN 121400Z 15004KT CAVOK 26/17 Q1027 NOSIG,M
LFMN,LFMN,2019-09-12 14:30,78.80,62.60,57.60,160.00,4.00,0.00,30.33,M,6.21,M,M,M,M,M,M,M,M,M,M,M,M,M,M,M,M,78.80,LFMN 121430Z 16004KT CAVOK 26/17 Q1027 NOSIG,M
LFMN,LFMN,2019-09-12 15:00,78.80,62.60,57.60,160.00,3.00,0.00,30.33,M,6.21,M,M,M,M,M,M,M,M,M,M,M,M,M,M,M,M,78.80,LFMN 121500Z 16003KT CAVOK 26/17 Q1027 NOSIG,M
LFMN,LFMN,2019-09-12 15:30,78.80,62.60,57.60,M,2.00,0.00,30.33,M,6.21,M,FEW,M,M,M,8300.00,M,M,M,M,M,M,M,M,M,M,78.80,LFMN 121530Z VRB02KT 9999 FEW083 26/17 Q1027 NOSIG,M
LFMN,LFMN,2019-09-12 16:00,78.80,62.60,57.60,M,2.00,0.00,30.33,M,6.21,M,FEW,M,M,M,8300.00,M,M,M,M,M,M,M,M,M,M,78.80,LFMN 121600Z VRB02KT 9999 FEW083 26/17 Q1027 NOSIG,M
LFMN,LFMN,2019-09-12 16:30,78.80,62.60,57.60,M,2.00,0.00,30.33,M,6.21,M,FEW,M,M,M,8300.00,M,M,M,M,M,M,M,M,M,M,78.80,LFMN 121630Z VRB02KT 9999 FEW083 26/17 Q1027 NOSIG,M
LFMN,LFMN,2019-09-12 17:00,78.80,62.60,57.60,M,2.00,0.00,30.33,M,6.21,M,FEW,M,M,M,8300.00,M,M,M,M,M,M,M,M,M,M,78.80,LFMN 121700Z VRB02KT 9999 FEW083 26/17 Q1027 NOSIG,M
LFMN,LFMN,2019-09-12 17:30,77.00,60.80,57.36,M,1.00,0.00,30.33,M,6.21,M,FEW,M,M,M,8300.00,M,M,M,M,M,M,M,M,M,M,77.00,LFMN 121730Z VRB01KT 9999 FEW083 25/16 Q1027 NOSIG,M
LFMN,LFMN,2019-09-12 18:00,77.00,60.80,57.36,0.00,0.00,0.00,30.33,M,6.21,M,M,M,M,M,M,M,M,M,M,M,M,M,M,M,M,77.00,LFMN 121800Z 00000KT CAVOK 25/16 Q1027 NOSIG,M
LFMN,LFMN,2019-09-12 18:42,75.20,59.00,57.12,240.00,3.00,0.00,30.33,M,6.21,M,M,M,M,M,M,M,M,M,M,M,M,M,M,M,M,75.20,LFMN 121842Z 24003KT CAVOK 24/15 Q1027 NOSIG,M
LFMN,LFMN,2019-09-12 19:00,75.20,59.00,57.12,240.00,3.00,0.00,30.33,M,6.21,M,M,M,M,M,M,M,M,M,M,M,M,M,M,M,M,75.20,LFMN 121900Z 24003KT CAVOK 24/15 Q1027 NOSIG,M
LFMN,LFMN,2019-09-12 19:30,75.20,57.20,53.55,320.00,4.00,0.00,30.33,M,6.21,M,M,M,M,M,M,M,M,M,M,M,M,M,M,M,M,75.20,LFMN 121930Z 32004KT 280V340 CAVOK 24/14 Q1027 NOSIG,M
LFMN,LFMN,2019-09-12 20:00,73.40,59.00,60.67,330.00,6.00,0.00,30.33,M,6.21,M,M,M,M,M,M,M,M,M,M,M,M,M,M,M,M,73.40,LFMN 122000Z 33006KT CAVOK 23/15 Q1027 NOSIG,M
LFMN,LFMN,2019-09-12 20:30,73.40,59.00,60.67,330.00,9.00,0.00,30.33,M,6.21,M,M,M,M,M,M,M,M,M,M,M,M,M,M,M,M,73.40,LFMN 122030Z 33009KT CAVOK 23/15 Q1027 NOSIG,M
LFMN,LFMN,2019-09-12 21:00,73.40,57.20,56.88,330.00,10.00,0.00,30.33,M,6.21,M,M,M,M,M,M,M,M,M,M,M,M,M,M,M,M,73.40,LFMN 122100Z 33010KT CAVOK 23/14 Q1027 NOSIG,M
LFMN,LFMN,2019-09-12 21:30,73.40,57.20,56.88,330.00,8.00,0.00,30.33,M,6.21,M,M,M,M,M,M,M,M,M,M,M,M,M,M,M,M,73.40,LFMN 122130Z 33008KT CAVOK 23/14 Q1027 NOSIG,M
LFMN,LFMN,2019-09-12 22:00,73.40,57.20,56.88,330.00,9.00,0.00,30.33,M,6.21,M,M,M,M,M,M,M,M,M,M,M,M,M,M,M,M,73.40,LFMN 122200Z 33009KT CAVOK 23/14 Q1027 NOSIG,M
LFMN,LFMN,2019-09-12 22:30,73.40,57.20,56.88,330.00,7.00,0.00,30.33,M,6.21,M,M,M,M,M,M,M,M,M,M,M,M,M,M,M,M,73.40,LFMN 122230Z 33007KT CAVOK 23/14 Q1027 NOSIG,M
LFMN,LFMN,2019-09-12 23:00,71.60,57.20,60.44,330.00,8.00,0.00,30.33,M,6.21,M,M,M,M,M,M,M,M,M,M,M,M,M,M,M,M,71.60,LFMN 122300Z 33008KT CAVOK 22/14 Q1027 NOSIG,M
LFMN,LFMN,2019-09-12 23:30,71.60,57.20,60.44,330.00,9.00,0.00,30.33,M,6.21,M,M,M,M,M,M,M,M,M,M,M,M,M,M,M,M,71.60,LFMN 122330Z 33009KT CAVOK 22/14 Q1027 NOSIG,M
LFMO,LFMO,2019-09-12 00:00,68.00,42.80,40.00,340.00,14.00,0.00,30.27,M,6.21,M,M,M,M,M,M,M,M,M,M,M,M,M,M,M,M,68.00,LFMO 120000Z AUTO 34014KT CAVOK 20/06 Q1025 NOSIG,M
LFMO,LFMO,2019-09-12 00:30,66.20,42.80,42.57,320.00,12.00,0.00,30.27,M,6.21,M,M,M,M,M,M,M,M,M,M,M,M,M,M,M,M,66.20,LFMO 120030Z AUTO 32012KT CAVOK 19/06 Q1025 NOSIG,M
LFMO,LFMO,2019-09-12 01:00,68.00,44.60,42.85,340.00,16.00,0.00,30.24,M,6.21,M,M,M,M,M,M,M,M,M,M,M,M,M,M,M,M,68.00,LFMO 120100Z AUTO 34016KT CAVOK 20/07 Q1024 NOSIG,M
LFMO,LFMO,2019-09-12 01:30,68.00,44.60,42.85,340.00,16.00,0.00,30.24,M,6.21,M,M,M,M,M,M,M,M,M,M,M,M,M,M,M,M,68.00,LFMO 120130Z AUTO 34016KT CAVOK 20/07 Q1024 NOSIG,M
LFMO,LFMO,2019-09-12 02:00,68.00,44.60,42.85,350.00,15.00,0.00,30.24,M,6.21,M,M,M,M,M,M,M,M,M,M,M,M,M,M,M,M,68.00,LFMO 120200Z AUTO 35015KT CAVOK 20/07 Q1024 NOSIG,M
LFMO,LFMO,2019-09-12 02:30,68.00,44.60,42.85,350.00,13.00,0.00,30.24,M,6.21,M,M,M,M,M,M,M,M,M,M,M,M,M,M,M,M,68.00,LFMO 120230Z AUTO 35013KT CAVOK 20/07 Q1024 NOSIG,M
LFMO,LFMO,2019-09-12 03:00,68.00,44.60,42.85,350.00,17.00,0.00,30.24,M,6.21,M,M,M,M,M,M,M,M,M,M,M,M,M,M,M,M,68.00,LFMO 120300Z AUTO 35017KT CAVOK 20/07 Q1024 NOSIG,M
LFMO,LFMO,2019-09-12 03:30,66.20,44.60,45.60,350.00,16.00,0.00,30.24,M,6.21,M,M,M,M,M,M,M,M,M,M,M,M,M,M,M,M,66.20,LFMO 120330Z AUTO 35016KT CAVOK 19/07 Q1024 NOSIG,M
LFMO,LFMO,2019-09-12 04:00,66.20,46.40,48.83,350.00,16.00,0.00,30.24,M,6.21,M,M,M,M,M,M,M,M,M,M,M,M,M,M,M,M,66.20,LFMO 120400Z AUTO 35016KT CAVOK 19/08 Q1024 NOSIG,M
LFMO,LFMO,2019-09-12 04:30,66.20,46.40,48.83,350.00,16.00,0.00,30.27,M,6.21,M,M,M,M,M,M,M,M,M,M,M,M,M,M,M,M,66.20,LFMO 120430Z AUTO 35016KT CAVOK 19/08 Q1025 NOSIG,M
LFMO,LFMO,2019-09-12 05:00,66.20,46.40,48.83,350.00,13.00,0.00,30.27,M,6.21,M,M,M,M,M,M,M,M,M,M,M,M,M,M,M,M,66.20,LFMO 120500Z AUTO 35013KT CAVOK 19/08 Q1025 NOSIG,M
LFMO,LFMO,2019-09-12 05:30,66.20,46.40,48.83,360.00,11.00,0.00,30.30,M,6.21,M,M,M,M,M,M,M,M,M,M,M,M,M,M,M,M,66.20,LFMO 120530Z AUTO 36011KT CAVOK 19/08 Q1026 NOSIG,M
LFMO,LFMO,2019-09-12 06:00,66.20,48.20,52.25,350.00,15.00,0.00,30.30,M,6.21,M,M,M,M,M,M,M,M,M,M,M,M,M,M,M,M,66.20,LFMO 120600Z AUTO 35015KT CAVOK 19/09 Q1026 NOSIG,M
LFMO,LFMO,2019-09-12 06:30,68.00,48.20,49.10,360.00,13.00,0.00,30.33,M,6.21,M,M,M,M,M,M,M,M,M,M,M,M,M,M,M,M,68.00,LFMO 120630Z AUTO 36013KT CAVOK 20/09 Q1027 NOSIG,M
LFMO,LFMO,2019-09-12 07:00,69.80,48.20,46.16,360.00,10.00,0.00,30.33,M,6.21,M,M,M,M,M,M,M,M,M,M,M,M,M,M,M,M,69.80,LFMO 120700Z AUTO 36010KT CAVOK 21/09 Q1027 NOSIG,M
LFMO,LFMO,2019-09-12 07:30,71.60,50.00,46.43,360.00,13.00,0.00,30.33,M,6.21,M,M,M,M,M,M,M,M,M,M,M,M,M,M,M,M,71.60,LFMO 120730Z AUTO 36013KT CAVOK 22/10 Q1027 NOSIG,M
LFMO,LFMO,2019-09-12 08:00,73.40,50.00,43.69,350.00,12.00,0.00,30.36,M,6.21,M,M,M,M,M,M,M,M,M,M,M,M,M,M,M,M,73.40,LFMO 120800Z AUTO 35012KT CAVOK 23/10 Q1028 NOSIG,M
LFMO,LFMO,2019-09-12 08:30,75.20,50.00,41.14,350.00,13.00,0.00,30.36,M,6.21,M,M,M,M,M,M,M,M,M,M,M,M,M,M,M,M,75.20,LFMO 120830Z AUTO 35013KT CAVOK 24/10 Q1028 NOSIG,M
LFMO,LFMO,2019-09-12 09:00,77.00,50.00,38.74,360.00,11.00,0.00,30.36,M,6.21,M,M,M,M,M,M,M,M,M,M,M,M,M,M,M,M,77.00,LFMO 120900Z AUTO 36011KT CAVOK 25/10 Q1028 NOSIG,M
LFMO,LFMO,2019-09-12 09:30,80.60,51.80,36.79,350.00,11.00,0.00,30.36,M,6.21,M,M,M,M,M,M,M,M,M,M,M,M,M,M,M,M,80.08,LFMO 120930Z AUTO 35011KT CAVOK 27/11 Q1028 NOSIG,M
LFMO,LFMO,2019-09-12 10:00,80.60,50.00,34.41,10.00,12.00,0.00,30.36,M,6.21,M,M,M,M,M,M,M,M,M,M,M,M,M,M,M,M,79.88,LFMO 121000Z AUTO 01012KT CAVOK 27/10 Q1028 NOSIG,M
LFMO,LFMO,2019-09-12 10:30,82.40,50.00,32.46,360.00,11.00,0.00,30.39,M,6.21,M,M,M,M,M,M,M,M,M,M,M,M,M,M,M,M,80.99,LFMO 121030Z AUTO 36011KT CAVOK 28/10 Q1029 NOSIG,M
LFMO,LFMO,2019-09-12 11:00,84.20,50.00,30.62,360.00,7.00,0.00,30.36,M,6.21,M,M,M,M,M,M,M,M,M,M,M,M,M,M,M,M,82.24,LFMO 121100Z AUTO 36007KT 270V030 CAVOK 29/10 Q1028 NOSIG,M
LFMO,LFMO,2019-09-12 11:30,84.20,51.80,32.73,340.00,7.00,0.00,30.36,M,6.21,M,M,M,M,M,M,M,M,M,M,M,M,M,M,M,M,82.48,LFMO 121130Z AUTO 34007KT 280V010 CAVOK 29/11 Q1028 NOSIG,M
LFMO,LFMO,2019-09-12 12:00,84.20,50.00,30.62,310.00,5.00,0.00,30.36,M,6.21,M,M,M,M,M,M,M,M,M,M,M,M,M,M,M,M,82.24,LFMO 121200Z AUTO 31005KT 240V350 CAVOK 29/10 Q1028 BECMG 35015KT,M
LFMO,LFMO,2019-09-12 12:30,86.00,50.00,28.90,350.00,3.00,0.00,30.36,M,6.21,M,M,M,M,M,M,M,M,M,M,M,M,M,M,M,M,83.62,LFMO 121230Z AUTO 35003KT 280V090 CAVOK 30/10 Q1028 BECMG 35015KT,M
LFMO,LFMO,2019-09-12 13:00,87.80,50.00,27.29,M,4.00,0.00,30.33,M,6.21,M,M,M,M,M,M,M,M,M,M,M,M,M,M,M,M,85.11,LFMO 121300Z AUTO VRB04KT CAVOK 31/10 Q1027 BECMG 35015KT,M
LFMO,LFMO,2019-09-12 13:30,87.80,51.80,29.18,340.00,6.00,0.00,30.33,M,6.21,M,M,M,M,M,M,M,M,M,M,M,M,M,M,M,M,85.39,LFMO 121330Z AUTO 34006KT 290V060 CAVOK 31/11 Q1027 NOSIG,M
LFMO,LFMO,2019-09-12 14:00,87.80,51.80,29.18,360.00,6.00,0.00,30.33,M,6.21,M,M,M,M,M,M,M,M,M,M,M,M,M,M,M,M,85.39,LFMO 121400Z AUTO 36006KT 300V050 CAVOK 31/11 Q1027 NOSIG,M
LFMO,LFMO,2019-09-12 14:30,87.80,51.80,29.18,340.00,6.00,0.00,30.33,M,6.21,M,M,M,M,M,M,M,M,M,M,M,M,M,M,M,M,85.39,LFMO 121430Z AUTO 34006KT 270V030 CAVOK 31/11 Q1027 NOSIG,M
LFMO,LFMO,2019-09-12 15:00,89.60,50.00,25.79,340.00,5.00,0.00,30.33,M,6.21,M,M,M,M,M,M,M,M,M,M,M,M,M,M,M,M,86.70,LFMO 121500Z AUTO 34005KT 270V040 CAVOK 32/10 Q1027 NOSIG,M
LFMO,LFMO,2019-09-12 15:30,89.60,50.00,25.79,330.00,5.00,0.00,30.33,M,6.21,M,NSC,M,M,M,M,M,M,M,M,M,M,M,M,M,M,86.70,LFMO 121530Z AUTO 33005KT 280V360 9999 NSC 32/10 Q1027 NOSIG,M
LFMO,LFMO,2019-09-12 16:00,87.80,50.00,27.29,360.00,7.00,0.00,30.33,M,6.21,M,M,M,M,M,M,M,M,M,M,M,M,M,M,M,M,85.11,LFMO 121600Z AUTO 36007KT 320V030 CAVOK 31/10 Q1027 NOSIG,M
LFMO,LFMO,2019-09-12 16:30,87.80,48.20,25.52,350.00,9.00,0.00,30.33,M,6.21,M,M,M,M,M,M,M,M,M,M,M,M,M,M,M,M,84.87,LFMO 121630Z AUTO 35009KT CAVOK 31/09 Q1027 NOSIG,M
LFMO,LFMO,2019-09-12 17:00,84.20,46.40,26.76,350.00,10.00,0.00,30.33,M,6.21,M,M,M,M,M,M,M,M,M,M,M,M,M,M,M,M,81.87,LFMO 121700Z AUTO 35010KT CAVOK 29/08 Q1027 NOSIG,M
LFMO,LFMO,2019-09-12 17:30,82.40,46.40,28.36,350.00,10.00,0.00,30.33,M,6.21,M,M,M,M,M,M,M,M,M,M,M,M,M,M,M,M,80.64,LFMO 121730Z AUTO 35010KT CAVOK 28/08 Q1027 NOSIG,M
LFMO,LFMO,2019-09-12 18:00,80.60,44.60,28.08,350.00,9.00,0.00,30.33,M,6.21,M,M,M,M,M,M,M,M,M,M,M,M,M,M,M,M,79.42,LFMO 121800Z AUTO 35009KT CAVOK 27/07 Q1027 NOSIG,M
LFMO,LFMO,2019-09-12 18:30,77.00,46.40,33.85,330.00,6.00,0.00,30.33,M,6.21,M,M,M,M,M,M,M,M,M,M,M,M,M,M,M,M,77.00,LFMO 121830Z AUTO 33006KT CAVOK 25/08 Q1027 NOSIG,M
LFMO,LFMO,2019-09-12 19:00,77.00,46.40,33.85,330.00,7.00,0.00,30.33,M,6.21,M,M,M,M,M,M,M,M,M,M,M,M,M,M,M,M,77.00,LFMO 121900Z AUTO 33007KT 300V360 CAVOK 25/08 Q1027 NOSIG,M
LFMO,LFMO,2019-09-12 19:30,75.20,46.40,35.94,340.00,10.00,0.00,30.36,M,6.21,M,M,M,M,M,M,M,M,M,M,M,M,M,M,M,M,75.20,LFMO 121930Z AUTO 34010KT CAVOK 24/08 Q1028 NOSIG,M
LFMO,LFMO,2019-09-12 20:00,75.20,44.60,33.57,330.00,10.00,0.00,30.36,M,6.21,M,M,M,M,M,M,M,M,M,M,M,M,M,M,M,M,75.20,LFMO 122000Z AUTO 33010KT CAVOK 24/07 Q1028 NOSIG,M
LFMO,LFMO,2019-09-12 20:30,75.20,44.60,33.57,350.00,9.00,0.00,30.36,M,6.21,M,M,M,M,M,M,M,M,M,M,M,M,M,M,M,M,75.20,LFMO 122030Z AUTO 35009KT CAVOK 24/07 Q1028 NOSIG,M
LFMO,LFMO,2019-09-12 21:00,75.20,44.60,33.57,350.00,9.00,0.00,30.36,M,6.21,M,M,M,M,M,M,M,M,M,M,M,M,M,M,M,M,75.20,LFMO 122100Z AUTO 35009KT CAVOK 24/07 Q1028 NOSIG,M
LFMO,LFMO,2019-09-12 21:30,71.60,44.60,37.89,350.00,7.00,0.00,30.36,M,6.21,M,M,M,M,M,M,M,M,M,M,M,M,M,M,M,M,71.60,LFMO 122130Z AUTO 35007KT CAVOK 22/07 Q1028 NOSIG,M
LFMO,LFMO,2019-09-12 22:00,69.80,46.40,43.13,20.00,5.00,0.00,30.36,M,6.21,M,M,M,M,M,M,M,M,M,M,M,M,M,M,M,M,69.80,LFMO 122200Z AUTO 02005KT CAVOK 21/08 Q1028 NOSIG,M
LFMO,LFMO,2019-09-12 22:30,69.80,46.40,43.13,M,2.00,0.00,30.36,M,6.21,M,M,M,M,M,M,M,M,M,M,M,M,M,M,M,M,69.80,LFMO 122230Z AUTO VRB02KT CAVOK 21/08 Q1028 BECMG 35012KT,M
LFMO,LFMO,2019-09-12 23:00,71.60,48.20,43.42,340.00,10.00,0.00,30.36,M,6.21,M,M,M,M,M,M,M,M,M,M,M,M,M,M,M,M,71.60,LFMO 122300Z AUTO 34010KT CAVOK 22/09 Q1028 NOSIG,M
LFMO,LFMO,2019-09-12 23:30,73.40,48.20,40.85,350.00,9.00,0.00,30.36,M,6.21,M,M,M,M,M,M,M,M,M,M,M,M,M,M,M,M,73.40,LFMO 122330Z AUTO 35009KT CAVOK 23/09 Q1028 NOSIG,M
LFMP,LFMP,2019-09-12 00:00,71.60,48.20,43.42,320.00,15.00,0.00,30.30,M,6.21,M,M,M,M,M,M,M,M,M,M,M,M,M,M,M,M,71.60,LFMP 120000Z AUTO 32015KT CAVOK 22/09 Q1026,M
LFMP,LFMP,2019-09-12 00:30,71.60,48.20,43.42,320.00,14.00,0.00,30.30,M,6.21,M,M,M,M,M,M,M,M,M,M,M,M,M,M,M,M,71.60,LFMP 120030Z AUTO 32014KT CAVOK 22/09 Q1026,M
LFMP,LFMP,2019-09-12 01:00,69.80,48.20,46.16,310.00,12.00,0.00,30.30,M,6.21,M,M,M,M,M,M,M,M,M,M,M,M,M,M,M,M,69.80,LFMP 120100Z AUTO 31012KT CAVOK 21/09 Q1026,M
LFMP,LFMP,2019-09-12 01:30,69.80,48.20,46.16,310.00,15.00,0.00,30.30,M,6.21,M,M,M,M,M,M,M,M,M,M,M,M,M,M,M,M,69.80,LFMP 120130Z AUTO 31015KT CAVOK 21/09 Q1026,M
LFMP,LFMP,2019-09-12 02:00,69.80,48.20,46.16,310.00,14.00,0.00,30.30,M,6.21,M,M,M,M,M,M,M,M,M,M,M,M,M,M,M,M,69.80,LFMP 120200Z AUTO 31014KT CAVOK 21/09 Q1026,M
LFMP,LFMP,2019-09-12 02:30,69.80,48.20,46.16,320.00,16.00,0.00,30.30,M,6.21,M,M,M,M,M,M,M,M,M,M,M,M,M,M,M,M,69.80,LFMP 120230Z AUTO 32016KT CAVOK 21/09 Q1026,M
LFMP,LFMP,2019-09-12 03:00,68.00,48.20,49.10,310.00,15.00,0.00,30.30,M,6.21,M,M,M,M,M,M,M,M,M,M,M,M,M,M,M,M,68.00,LFMP 120300Z AUTO 31015KT CAVOK 20/09 Q1026,M
LFMP,LFMP,2019-09-12 03:30,68.00,48.20,49.10,310.00,15.00,0.00,30.30,M,6.21,M,M,M,M,M,M,M,M,M,M,M,M,M,M,M,M,68.00,LFMP 120330Z AUTO 31015KT CAVOK 20/09 Q1026 NOSIG,M
LFMP,LFMP,2019-09-12 04:00,69.80,46.40,43.13,310.00,17.00,0.00,30.30,M,6.21,M,M,M,M,M,M,M,M,M,M,M,M,M,M,M,M,69.80,LFMP 120400Z AUTO 31017KT CAVOK 21/08 Q1026 NOSIG,M
LFMP,LFMP,2019-09-12 04:30,69.80,46.40,43.13,300.00,17.00,0.00,30.30,M,6.21,M,M,M,M,M,M,M,M,M,M,M,M,M,M,M,M,69.80,LFMP 120430Z AUTO 30017KT CAVOK 21/08 Q1026 NOSIG,M
LFMP,LFMP,2019-09-12 05:00,69.80,46.40,43.13,310.00,16.00,0.00,30.30,M,6.21,M,M,M,M,M,M,M,M,M,M,M,M,M,M,M,M,69.80,LFMP 120500Z AUTO 31016KT CAVOK 21/08 Q1026 NOSIG,M
LFMP,LFMP,2019-09-12 05:30,69.80,46.40,43.13,310.00,15.00,0.00,30.30,M,6.21,M,M,M,M,M,M,M,M,M,M,M,M,M,M,M,M,69.80,LFMP 120530Z AUTO 31015KT CAVOK 21/08 Q1026 NOSIG,M
LFMP,LFMP,2019-09-12 06:00,69.80,46.40,43.13,310.00,14.00,0.00,30.30,M,6.21,M,M,M,M,M,M,M,M,M,M,M,M,M,M,M,M,69.80,LFMP 120600Z AUTO 31014KT CAVOK 21/08 Q1026 NOSIG,M
LFMP,LFMP,2019-09-12 06:30,69.80,46.40,43.13,310.00,13.00,0.00,30.33,M,6.21,M,M,M,M,M,M,M,M,M,M,M,M,M,M,M,M,69.80,LFMP 120630Z AUTO 31013KT CAVOK 21/08 Q1027 NOSIG,M
LFMP,LFMP,2019-09-12 07:00,73.40,46.40,38.18,290.00,8.00,0.00,30.33,M,6.21,M,M,M,M,M,M,M,M,M,M,M,M,M,M,M,M,73.40,LFMP 120700Z AUTO 29008KT 260V320 CAVOK 23/08 Q1027 NOSIG,M
LFMP,LFMP,2019-09-12 07:30,75.20,48.20,38.46,310.00,9.00,0.00,30.33,M,6.21,M,M,M,M,M,M,M,M,M,M,M,M,M,M,M,M,75.20,LFMP 120730Z AUTO 31009KT 280V340 CAVOK 24/09 Q1027 NOSIG,M
LFMP,LFMP,2019-09-12 08:00,75.20,46.40,35.94,320.00,11.00,0.00,30.36,M,6.21,M,M,M,M,M,M,M,M,M,M,M,M,M,M,M,M,75.20,LFMP 120800Z AUTO 32011KT CAVOK 24/08 Q1028 NOSIG,M
LFMP,LFMP,2019-09-12 08:30,77.00,48.20,36.22,330.00,9.00,0.00,30.36,M,6.21,M,M,M,M,M,M,M,M,M,M,M,M,M,M,M,M,77.00,LFMP 120830Z AUTO 33009KT CAVOK 25/09 Q1028 NOSIG,M
LFMP,LFMP,2019-09-12 09:00,78.80,46.40,31.90,330.00,10.00,0.00,30.39,M,6.21,M,M,M,M,M,M,M,M,M,M,M,M,M,M,M,M,78.80,LFMP 120900Z AUTO 33010KT 290V360 CAVOK 26/08 Q1029 NOSIG,M
LFMP,LFMP,2019-09-12 09:30,80.60,46.40,30.07,320.00,10.00,0.00,30.39,M,6.21,M,NCD,M,M,M,M,M,M,M,M,M,M,M,M,M,M,79.56,LFMP 120930Z AUTO 32010KT 290V360 9999 NCD 27/08 Q1029 NOSIG,M
LFMP,LFMP,2019-09-12 10:00,80.60,44.60,28.08,330.00,14.00,0.00,30.39,M,6.21,M,M,M,M,M,M,M,M,M,M,M,M,M,M,M,M,79.42,LFMP 121000Z AUTO 33014KT 300V010 CAVOK 27/07 Q1029 NOSIG,M
LFMP,LFMP,2019-09-12 10:30,82.40,44.60,26.49,340.00,13.00,0.00,30.39,M,6.21,M,M,M,M,M,M,M,M,M,M,M,M,M,M,M,M,80.50,LFMP 121030Z AUTO 34013KT CAVOK 28/07 Q1029 NOSIG,M
LFMP,LFMP,2019-09-12 11:00,82.40,44.60,26.49,340.00,11.00,0.00,30.39,M,6.21,M,M,M,M,M,M,M,M,M,M,M,M,M,M,M,M,80.50,LFMP 121100Z AUTO 34011KT 300V010 CAVOK 28/07 Q1029 NOSIG,M
LFMP,LFMP,2019-09-12 11:30,84.20,42.80,23.33,350.00,11.00,0.00,30.36,M,6.21,M,M,M,M,M,M,M,M,M,M,M,M,M,M,M,M,81.61,LFMP 121130Z AUTO 35011KT 320V030 CAVOK 29/06 Q1028 NOSIG,M
LFMP,LFMP,2019-09-12 12:00,84.20,44.60,24.99,360.00,11.00,0.00,30.36,M,6.21,M,M,M,M,M,M,M,M,M,M,M,M,M,M,M,M,81.73,LFMP 121200Z AUTO 36011KT 320V030 CAVOK 29/07 Q1028 NOSIG,M
LFMP,LFMP,2019-09-12 12:30,84.20,44.60,24.99,360.00,9.00,0.00,30.36,M,6.21,M,M,M,M,M,M,M,M,M,M,M,M,M,M,M,M,81.73,LFMP 121230Z AUTO 36009KT 320V040 CAVOK 29/07 Q1028 NOSIG,M
LFMP,LFMP,2019-09-12 13:00,86.00,42.80,22.02,340.00,9.00,0.00,30.36,M,6.21,M,M,M,M,M,M,M,M,M,M,M,M,M,M,M,M,82.95,LFMP 121300Z AUTO 34009KT 310V010 CAVOK 30/06 Q1028 NOSIG,M
LFMP,LFMP,2019-09-12 13:30,86.00,44.60,23.59,340.00,9.00,0.00,30.36,M,6.21,M,FEW,M,M,M,1100.00,M,M,M,M,M,M,M,M,M,M,83.07,LFMP 121330Z AUTO 34009KT 300V020 9999 FEW011 30/07 Q1028 NOSIG,M
LFMP,LFMP,2019-09-12 14:00,86.00,46.40,25.26,350.00,6.00,0.00,30.36,M,6.21,M,M,M,M,M,M,M,M,M,M,M,M,M,M,M,M,83.22,LFMP 121400Z AUTO 35006KT 260V050 CAVOK 30/08 Q1028 NOSIG,M
LFMP,LFMP,2019-09-12 14:30,86.00,44.60,23.59,10.00,9.00,0.00,30.33,M,6.21,M,M,M,M,M,M,M,M,M,M,M,M,M,M,M,M,83.07,LFMP 121430Z AUTO 01009KT 290V070 CAVOK 30/07 Q1027 NOSIG,M
LFMP,LFMP,2019-09-12 15:00,86.00,44.60,23.59,340.00,5.00,0.00,30.33,M,6.21,M,M,M,M,M,M,M,M,M,M,M,M,M,M,M,M,83.07,LFMP 121500Z AUTO 34005KT 290V020 CAVOK 30/07 Q1027 NOSIG,M
LFMP,LFMP,2019-09-12 15:30,86.00,44.60,23.59,340.00,6.00,0.00,30.33,M,6.21,M,NSC,M,M,M,M,M,M,M,M,M,M,M,M,M,M,83.07,LFMP 121530Z AUTO 34006KT 300V030 9999 NSC 30/07 Q1027 NOSIG,M
LFMP,LFMP,2019-09-12 16:00,86.00,44.60,23.59,350.00,7.00,0.00,30.33,M,6.21,M,M,M,M,M,M,M,M,M,M,M,M,M,M,M,M,83.07,LFMP 121600Z AUTO 35007KT 300V020 CAVOK 30/07 Q1027 NOSIG,M
LFMP,LFMP,2019-09-12 16:30,86.00,44.60,23.59,350.00,7.00,0.00,30.33,M,6.21,M,M,M,M,M,M,M,M,M,M,M,M,M,M,M,M,83.07,LFMP 121630Z AUTO 35007KT 320V020 CAVOK 30/07 Q1027 NOSIG,M
LFMP,LFMP,2019-09-12 17:00,84.20,42.80,23.33,340.00,6.00,0.00,30.33,M,6.21,M,M,M,M,M,M,M,M,M,M,M,M,M,M,M,M,81.61,LFMP 121700Z AUTO 34006KT CAVOK 29/06 Q1027 NOSIG,M
LFMP,LFMP,2019-09-12 17:30,82.40,46.40,28.36,310.00,4.00,0.00,30.36,M,6.21,M,FEW,M,M,M,800.00,M,M,M,M,M,M,M,M,M,M,80.64,LFMP 121730Z AUTO 31004KT 290V350 9999 FEW008 28/08 Q1028 NOSIG,M
LFMP,LFMP,2019-09-12 18:00,78.80,48.20,34.13,300.00,4.00,0.00,30.36,M,6.21,M,M,M,M,M,M,M,M,M,M,M,M,M,M,M,M,78.80,LFMP 121800Z AUTO 30004KT CAVOK 26/09 Q1028 TEMPO 36010KT,M
LFMP,LFMP,2019-09-12 18:30,75.20,50.00,41.14,80.00,4.00,0.00,30.36,M,6.21,M,M,M,M,M,M,M,M,M,M,M,M,M,M,M,M,75.20,LFMP 121830Z AUTO 08004KT 050V110 CAVOK 24/10 Q1028 NOSIG,M
LFMP,LFMP,2019-09-12 19:00,75.20,50.00,41.14,M,1.00,0.00,30.36,M,6.21,M,M,M,M,M,M,M,M,M,M,M,M,M,M,M,M,75.20,LFMP 121900Z AUTO VRB01KT CAVOK 24/10 Q1028 NOSIG,M
LFMP,LFMP,2019-09-12 19:30,71.60,51.80,49.64,M,2.00,0.00,30.36,M,6.21,M,M,M,M,M,M,M,M,M,M,M,M,M,M,M,M,71.60,LFMP 121930Z AUTO VRB02KT CAVOK 22/11 Q1028 NOSIG,M
LFMP,LFMP,2019-09-12 20:00,71.60,50.00,46.43,M,2.00,0.00,30.36,M,6.21,M,M,M,M,M,M,M,M,M,M,M,M,M,M,M,M,71.60,LFMP 122000Z AUTO VRB02KT CAVOK 22/10 Q1028 NOSIG,M
LFMP,LFMP,2019-09-12 20:30,69.80,50.00,49.37,260.00,5.00,0.00,30.36,M,6.21,M,M,M,M,M,M,M,M,M,M,M,M,M,M,M,M,69.80,LFMP 122030Z AUTO 26005KT CAVOK 21/10 Q1028 NOSIG,M
LFMP,LFMP,2019-09-12 21:00,69.80,50.00,49.37,260.00,3.00,0.00,30.36,M,6.21,M,M,M,M,M,M,M,M,M,M,M,M,M,M,M,M,69.80,LFMP 122100Z AUTO 26003KT 230V320 CAVOK 21/10 Q1028 NOSIG,M
LFMP,LFMP,2019-09-12 21:30,69.80,50.00,49.37,250.00,6.00,0.00,30.36,M,6.21,M,M,M,M,M,M,M,M,M,M,M,M,M,M,M,M,69.80,LFMP 122130Z AUTO 25006KT CAVOK 21/10 Q1028 NOSIG,M
LFMP,LFMP,2019-09-12 22:00,69.80,51.80,52.77,250.00,5.00,0.00,30.36,M,6.21,M,M,M,M,M,M,M,M,M,M,M,M,M,M,M,M,69.80,LFMP 122200Z AUTO 25005KT CAVOK 21/11 Q1028,M
LFMP,LFMP,2019-09-12 22:30,66.20,53.60,63.82,210.00,6.00,0.00,30.39,M,6.21,M,M,M,M,M,M,M,M,M,M,M,M,M,M,M,M,66.20,LFMP 122230Z AUTO 21006KT CAVOK 19/12 Q1029,M
LFMP,LFMP,2019-09-12 23:00,66.20,53.60,63.82,250.00,4.00,0.00,30.36,M,6.21,M,M,M,M,M,M,M,M,M,M,M,M,M,M,M,M,66.20,LFMP 122300Z AUTO 25004KT CAVOK 19/12 Q1028,M
LFMP,LFMP,2019-09-12 23:30,66.20,51.80,59.74,260.00,6.00,0.00,30.36,M,6.21,M,M,M,M,M,M,M,M,M,M,M,M,M,M,M,M,66.20,LFMP 122330Z AUTO 26006KT CAVOK 19/11 Q1028,M
LFMT,LFMT,2019-09-12 00:00,64.40,50.00,59.50,360.00,7.00,0.00,30.27,M,6.21,M,M,M,M,M,M,M,M,M,M,M,M,M,M,M,M,64.40,LFMT 120000Z AUTO 36007KT CAVOK 18/10 Q1025 NOSIG,M
LFMT,LFMT,2019-09-12 00:30,66.20,50.00,55.88,360.00,8.00,0.00,30.27,M,6.21,M,M,M,M,M,M,M,M,M,M,M,M,M,M,M,M,66.20,LFMT 120030Z AUTO 36008KT 340V050 CAVOK 19/10 Q1025 NOSIG,M
LFMT,LFMT,2019-09-12 01:00,62.60,50.00,63.38,10.00,10.00,0.00,30.24,M,6.21,M,M,M,M,M,M,M,M,M,M,M,M,M,M,M,M,62.60,LFMT 120100Z AUTO 01010KT CAVOK 17/10 Q1024 NOSIG,M
LFMT,LFMT,2019-09-12 01:30,64.40,50.00,59.50,10.00,8.00,0.00,30.27,M,6.21,M,M,M,M,M,M,M,M,M,M,M,M,M,M,M,M,64.40,LFMT 120130Z AUTO 01008KT CAVOK 18/10 Q1025 NOSIG,M
LFMT,LFMT,2019-09-12 02:00,66.20,50.00,55.88,270.00,7.00,0.00,30.27,M,6.21,M,M,M,M,M,M,M,M,M,M,M,M,M,M,M,M,66.20,LFMT 120200Z AUTO 27007KT CAVOK 19/10 Q1025 NOSIG,M
LFMT,LFMT,2019-09-12 02:30,64.40,50.00,59.50,280.00,7.00,0.00,30.27,M,6.21,M,M,M,M,M,M,M,M,M,M,M,M,M,M,M,M,64.40,LFMT 120230Z AUTO 28007KT CAVOK 18/10 Q1025 NOSIG,M
LFMT,LFMT,2019-09-12 03:00,64.40,50.00,59.50,270.00,4.00,0.00,30.27,M,6.21,M,M,M,M,M,M,M,M,M,M,M,M,M,M,M,M,64.40,LFMT 120300Z AUTO 27004KT 250V310 CAVOK 18/10 Q1025 NOSIG,M
LFMT,LFMT,2019-09-12 03:30,62.60,48.20,59.26,310.00,4.00,0.00,30.27,M,6.21,M,M,M,M,M,M,M,M,M,M,M,M,M,M,M,M,62.60,LFMT 120330Z AUTO 31004KT 260V350 CAVOK 17/09 Q1025 NOSIG,M
LFMT,LFMT,2019-09-12 04:00,64.40,50.00,59.50,290.00,6.00,0.00,30.27,M,6.21,M,M,M,M,M,M,M,M,M,M,M,M,M,M,M,M,64.40,LFMT 120400Z AUTO 29006KT CAVOK 18/10 Q1025 NOSIG,M
LFMT,LFMT,2019-09-12 04:30,64.40,50.00,59.50,300.00,6.00,0.00,30.27,M,6.21,M,M,M,M,M,M,M,M,M,M,M,M,M,M,M,M,64.40,LFMT 120430Z AUTO 30006KT 270V340 CAVOK 18/10 Q1025 NOSIG,M
LFMT,LFMT,2019-09-12 05:00,62.60,48.20,59.26,290.00,4.00,0.00,30.30,M,6.21,M,M,M,M,M,M,M,M,M,M,M,M,M,M,M,M,62.60,LFMT 120500Z AUTO 29004KT 250V340 CAVOK 17/09 Q1026 NOSIG,M
LFMT,LFMT,2019-09-12 05:30,62.60,50.00,63.38,330.00,6.00,0.00,30.30,M,6.21,M,M,M,M,M,M,M,M,M,M,M,M,M,M,M,M,62.60,LFMT 120530Z AUTO 33006KT 310V020 CAVOK 17/10 Q1026 NOSIG,M
LFMT,LFMT,2019-09-12 06:00,62.60,50.00,63.38,340.00,7.00,0.00,30.30,M,6.21,M,M,M,M,M,M,M,M,M,M,M,M,M,M,M,M,62.60,LFMT 120600Z AUTO 34007KT CAVOK 17/10 Q1026 NOSIG,M
LFMT,LFMT,2019-09-12 06:30,68.00,50.00,52.51,310.00,4.00,0.00,30.33,M,6.21,M,M,M,M,M,M,M,M,M,M,M,M,M,M,M,M,68.00,LFMT 120630Z AUTO 31004KT CAVOK 20/10 Q1027 NOSIG,M
LFMT,LFMT,2019-09-12 07:00,68.00,48.20,49.10,280.00,6.00,0.00,30.33,M,6.21,M,M,M,M,M,M,M,M,M,M,M,M,M,M,M,M,68.00,LFMT 120700Z AUTO 28006KT CAVOK 20/09 Q1027 BECMG 35010KT,M
LFMT,LFMT,2019-09-12 07:30,71.60,48.20,43.42,290.00,5.00,0.00,30.36,M,6.21,M,M,M,M,M,M,M,M,M,M,M,M,M,M,M,M,71.60,LFMT 120730Z AUTO 29005KT 260V340 CAVOK 22/09 Q1028 NOSIG,M
LFMT,LFMT,2019-09-12 08:00,75.20,46.40,35.94,340.00,7.00,0.00,30.36,M,6.21,M,M,M,M,M,M,M,M,M,M,M,M,M,M,M,M,75.20,LFMT 120800Z AUTO 34007KT 300V020 CAVOK 24/08 Q1028 NOSIG,M
LFMT,LFMT,2019-09-12 08:30,77.00,44.60,31.62,10.00,11.00,0.00,30.36,M,6.21,M,M,M,M,M,M,M,M,M,M,M,M,M,M,M,M,77.00,LFMT 120830Z AUTO 01011KT 330V040 CAVOK 25/07 Q1028 NOSIG,M
LFMT,LFMT,2019-09-12 09:00,78.80,46.40,31.90,10.00,12.00,0.00,30.36,M,6.21,M,M,M,M,M,M,M,M,M,M,M,M,M,M,M,M,78.80,LFMT 120900Z AUTO 01012KT 330V040 CAVOK 26/08 Q1028 NOSIG,M
LFMT,LFMT,2019-09-12 09:30,80.60,48.20,32.18,10.00,9.00,0.00,30.36,M,6.21,M,M,M,M,M,M,M,M,M,M,M,M,M,M,M,M,79.71,LFMT 120930Z AUTO 01009KT 340V050 CAVOK 27/09 Q1028 NOSIG,M
LFMT,LFMT,2019-09-12 10:00,80.60,48.20,32.18,10.00,11.00,0.00,30.36,M,6.21,M,FEW,M,M,M,100.00,M,M,M,M,M,M,M,M,M,M,79.71,LFMT 121000Z AUTO 01011KT 350V060 9999 FEW001 27/09 Q1028 NOSIG,M
LFMT,LFMT,2019-09-12 10:30,84.20,51.80,32.73,70.00,11.00,0.00,30.36,M,6.21,M,M,M,M,M,M,M,M,M,M,M,M,M,M,M,M,82.48,LFMT 121030Z AUTO 07011KT CAVOK 29/11 Q1028 BECMG 18010KT,M
LFMT,LFMT,2019-09-12 11:00,82.40,53.60,37.07,100.00,7.00,0.00,30.36,M,6.21,M,M,M,M,M,M,M,M,M,M,M,M,M,M,M,M,81.46,LFMT 121100Z AUTO 10007KT 080V140 CAVOK 28/12 Q1028 TEMPO 36010KT,M
LFMT,LFMT,2019-09-12 11:30,82.40,51.80,34.69,90.00,9.00,0.00,30.36,M,6.21,M,M,M,M,M,M,M,M,M,M,M,M,M,M,M,M,81.20,LFMT 121130Z AUTO 09009KT CAVOK 28/11 Q1028 BECMG 18010KT,M
LFMT,LFMT,2019-09-12 12:00,84.20,53.60,34.97,110.00,7.00,0.00,30.36,M,6.21,M,M,M,M,M,M,M,M,M,M,M,M,M,M,M,M,82.76,LFMT 121200Z AUTO 11007KT 080V150 CAVOK 29/12 Q1028 NOSIG,M
LFMT,LFMT,2019-09-12 12:30,82.40,53.60,37.07,170.00,6.00,0.00,30.36,M,6.21,M,M,M,M,M,M,M,M,M,M,M,M,M,M,M,M,81.46,LFMT 121230Z AUTO 17006KT CAVOK 28/12 Q1028 NOSIG,M
LFMT,LFMT,2019-09-12 13:00,82.40,55.40,39.58,180.00,6.00,0.00,30.33,M,6.21,M,M,M,M,M,M,M,M,M,M,M,M,M,M,M,M,81.75,LFMT 121300Z AUTO 18006KT 150V210 CAVOK 28/13 Q1027 NOSIG,M
LFMT,LFMT,2019-09-12 13:30,80.60,55.40,41.97,200.00,7.00,0.00,30.33,M,6.21,M,M,M,M,M,M,M,M,M,M,M,M,M,M,M,M,80.53,LFMT 121330Z AUTO 20007KT CAVOK 27/13 Q1027 NOSIG,M
LFMT,LFMT,2019-09-12 14:00,80.60,55.40,41.97,210.00,7.00,0.00,30.33,M,6.21,M,M,M,M,M,M,M,M,M,M,M,M,M,M,M,M,80.53,LFMT 121400Z AUTO 21007KT CAVOK 27/13 Q1027 NOSIG,M
LFMT,LFMT,2019-09-12 14:30,82.40,53.60,37.07,200.00,6.00,0.00,30.33,M,6.21,M,M,M,M,M,M,M,M,M,M,M,M,M,M,M,M,81.46,LFMT 121430Z AUTO 20006KT 170V230 CAVOK 28/12 Q1027 NOSIG,M
LFMT,LFMT,2019-09-12 15:00,80.60,53.60,39.30,210.00,9.00,0.00,30.33,M,6.21,M,M,M,M,M,M,M,M,M,M,M,M,M,M,M,M,80.29,LFMT 121500Z AUTO 21009KT CAVOK 27/12 Q1027 NOSIG,M
LFMT,LFMT,2019-09-12 15:30,80.60,53.60,39.30,210.00,9.00,0.00,30.33,M,6.21,M,NSC,M,M,M,M,M,M,M,M,M,M,M,M,M,M,80.29,LFMT 121530Z AUTO 21009KT 9999 NSC 27/12 Q1027 NOSIG,M
LFMT,LFMT,2019-09-12 16:00,78.80,53.60,41.69,220.00,10.00,0.00,30.33,M,6.21,M,M,M,M,M,M,M,M,M,M,M,M,M,M,M,M,78.80,LFMT 121600Z AUTO 22010KT CAVOK 26/12 Q1027 NOSIG,M
LFMT,LFMT,2019-09-12 16:30,80.60,55.40,41.97,230.00,8.00,0.00,30.33,M,6.21,M,M,M,M,M,M,M,M,M,M,M,M,M,M,M,M,80.53,LFMT 121630Z AUTO 23008KT CAVOK 27/13 Q1027 NOSIG,M
LFMT,LFMT,2019-09-12 17:00,80.60,55.40,41.97,220.00,7.00,0.00,30.33,M,6.21,M,M,M,M,M,M,M,M,M,M,M,M,M,M,M,M,80.53,LFMT 121700Z AUTO 22007KT CAVOK 27/13 Q1027 NOSIG,M
LFMT,LFMT,2019-09-12 17:30,77.00,53.60,44.25,220.00,6.00,0.00,30.33,M,6.21,M,M,M,M,M,M,M,M,M,M,M,M,M,M,M,M,77.00,LFMT 121730Z AUTO 22006KT CAVOK 25/12 Q1027 NOSIG,M
LFMT,LFMT,2019-09-12 18:00,75.20,55.40,50.17,240.00,6.00,0.00,30.33,M,6.21,M,M,M,M,M,M,M,M,M,M,M,M,M,M,M,M,75.20,LFMT 121800Z AUTO 24006KT CAVOK 24/13 Q1027 NOSIG,M
LFMT,LFMT,2019-09-12 18:30,75.20,55.40,50.17,230.00,5.00,0.00,30.33,M,6.21,M,M,M,M,M,M,M,M,M,M,M,M,M,M,M,M,75.20,LFMT 121830Z AUTO 23005KT CAVOK 24/13 Q1027 NOSIG,M
LFMT,LFMT,2019-09-12 19:00,75.20,55.40,50.17,250.00,5.00,0.00,30.33,M,6.21,M,M,M,M,M,M,M,M,M,M,M,M,M,M,M,M,75.20,LFMT 121900Z AUTO 25005KT CAVOK 24/13 Q1027 NOSIG,M
LFMT,LFMT,2019-09-12 19:30,73.40,53.60,49.90,290.00,4.00,0.00,30.36,M,6.21,M,M,M,M,M,M,M,M,M,M,M,M,M,M,M,M,73.40,LFMT 121930Z AUTO 29004KT CAVOK 23/12 Q1028 NOSIG,M
LFMT,LFMT,2019-09-12 20:00,71.60,55.40,56.63,320.00,3.00,0.00,30.36,M,6.21,M,M,M,M,M,M,M,M,M,M,M,M,M,M,M,M,71.60,LFMT 122000Z AUTO 32003KT 290V350 CAVOK 22/13 Q1028 NOSIG,M
LFMT,LFMT,2019-09-12 20:30,69.80,57.20,64.26,30.00,9.00,0.00,30.36,M,6.21,M,M,M,M,M,M,M,M,M,M,M,M,M,M,M,M,69.80,LFMT 122030Z AUTO 03009KT CAVOK 21/14 Q1028 NOSIG,M
LFMT,LFMT,2019-09-12 21:00,71.60,55.40,56.63,20.00,4.00,0.00,30.36,M,6.21,M,M,M,M,M,M,M,M,M,M,M,M,M,M,M,M,71.60,LFMT 122100Z AUTO 02004KT CAVOK 22/13 Q1028 NOSIG,M
LFMT,LFMT,2019-09-12 21:30,68.00,55.40,64.04,10.00,3.00,0.00,30.36,M,6.21,M,M,M,M,M,M,M,M,M,M,M,M,M,M,M,M,68.00,LFMT 122130Z AUTO 01003KT 320V030 CAVOK 20/13 Q1028 NOSIG,M
LFMT,LFMT,2019-09-12 22:00,68.00,55.40,64.04,M,1.00,0.00,30.36,M,6.21,M,M,M,M,M,M,M,M,M,M,M,M,M,M,M,M,68.00,LFMT 122200Z AUTO VRB01KT CAVOK 20/13 Q1028 NOSIG,M
LFMT,LFMT,2019-09-12 22:30,69.80,59.00,68.55,260.00,3.00,0.00,30.36,M,6.21,M,M,M,M,M,M,M,M,M,M,M,M,M,M,M,M,69.80,LFMT 122230Z AUTO 26003KT 240V300 CAVOK 21/15 Q1028 NOSIG,M
LFMT,LFMT,2019-09-12 23:00,69.80,55.40,60.21,310.00,6.00,0.00,30.36,M,6.21,M,M,M,M,M,M,M,M,M,M,M,M,M,M,M,M,69.80,LFMT 122300Z AUTO 31006KT CAVOK 21/13 Q1028 NOSIG,M
LFMT,LFMT,2019-09-12 23:30,66.20,55.40,68.15,350.00,3.00,0.00,30.36,M,6.21,M,M,M,M,M,M,M,M,M,M,M,M,M,M,M,M,66.20,LFMT 122330Z AUTO 35003KT CAVOK 19/13 Q1028 NOSIG,M
LFMU,LFMU,2019-09-12 00:00,62.60,51.80,67.75,M,2.00,0.00,30.27,M,6.21,M,M,M,M,M,M,M,M,M,M,M,M,M,M,M,M,62.60,LFMU 120000Z AUTO VRB02KT CAVOK 17/11 Q1025,M
LFMU,LFMU,2019-09-12 00:30,60.80,51.80,72.20,270.00,6.00,0.00,30.27,M,6.21,M,M,M,M,M,M,M,M,M,M,M,M,M,M,M,M,60.80,LFMU 120030Z AUTO 27006KT CAVOK 16/11 Q1025,M
LFMU,LFMU,2019-09-12 01:00,60.80,51.80,72.20,270.00,7.00,0.00,30.27,M,6.21,M,M,M,M,M,M,M,M,M,M,M,M,M,M,M,M,60.80,LFMU 120100Z AUTO 27007KT CAVOK 16/11 Q1025,M
LFMU,LFMU,2019-09-12 01:30,60.80,51.80,72.20,280.00,7.00,0.00,30.30,M,6.21,M,M,M,M,M,M,M,M,M,M,M,M,M,M,M,M,60.80,LFMU 120130Z AUTO 28007KT CAVOK 16/11 Q1026,M
LFMU,LFMU,2019-09-12 02:00,60.80,51.80,72.20,280.00,8.00,0.00,30.30,M,6.21,M,M,M,M,M,M,M,M,M,M,M,M,M,M,M,M,60.80,LFMU 120200Z AUTO 28008KT CAVOK 16/11 Q1026,M
LFMU,LFMU,2019-09-12 02:30,60.80,51.80,72.20,290.00,9.00,0.00,30.30,M,6.21,M,M,M,M,M,M,M,M,M,M,M,M,M,M,M,M,60.80,LFMU 120230Z AUTO 29009KT CAVOK 16/11 Q1026,M
LFMU,LFMU,2019-09-12 03:00,59.00,51.80,76.98,280.00,8.00,0.00,30.30,M,6.21,M,M,M,M,M,M,M,M,M,M,M,M,M,M,M,M,59.00,LFMU 120300Z AUTO 28008KT CAVOK 15/11 Q1026,M
LFMU,LFMU,2019-09-12 03:30,57.20,50.00,76.82,270.00,5.00,0.00,30.30,M,6.21,M,M,M,M,M,M,M,M,M,M,M,M,M,M,M,M,57.20,LFMU 120330Z AUTO 27005KT 240V310 CAVOK 14/10 Q1026 NOSIG,M
LFMU,LFMU,2019-09-12 04:00,57.20,50.00,76.82,280.00,4.00,0.00,30.30,M,6.21,M,M,M,M,M,M,M,M,M,M,M,M,M,M,M,M,57.20,LFMU 120400Z AUTO 28004KT CAVOK 14/10 Q1026 NOSIG,M
LFMU,LFMU,2019-09-12 04:30,57.20,50.00,76.82,M,3.00,0.00,30.30,M,6.21,M,M,M,M,M,M,M,M,M,M,M,M,M,M,M,M,57.20,LFMU 120430Z AUTO VRB03KT CAVOK 14/10 Q1026 NOSIG,M
LFMU,LFMU,2019-09-12 05:00,55.40,50.00,81.99,310.00,2.00,0.00,30.33,M,6.21,M,M,M,M,M,M,M,M,M,M,M,M,M,M,M,M,55.40,LFMU 120500Z AUTO 31002KT CAVOK 13/10 Q1027 BECMG 28012KT,M
LFMU,LFMU,2019-09-12 05:30,55.40,50.00,81.99,320.00,5.00,0.00,30.33,M,6.21,M,M,M,M,M,M,M,M,M,M,M,M,M,M,M,M,55.40,LFMU 120530Z AUTO 32005KT CAVOK 13/10 Q1027 NOSIG,M
LFMU,LFMU,2019-09-12 06:00,57.20,50.00,76.82,240.00,7.00,0.00,30.33,M,6.21,M,M,M,M,M,M,M,M,M,M,M,M,M,M,M,M,57.20,LFMU 120600Z AUTO 24007KT CAVOK 14/10 Q1027 NOSIG,M
LFMU,LFMU,2019-09-12 06:30,60.80,51.80,72.20,260.00,6.00,0.00,30.33,M,6.21,M,M,M,M,M,M,M,M,M,M,M,M,M,M,M,M,60.80,LFMU 120630Z AUTO 26006KT 220V300 CAVOK 16/11 Q1027 NOSIG,M
LFMU,LFMU,2019-09-12 07:00,62.60,51.80,67.75,270.00,6.00,0.00,30.36,M,6.21,M,M,M,M,M,M,M,M,M,M,M,M,M,M,M,M,62.60,LFMU 120700Z AUTO 27006KT 230V310 CAVOK 17/11 Q1028 NOSIG,M
LFMU,LFMU,2019-09-12 07:30,66.20,50.00,55.88,290.00,9.00,0.00,30.36,M,6.21,M,M,M,M,M,M,M,M,M,M,M,M,M,M,M,M,66.20,LFMU 120730Z AUTO 29009KT CAVOK 19/10 Q1028 NOSIG,M
LFMU,LFMU,2019-09-12 08:00,69.80,50.00,49.37,280.00,7.00,0.00,30.36,M,6.21,M,M,M,M,M,M,M,M,M,M,M,M,M,M,M,M,69.80,LFMU 120800Z AUTO 28007KT CAVOK 21/10 Q1028 NOSIG,M
LFMU,LFMU,2019-09-12 08:30,73.40,48.20,40.85,300.00,10.00,0.00,30.36,M,6.21,M,M,M,M,M,M,M,M,M,M,M,M,M,M,M,M,73.40,LFMU 120830Z AUTO 30010KT CAVOK 23/09 Q1028 NOSIG,M
LFMU,LFMU,2019-09-12 09:00,75.20,46.40,35.94,300.00,9.00,0.00,30.39,M,6.21,M,M,M,M,M,M,M,M,M,M,M,M,M,M,M,M,75.20,LFMU 120900Z AUTO 30009KT 280V340 CAVOK 24/08 Q1029 NOSIG,M
LFMU,LFMU,2019-09-12 09:30,77.00,48.20,36.22,260.00,7.00,0.00,30.39,M,6.21,M,M,M,M,M,M,M,M,M,M,M,M,M,M,M,M,77.00,LFMU 120930Z AUTO 26007KT 230V300 CAVOK 25/09 Q1029 NOSIG,M
LFMU,LFMU,2019-09-12 10:00,78.80,48.20,34.13,260.00,8.00,0.00,30.39,M,6.21,M,M,M,M,M,M,M,M,M,M,M,M,M,M,M,M,78.80,LFMU 121000Z AUTO 26008KT 210V290 CAVOK 26/09 Q1029 NOSIG,M
LFMU,LFMU,2019-09-12 10:30,80.60,48.20,32.18,270.00,8.00,0.00,30.39,M,6.21,M,M,M,M,M,M,M,M,M,M,M,M,M,M,M,M,79.71,LFMU 121030Z AUTO 27008KT 230V310 CAVOK 27/09 Q1029 NOSIG,M
LFMU,LFMU,2019-09-12 11:00,80.60,50.00,34.41,260.00,8.00,0.00,30.39,M,6.21,M,M,M,M,M,M,M,M,M,M,M,M,M,M,M,M,79.88,LFMU 121100Z AUTO 26008KT 220V310 CAVOK 27/10 Q1029 NOSIG,M
LFMU,LFMU,2019-09-12 11:30,82.40,48.20,30.35,290.00,9.00,0.00,30.36,M,6.21,M,M,M,M,M,M,M,M,M,M,M,M,M,M,M,M,80.80,LFMU 121130Z AUTO 29009KT 250V320 CAVOK 28/09 Q1028 BECMG 18010KT,M
LFMU,LFMU,2019-09-12 12:00,82.40,48.20,30.35,300.00,5.00,0.00,30.36,M,6.21,M,M,M,M,M,M,M,M,M,M,M,M,M,M,M,M,80.80,LFMU 121200Z AUTO 30005KT 250V030 CAVOK 28/09 Q1028 BECMG 18010KT,M
LFMU,LFMU,2019-09-12 12:30,84.20,44.60,24.99,320.00,9.00,0.00,30.36,M,6.21,M,M,M,M,M,M,M,M,M,M,M,M,M,M,M,M,81.73,LFMU 121230Z AUTO 32009KT 290V360 CAVOK 29/07 Q1028 BECMG 18010KT,M
LFMU,LFMU,2019-09-12 13:00,86.00,44.60,23.59,40.00,7.00,0.00,30.33,M,6.21,M,M,M,M,M,M,M,M,M,M,M,M,M,M,M,M,83.07,LFMU 121300Z AUTO 04007KT 360V130 CAVOK 30/07 Q1027 NOSIG,M
LFMU,LFMU,2019-09-12 13:30,86.00,46.40,25.26,110.00,8.00,0.00,30.33,M,6.21,M,M,M,M,M,M,M,M,M,M,M,M,M,M,M,M,83.22,LFMU 121330Z AUTO 11008KT 050V160 CAVOK 30/08 Q1027 NOSIG,M
LFMU,LFMU,2019-09-12 14:00,84.20,46.40,26.76,140.00,10.00,0.00,30.33,M,6.21,M,M,M,M,M,M,M,M,M,M,M,M,M,M,M,M,81.87,LFMU 121400Z AUTO 14010KT 110V170 CAVOK 29/08 Q1027 NOSIG,M
LFMU,LFMU,2019-09-12 14:30,84.20,46.40,26.76,140.00,10.00,0.00,30.33,M,6.21,M,M,M,M,M,M,M,M,M,M,M,M,M,M,M,M,81.87,LFMU 121430Z AUTO 14010KT 120V190 CAVOK 29/08 Q1027 NOSIG,M
LFMU,LFMU,2019-09-12 15:00,82.40,50.00,32.46,160.00,8.00,0.00,30.33,M,6.21,M,M,M,M,M,M,M,M,M,M,M,M,M,M,M,M,80.99,LFMU 121500Z AUTO 16008KT 130V190 CAVOK 28/10 Q1027 NOSIG,M
LFMU,LFMU,2019-09-12 15:30,84.20,48.20,28.63,130.00,7.00,0.00,30.33,M,6.21,M,NSC,M,M,M,M,M,M,M,M,M,M,M,M,M,M,82.04,LFMU 121530Z AUTO 13007KT 100V160 9999 NSC 29/09 Q1027 NOSIG,M
LFMU,LFMU,2019-09-12 16:00,84.20,50.00,30.62,150.00,5.00,0.00,30.33,M,6.21,M,M,M,M,M,M,M,M,M,M,M,M,M,M,M,M,82.24,LFMU 121600Z AUTO 15005KT 110V190 CAVOK 29/10 Q1027 NOSIG,M
LFMU,LFMU,2019-09-12 16:30,82.40,50.00,32.46,170.00,6.00,0.00,30.33,M,6.21,M,M,M,M,M,M,M,M,M,M,M,M,M,M,M,M,80.99,LFMU 121630Z AUTO 17006KT CAVOK 28/10 Q1027 NOSIG,M
LFMU,LFMU,2019-09-12 17:00,80.60,51.80,36.79,170.00,5.00,0.00,30.33,M,6.21,M,M,M,M,M,M,M,M,M,M,M,M,M,M,M,M,80.08,LFMU 121700Z AUTO 17005KT 130V210 CAVOK 27/11 Q1027 NOSIG,M
LFMU,LFMU,2019-09-12 17:30,80.60,51.80,36.79,190.00,3.00,0.00,30.36,M,6.21,M,M,M,M,M,M,M,M,M,M,M,M,M,M,M,M,80.08,LFMU 121730Z AUTO 19003KT CAVOK 27/11 Q1028 NOSIG,M
LFMU,LFMU,2019-09-12 18:00,77.00,53.60,44.25,190.00,3.00,0.00,30.36,M,6.21,M,M,M,M,M,M,M,M,M,M,M,M,M,M,M,M,77.00,LFMU 121800Z AUTO 19003KT CAVOK 25/12 Q1028 NOSIG,M
LFMU,LFMU,2019-09-12 18:30,73.40,53.60,49.90,M,1.00,0.00,30.36,M,6.21,M,M,M,M,M,M,M,M,M,M,M,M,M,M,M,M,73.40,LFMU 121830Z AUTO VRB01KT CAVOK 23/12 Q1028 NOSIG,M
LFMU,LFMU,2019-09-12 19:00,71.60,55.40,56.63,220.00,2.00,0.00,30.36,M,6.21,M,M,M,M,M,M,M,M,M,M,M,M,M,M,M,M,71.60,LFMU 121900Z AUTO 22002KT CAVOK 22/13 Q1028 NOSIG,M
LFMU,LFMU,2019-09-12 19:30,68.00,55.40,64.04,M,3.00,0.00,30.36,M,6.21,M,M,M,M,M,M,M,M,M,M,M,M,M,M,M,M,68.00,LFMU 121930Z AUTO VRB03KT CAVOK 20/13 Q1028 NOSIG,M
LFMU,LFMU,2019-09-12 20:00,68.00,55.40,64.04,260.00,3.00,0.00,30.36,M,6.21,M,M,M,M,M,M,M,M,M,M,M,M,M,M,M,M,68.00,LFMU 122000Z AUTO 26003KT CAVOK 20/13 Q1028 NOSIG,M
LFMU,LFMU,2019-09-12 20:30,66.20,53.60,63.82,340.00,3.00,0.00,30.36,M,6.21,M,M,M,M,M,M,M,M,M,M,M,M,M,M,M,M,66.20,LFMU 122030Z AUTO 34003KT 320V020 CAVOK 19/12 Q1028 NOSIG,M
LFMU,LFMU,2019-09-12 21:00,68.00,53.60,59.97,M,2.00,0.00,30.36,M,6.21,M,M,M,M,M,M,M,M,M,M,M,M,M,M,M,M,68.00,LFMU 122100Z AUTO VRB02KT CAVOK 20/12 Q1028,M
LFMU,LFMU,2019-09-12 21:30,66.20,53.60,63.82,M,2.00,0.00,30.36,M,6.21,M,M,M,M,M,M,M,M,M,M,M,M,M,M,M,M,66.20,LFMU 122130Z AUTO VRB02KT CAVOK 19/12 Q1028,M
LFMU,LFMU,2019-09-12 22:00,66.20,53.60,63.82,M,3.00,0.00,30.36,M,6.21,M,M,M,M,M,M,M,M,M,M,M,M,M,M,M,M,66.20,LFMU 122200Z AUTO VRB03KT CAVOK 19/12 Q1028,M
LFMU,LFMU,2019-09-12 22:30,66.20,53.60,63.82,300.00,3.00,0.00,30.36,M,6.21,M,M,M,M,M,M,M,M,M,M,M,M,M,M,M,M,66.20,LFMU 122230Z AUTO 30003KT 270V010 CAVOK 19/12 Q1028,M
LFMU,LFMU,2019-09-12 23:00,64.40,53.60,67.95,M,2.00,0.00,30.36,M,6.21,M,M,M,M,M,M,M,M,M,M,M,M,M,M,M,M,64.40,LFMU 122300Z AUTO VRB02KT CAVOK 18/12 Q1028,M
LFMU,LFMU,2019-09-12 23:30,64.40,53.60,67.95,M,3.00,0.00,30.36,M,6.21,M,M,M,M,M,M,M,M,M,M,M,M,M,M,M,M,64.40,LFMU 122330Z AUTO VRB03KT CAVOK 18/12 Q1028,M
LFMV,LFMV,2019-09-12 00:00,68.00,42.80,40.00,330.00,12.00,0.00,30.24,M,6.21,M,M,M,M,M,M,M,M,M,M,M,M,M,M,M,M,68.00,LFMV 120000Z AUTO 33012KT CAVOK 20/06 Q1024,M
LFMV,LFMV,2019-09-12 00:30,68.00,42.80,40.00,330.00,8.00,0.00,30.24,M,6.21,M,M,M,M,M,M,M,M,M,M,M,M,M,M,M,M,68.00,LFMV 120030Z AUTO 33008KT 300V360 CAVOK 20/06 Q1024,M
LFMV,LFMV,2019-09-12 01:00,68.00,42.80,40.00,340.00,11.00,0.00,30.24,M,6.21,M,M,M,M,M,M,M,M,M,M,M,M,M,M,M,M,68.00,LFMV 120100Z AUTO 34011KT CAVOK 20/06 Q1024,M
LFMV,LFMV,2019-09-12 01:30,68.00,44.60,42.85,350.00,12.00,0.00,30.24,M,6.21,M,M,M,M,M,M,M,M,M,M,M,M,M,M,M,M,68.00,LFMV 120130Z AUTO 35012KT CAVOK 20/07 Q1024,M
LFMV,LFMV,2019-09-12 02:00,68.00,42.80,40.00,350.00,14.00,0.00,30.24,M,6.21,M,M,M,M,M,M,M,M,M,M,M,M,M,M,M,M,68.00,LFMV 120200Z AUTO 35014KT CAVOK 20/06 Q1024,M
LFMV,LFMV,2019-09-12 02:30,68.00,42.80,40.00,350.00,13.00,0.00,30.24,M,6.21,M,M,M,M,M,M,M,M,M,M,M,M,M,M,M,M,68.00,LFMV 120230Z AUTO 35013KT CAVOK 20/06 Q1024,M
LFMV,LFMV,2019-09-12 03:00,66.20,44.60,45.60,360.00,8.00,0.00,30.24,M,6.21,M,M,M,M,M,M,M,M,M,M,M,M,M,M,M,M,66.20,LFMV 120300Z AUTO 36008KT 320V040 CAVOK 19/07 Q1024 NOSIG,M
LFMV,LFMV,2019-09-12 03:30,66.20,44.60,45.60,350.00,9.00,0.00,30.24,M,6.21,M,M,M,M,M,M,M,M,M,M,M,M,M,M,M,M,66.20,LFMV 120330Z AUTO 35009KT CAVOK 19/07 Q1024 NOSIG,M
LFMV,LFMV,2019-09-12 04:00,66.20,44.60,45.60,10.00,6.00,0.00,30.24,M,6.21,M,M,M,M,M,M,M,M,M,M,M,M,M,M,M,M,66.20,LFMV 120400Z AUTO 01006KT 330V040 CAVOK 19/07 Q1024 NOSIG,M
LFMV,LFMV,2019-09-12 04:30,64.40,46.40,51.98,30.00,5.00,0.00,30.27,M,6.21,M,M,M,M,M,M,M,M,M,M,M,M,M,M,M,M,64.40,LFMV 120430Z AUTO 03005KT CAVOK 18/08 Q1025 NOSIG,M
LFMV,LFMV,2019-09-12 05:00,60.80,46.40,59.01,90.00,4.00,0.00,30.30,M,6.21,M,M,M,M,M,M,M,M,M,M,M,M,M,M,M,M,60.80,LFMV 120500Z AUTO 09004KT CAVOK 16/08 Q1026 BECMG 35010KT,M
LFMV,LFMV,2019-09-12 05:30,59.00,46.40,62.92,80.00,4.00,0.00,30.30,M,6.21,M,M,M,M,M,M,M,M,M,M,M,M,M,M,M,M,59.00,LFMV 120530Z AUTO 08004KT CAVOK 15/08 Q1026 BECMG 35010KT,M
LFMV,LFMV,2019-09-12 06:00,60.80,48.20,63.15,90.00,3.00,0.00,30.30,M,6.21,M,M,M,M,M,M,M,M,M,M,M,M,M,M,M,M,60.80,LFMV 120600Z AUTO 09003KT CAVOK 16/09 Q1026 BECMG 35010KT,M
LFMV,LFMV,2019-09-12 06:30,64.40,48.20,55.63,360.00,5.00,0.00,30.33,M,6.21,M,M,M,M,M,M,M,M,M,M,M,M,M,M,M,M,64.40,LFMV 120630Z AUTO 36005KT CAVOK 18/09 Q1027 NOSIG,M
LFMV,LFMV,2019-09-12 07:00,66.20,48.20,52.25,10.00,6.00,0.00,30.33,M,6.21,M,M,M,M,M,M,M,M,M,M,M,M,M,M,M,M,66.20,LFMV 120700Z AUTO 01006KT CAVOK 19/09 Q1027 NOSIG,M
LFMV,LFMV,2019-09-12 07:30,68.00,50.00,52.51,360.00,6.00,0.00,30.33,M,6.21,M,M,M,M,M,M,M,M,M,M,M,M,M,M,M,M,68.00,LFMV 120730Z AUTO 36006KT CAVOK 20/10 Q1027 NOSIG,M
LFMV,LFMV,2019-09-12 08:00,71.60,50.00,46.43,10.00,6.00,0.00,30.36,M,6.21,M,M,M,M,M,M,M,M,M,M,M,M,M,M,M,M,71.60,LFMV 120800Z AUTO 01006KT 340V050 CAVOK 22/10 Q1028 NOSIG,M
LFMV,LFMV,2019-09-12 08:30,73.40,50.00,43.69,360.00,6.00,0.00,30.36,M,6.21,M,M,M,M,M,M,M,M,M,M,M,M,M,M,M,M,73.40,LFMV 120830Z AUTO 36006KT 300V030 CAVOK 23/10 Q1028 NOSIG,M
LFMV,LFMV,2019-09-12 09:00,75.20,51.80,43.97,10.00,5.00,0.00,30.36,M,6.21,M,M,M,M,M,M,M,M,M,M,M,M,M,M,M,M,75.20,LFMV 120900Z AUTO 01005KT 330V040 CAVOK 24/11 Q1028 NOSIG,M
LFMV,LFMV,2019-09-12 09:30,77.00,51.80,41.42,360.00,4.00,0.00,30.39,M,6.21,M,M,M,M,M,M,M,M,M,M,M,M,M,M,M,M,77.00,LFMV 120930Z AUTO 36004KT 320V070 CAVOK 25/11 Q1029 NOSIG,M
LFMV,LFMV,2019-09-12 10:00,80.60,51.80,36.79,320.00,6.00,0.00,30.39,M,6.21,M,NSC,M,M,M,M,M,M,M,,M,M,M,M,M,M,80.08,LFMV 121000Z AUTO 32006KT 270V010 9999 // NSC 27/11 Q1029,M
LFMV,LFMV,2019-09-12 10:30,80.60,51.80,36.79,310.00,6.00,0.00,30.39,M,6.21,M,NSC,M,M,M,M,M,M,M,,M,M,M,M,M,M,80.08,LFMV 121030Z AUTO 31006KT 270V020 9999 // NSC 27/11 Q1029,M
LFMV,LFMV,2019-09-12 11:00,82.40,51.80,34.69,M,4.00,0.00,30.36,M,6.21,M,NSC,M,M,M,M,M,M,M,,M,M,M,M,M,M,81.20,LFMV 121100Z AUTO VRB04KT 9999 // NSC 28/11 Q1028,M
LFMV,LFMV,2019-09-12 11:30,84.20,53.60,34.97,300.00,5.00,0.00,30.36,M,6.21,M,NSC,M,M,M,M,M,M,M,,M,M,M,M,M,M,82.76,LFMV 121130Z AUTO 30005KT 230V340 9999 // NSC 29/12 Q1028,M
LFMV,LFMV,2019-09-12 12:00,84.20,51.80,32.73,M,3.00,0.00,30.36,M,6.21,M,NSC,M,M,M,M,M,M,M,,M,M,M,M,M,M,82.48,LFMV 121200Z AUTO VRB03KT 9999 // NSC 29/11 Q1028,M
LFMV,LFMV,2019-09-12 12:30,86.00,51.80,30.90,M,4.00,0.00,30.36,M,6.21,M,NSC,M,M,M,M,M,M,M,,M,M,M,M,M,M,83.87,LFMV 121230Z AUTO VRB04KT 9999 // NSC 30/11 Q1028,M
LFMV,LFMV,2019-09-12 13:00,86.00,51.80,30.90,300.00,5.00,0.00,30.33,M,6.21,M,NSC,M,M,M,M,M,M,M,,M,M,M,M,M,M,83.87,LFMV 121300Z AUTO 30005KT 230V350 9999 // NSC 30/11 Q1027,M
LFMV,LFMV,2019-09-12 13:30,87.80,51.80,29.18,340.00,5.00,0.00,30.33,M,6.21,M,NSC,M,M,M,M,M,M,M,,M,M,M,M,M,M,85.39,LFMV 121330Z AUTO 34005KT 260V030 9999 // NSC 31/11 Q1027,M
LFMV,LFMV,2019-09-12 14:00,87.80,51.80,29.18,360.00,5.00,0.00,30.33,M,6.21,M,NSC,M,M,M,M,M,M,M,,M,M,M,M,M,M,85.39,LFMV 121400Z AUTO 36005KT 310V090 9999 // NSC 31/11 Q1027,M
LFMV,LFMV,2019-09-12 14:30,89.60,53.60,29.45,M,4.00,0.00,30.33,M,6.21,M,NSC,M,M,M,M,M,M,M,,M,M,M,M,M,M,87.36,LFMV 121430Z AUTO VRB04KT 9999 // NSC 32/12 Q1027,M
LFMV,LFMV,2019-09-12 15:00,89.60,51.80,27.56,340.00,6.00,0.00,30.33,M,6.21,M,NSC,M,M,M,M,M,M,M,,M,M,M,M,M,M,87.00,LFMV 121500Z AUTO 34006KT 300V030 9999 // NSC 32/11 Q1027,M
LFMV,LFMV,2019-09-12 15:30,87.80,51.80,29.18,330.00,6.00,0.00,30.33,M,6.21,M,NSC,M,M,M,M,M,M,M,,M,M,M,M,M,M,85.39,LFMV 121530Z AUTO 33006KT 300V020 9999 // NSC 31/11 Q1027,M
LFMV,LFMV,2019-09-12 16:00,87.80,51.80,29.18,320.00,7.00,0.00,30.33,M,6.21,M,NSC,M,M,M,M,M,M,M,,M,M,M,M,M,M,85.39,LFMV 121600Z AUTO 32007KT 9999 // NSC 31/11 Q1027,M
LFMV,LFMV,2019-09-12 16:30,87.80,51.80,29.18,320.00,8.00,0.00,30.33,M,6.21,M,NSC,M,M,M,M,M,M,M,,M,M,M,M,M,M,85.39,LFMV 121630Z AUTO 32008KT 290V350 9999 // NSC 31/11 Q1027,M
LFMV,LFMV,2019-09-12 17:00,86.00,50.00,28.90,320.00,8.00,0.00,30.33,M,6.21,M,NSC,M,M,M,M,M,M,M,,M,M,M,M,M,M,83.62,LFMV 121700Z AUTO 32008KT 9999 // NSC 30/10 Q1027,M
LFMV,LFMV,2019-09-12 17:30,84.20,50.00,30.62,310.00,7.00,0.00,30.33,M,6.21,M,NSC,M,M,M,M,M,M,M,,M,M,M,M,M,M,82.24,LFMV 121730Z AUTO 31007KT 9999 // NSC 29/10 Q1027,M
LFMV,LFMV,2019-09-12 18:00,78.80,50.00,36.51,320.00,5.00,0.00,30.33,M,6.21,M,NSC,M,M,M,M,M,M,M,,M,M,M,M,M,M,78.80,LFMV 121800Z AUTO 32005KT 9999 // NSC 26/10 Q1027,M
LFMV,LFMV,2019-09-12 18:30,75.20,51.80,43.97,330.00,5.00,0.00,30.33,M,6.21,M,M,M,M,M,M,M,M,M,M,M,M,M,M,M,M,75.20,LFMV 121830Z AUTO 33005KT CAVOK 24/11 Q1027 NOSIG,M
LFMV,LFMV,2019-09-12 19:00,73.40,51.80,46.71,240.00,5.00,0.00,30.36,M,6.21,M,M,M,M,M,M,M,M,M,M,M,M,M,M,M,M,73.40,LFMV 121900Z AUTO 24005KT CAVOK 23/11 Q1028 NOSIG,M
LFMV,LFMV,2019-09-12 19:30,73.40,50.00,43.69,290.00,6.00,0.00,30.36,M,6.21,M,M,M,M,M,M,M,M,M,M,M,M,M,M,M,M,73.40,LFMV 121930Z AUTO 29006KT CAVOK 23/10 Q1028 NOSIG,M
LFMV,LFMV,2019-09-12 20:00,69.80,50.00,49.37,320.00,2.00,0.00,30.36,M,6.21,M,M,M,M,M,M,M,M,M,M,M,M,M,M,M,M,69.80,LFMV 122000Z AUTO 32002KT CAVOK 21/10 Q1028 NOSIG,M
LFMV,LFMV,2019-09-12 20:30,66.20,51.80,59.74,190.00,4.00,0.00,30.36,M,6.21,M,M,M,M,M,M,M,M,M,M,M,M,M,M,M,M,66.20,LFMV 122030Z AUTO 19004KT 150V240 CAVOK 19/11 Q1028,M
LFMV,LFMV,2019-09-12 21:00,66.20,50.00,55.88,M,2.00,0.00,30.36,M,6.21,M,M,M,M,M,M,M,M,M,M,M,M,M,M,M,M,66.20,LFMV 122100Z AUTO VRB02KT CAVOK 19/10 Q1028,M
LFMV,LFMV,2019-09-12 21:30,64.40,50.00,59.50,M,3.00,0.00,30.36,M,6.21,M,M,M,M,M,M,M,M,M,M,M,M,M,M,M,M,64.40,LFMV 122130Z AUTO VRB03KT CAVOK 18/10 Q1028,M
LFMV,LFMV,2019-09-12 22:00,62.60,50.00,63.38,350.00,2.00,0.00,30.33,M,6.21,M,M,M,M,M,M,M,M,M,M,M,M,M,M,M,M,62.60,LFMV 122200Z AUTO 35002KT CAVOK 17/10 Q1027,M
LFMV,LFMV,2019-09-12 22:30,62.60,50.00,63.38,120.00,3.00,0.00,30.36,M,6.21,M,M,M,M,M,M,M,M,M,M,M,M,M,M,M,M,62.60,LFMV 122230Z AUTO 12003KT 070V140 CAVOK 17/10 Q1028,M
LFMV,LFMV,2019-09-12 23:00,59.00,48.20,67.33,120.00,4.00,0.00,30.36,M,6.21,M,M,M,M,M,M,M,M,M,M,M,M,M,M,M,M,59.00,LFMV 122300Z AUTO 12004KT CAVOK 15/09 Q1028,M
LFMV,LFMV,2019-09-12 23:30,60.80,50.00,67.54,M,2.00,0.00,30.36,M,6.21,M,M,M,M,M,M,M,M,M,M,M,M,M,M,M,M,60.80,LFMV 122330Z AUTO VRB02KT CAVOK 16/10 Q1028,M
LFMY,LFMY,2019-09-12 00:00,68.00,44.60,42.85,340.00,10.00,0.00,30.21,M,6.21,M,M,M,M,M,M,M,M,M,M,M,M,M,M,M,M,68.00,LFMY 120000Z AUTO 34010KT CAVOK 20/07 Q1023,M
LFMY,LFMY,2019-09-12 00:30,68.00,44.60,42.85,340.00,17.00,0.00,30.21,M,6.21,M,M,M,M,M,M,M,M,M,M,M,M,M,M,M,M,68.00,LFMY 120030Z AUTO 34017KT CAVOK 20/07 Q1023,M
LFMY,LFMY,2019-09-12 01:00,66.20,44.60,45.60,330.00,12.00,0.00,30.21,M,6.21,M,M,M,M,M,M,M,M,M,M,M,M,M,M,M,M,66.20,LFMY 120100Z AUTO 33012KT CAVOK 19/07 Q1023,M
LFMY,LFMY,2019-09-12 01:30,64.40,42.80,45.32,340.00,4.00,0.00,30.24,M,6.21,M,M,M,M,M,M,M,M,M,M,M,M,M,M,M,M,64.40,LFMY 120130Z AUTO 34004KT 300V020 CAVOK 18/06 Q1024,M
LFMY,LFMY,2019-09-12 02:00,64.40,44.60,48.55,340.00,6.00,0.00,30.24,M,6.21,M,M,M,M,M,M,M,M,M,M,M,M,M,M,M,M,64.40,LFMY 120200Z AUTO 34006KT CAVOK 18/07 Q1024,M
LFMY,LFMY,2019-09-12 02:30,62.60,44.60,51.72,360.00,4.00,0.00,30.24,M,6.21,M,M,M,M,M,M,M,M,M,M,M,M,M,M,M,M,62.60,LFMY 120230Z AUTO 36004KT 330V080 CAVOK 17/07 Q1024,M
LFMY,LFMY,2019-09-12 03:00,57.20,46.40,67.12,M,3.00,0.00,30.24,M,6.21,M,M,M,M,M,M,M,M,M,M,M,M,M,M,M,M,57.20,LFMY 120300Z AUTO VRB03KT CAVOK 14/08 Q1024,M
LFMY,LFMY,2019-09-12 03:30,59.00,46.40,62.92,180.00,1.00,0.00,30.24,M,6.21,M,M,M,M,M,M,M,M,M,M,M,M,M,M,M,M,59.00,LFMY 120330Z AUTO 18001KT CAVOK 15/08 Q1024,M
LFMY,LFMY,2019-09-12 04:00,55.40,46.40,71.64,M,1.00,0.00,30.24,M,6.21,M,M,M,M,M,M,M,M,M,M,M,M,M,M,M,M,55.40,LFMY 120400Z AUTO VRB01KT CAVOK 13/08 Q1024,M
LFMY,LFMY,2019-09-12 04:30,55.40,46.40,71.64,M,2.00,0.00,30.27,M,6.21,M,M,M,M,M,M,M,M,M,M,M,M,M,M,M,M,55.40,LFMY 120430Z AUTO VRB02KT CAVOK 13/08 Q1025,M
LFMY,LFMY,2019-09-12 05:00,53.60,48.20,81.87,0.00,0.00,0.00,30.27,M,6.21,M,M,M,M,M,M,M,M,M,M,M,M,M,M,M,M,53.60,LFMY 120500Z AUTO 00000KT CAVOK 12/09 Q1025 NOSIG,M
LFMY,LFMY,2019-09-12 05:30,55.40,48.20,76.66,340.00,2.00,0.00,30.27,M,6.21,M,M,M,M,M,M,M,M,M,M,M,M,M,M,M,M,55.40,LFMY 120530Z AUTO 34002KT CAVOK 13/09 Q1025 NOSIG,M
LFMY,LFMY,2019-09-12 06:00,57.20,50.00,76.82,M,3.00,0.00,30.30,M,6.21,M,M,M,M,M,M,M,M,M,M,M,M,M,M,M,M,57.20,LFMY 120600Z AUTO VRB03KT CAVOK 14/10 Q1026 NOSIG,M
LFMY,LFMY,2019-09-12 06:30,60.80,51.80,72.20,0.00,0.00,0.00,30.30,M,6.21,M,M,M,M,M,M,M,M,M,M,M,M,M,M,M,M,60.80,LFMY 120630Z AUTO 00000KT CAVOK 16/11 Q1026 NOSIG,M
LFMY,LFMY,2019-09-12 07:00,66.20,51.80,59.74,0.00,0.00,0.00,30.30,M,6.21,M,M,M,M,M,M,M,M,M,M,M,M,M,M,M,M,66.20,LFMY 120700Z AUTO 00000KT CAVOK 19/11 Q1026 NOSIG,M
LFMY,LFMY,2019-09-12 07:30,69.80,50.00,49.37,M,2.00,0.00,30.33,M,6.21,M,M,M,M,M,M,M,M,M,M,M,M,M,M,M,M,69.80,LFMY 120730Z AUTO VRB02KT CAVOK 21/10 Q1027 NOSIG,M
LFMY,LFMY,2019-09-12 08:00,71.60,50.00,46.43,M,3.00,0.00,30.33,M,6.21,M,NCD,M,M,M,M,M,M,M,M,M,M,M,M,M,M,71.60,LFMY 120800Z AUTO VRB03KT 9999 NCD 22/10 Q1027 NOSIG,M
LFMY,LFMY,2019-09-12 08:30,73.40,51.80,46.71,320.00,4.00,0.00,30.33,M,6.21,M,M,M,M,M,M,M,M,M,M,M,M,M,M,M,M,73.40,LFMY 120830Z AUTO 32004KT 270V350 CAVOK 23/11 Q1027 NOSIG,M
LFMY,LFMY,2019-09-12 09:00,77.00,53.60,44.25,300.00,3.00,0.00,30.36,M,6.21,M,M,M,M,M,M,M,M,M,M,M,M,M,M,M,M,77.00,LFMY 120900Z AUTO 30003KT 250V340 CAVOK 25/12 Q1028 NOSIG,M
LFMY,LFMY,2019-09-12 09:30,78.80,55.40,44.52,M,6.00,0.00,30.36,M,6.21,20.00,NCD,M,M,M,M,M,M,M,M,M,M,M,M,M,M,78.80,LFMY 120930Z AUTO VRB06G20KT 9999 NCD 26/13 Q1028 NOSIG,M
LFMY,LFMY,2019-09-12 10:00,80.60,57.20,44.80,320.00,4.00,0.00,30.36,M,6.21,M,M,M,M,M,M,M,M,M,M,M,M,M,M,M,M,80.81,LFMY 121000Z AUTO 32004KT 250V050 CAVOK 27/14 Q1028 NOSIG,M
LFMY,LFMY,2019-09-12 10:30,82.40,57.20,42.25,310.00,5.00,0.00,30.36,M,6.21,M,M,M,M,M,M,M,M,M,M,M,M,M,M,M,M,82.08,LFMY 121030Z AUTO 31005KT 250V340 CAVOK 28/14 Q1028 NOSIG,M
LFMY,LFMY,2019-09-12 11:00,82.40,55.40,39.58,M,3.00,0.00,30.36,M,6.21,M,NCD,M,M,M,M,M,M,M,M,M,M,M,M,M,M,81.75,LFMY 121100Z AUTO VRB03KT 9999 NCD 28/13 Q1028 NOSIG,M
LFMY,LFMY,2019-09-12 11:30,84.20,55.40,37.35,330.00,4.00,0.00,30.36,M,6.21,M,M,M,M,M,M,M,M,M,M,M,M,M,M,M,M,83.08,LFMY 121130Z AUTO 33004KT 240V020 CAVOK 29/13 Q1028 NOSIG,M
LFMY,LFMY,2019-09-12 12:00,86.00,55.40,35.25,330.00,5.00,0.00,30.33,M,6.21,M,M,M,M,M,M,M,M,M,M,M,M,M,M,M,M,84.54,LFMY 121200Z AUTO 33005KT 270V010 CAVOK 30/13 Q1027 NOSIG,M
LFMY,LFMY,2019-09-12 12:30,86.00,57.20,37.62,M,3.00,0.00,30.33,M,6.21,M,M,M,M,M,M,M,M,M,M,M,M,M,M,M,M,84.97,LFMY 121230Z AUTO VRB03KT CAVOK 30/14 Q1027 NOSIG,M
LFMY,LFMY,2019-09-12 13:00,87.80,57.20,35.53,M,2.00,0.00,30.33,M,6.21,M,M,M,M,M,M,M,M,M,M,M,M,M,M,M,M,86.58,LFMY 121300Z AUTO VRB02KT CAVOK 31/14 Q1027 NOSIG,M
LFMY,LFMY,2019-09-12 13:30,87.80,55.40,33.29,M,2.00,0.00,30.33,M,6.21,M,M,M,M,M,M,M,M,M,M,M,M,M,M,M,M,86.11,LFMY 121330Z AUTO VRB02KT CAVOK 31/13 Q1027 NOSIG,M
LFMY,LFMY,2019-09-12 14:00,86.00,55.40,35.25,220.00,10.00,0.00,30.33,M,6.21,M,M,M,M,M,M,M,M,M,M,M,M,M,M,M,M,84.54,LFMY 121400Z AUTO 22010KT CAVOK 30/13 Q1027 NOSIG,M
LFMY,LFMY,2019-09-12 14:30,84.20,55.40,37.35,200.00,9.00,0.00,30.33,M,6.21,M,M,M,M,M,M,M,M,M,M,M,M,M,M,M,M,83.08,LFMY 121430Z AUTO 20009KT CAVOK 29/13 Q1027 NOSIG,M
LFMY,LFMY,2019-09-12 15:00,84.20,55.40,37.35,200.00,9.00,0.00,30.30,M,6.21,M,M,M,M,M,M,M,M,M,M,M,M,M,M,M,M,83.08,LFMY 121500Z AUTO 20009KT CAVOK 29/13 Q1026 NOSIG,M
LFMY,LFMY,2019-09-12 15:30,82.40,53.60,37.07,200.00,10.00,0.00,30.30,M,6.21,M,NSC,M,M,M,M,M,M,M,M,M,M,M,M,M,M,81.46,LFMY 121530Z AUTO 20010KT 9999 NSC 28/12 Q1026 NOSIG,M
LFMY,LFMY,2019-09-12 16:00,80.60,53.60,39.30,210.00,10.00,0.00,30.33,M,6.21,M,M,M,M,M,M,M,M,M,M,M,M,M,M,M,M,80.29,LFMY 121600Z AUTO 21010KT CAVOK 27/12 Q1027 NOSIG,M
LFMY,LFMY,2019-09-12 16:30,80.60,53.60,39.30,210.00,6.00,0.00,30.33,M,6.21,M,M,M,M,M,M,M,M,M,M,M,M,M,M,M,M,80.29,LFMY 121630Z AUTO 21006KT 180V240 CAVOK 27/12 Q1027 NOSIG,M
LFMY,LFMY,2019-09-12 17:00,78.80,51.80,39.02,210.00,6.00,0.00,30.33,M,6.21,M,M,M,M,M,M,M,M,M,M,M,M,M,M,M,M,78.80,LFMY 121700Z AUTO 21006KT 190V250 CAVOK 26/11 Q1027 NOSIG,M
LFMY,LFMY,2019-09-12 17:30,77.00,51.80,41.42,220.00,4.00,0.00,30.33,M,6.21,M,M,M,M,M,M,M,M,M,M,M,M,M,M,M,M,77.00,LFMY 121730Z AUTO 22004KT CAVOK 25/11 Q1027,M
LFMY,LFMY,2019-09-12 18:00,75.20,51.80,43.97,210.00,4.00,0.00,30.33,M,6.21,M,M,M,M,M,M,M,M,M,M,M,M,M,M,M,M,75.20,LFMY 121800Z AUTO 21004KT CAVOK 24/11 Q1027,M
LFMY,LFMY,2019-09-12 18:30,73.40,53.60,49.90,200.00,1.00,0.00,30.36,M,6.21,M,M,M,M,M,M,M,M,M,M,M,M,M,M,M,M,73.40,LFMY 121830Z AUTO 20001KT CAVOK 23/12 Q1028,M
LFMY,LFMY,2019-09-12 19:00,71.60,53.60,53.03,0.00,0.00,0.00,30.36,M,6.21,M,M,M,M,M,M,M,M,M,M,M,M,M,M,M,M,71.60,LFMY 121900Z AUTO 00000KT CAVOK 22/12 Q1028,M
LFMY,LFMY,2019-09-12 19:30,68.00,53.60,59.97,200.00,3.00,0.00,30.36,M,6.21,M,M,M,M,M,M,M,M,M,M,M,M,M,M,M,M,68.00,LFMY 121930Z AUTO 20003KT CAVOK 20/12 Q1028,M
LFMY,LFMY,2019-09-12 20:00,66.20,55.40,68.15,0.00,0.00,0.00,30.36,M,6.21,M,M,M,M,M,M,M,M,M,M,M,M,M,M,M,M,66.20,LFMY 122000Z AUTO 00000KT CAVOK 19/13 Q1028,M
LFMY,LFMY,2019-09-12 20:30,64.40,55.40,72.56,20.00,2.00,0.00,30.36,M,6.21,M,M,M,M,M,M,M,M,M,M,M,M,M,M,M,M,64.40,LFMY 122030Z AUTO 02002KT CAVOK 18/13 Q1028,M
LFMY,LFMY,2019-09-12 21:00,64.40,55.40,72.56,0.00,0.00,0.00,30.36,M,6.21,M,M,M,M,M,M,M,M,M,M,M,M,M,M,M,M,64.40,LFMY 122100Z AUTO 00000KT CAVOK 18/13 Q1028,M
LFMY,LFMY,2019-09-12 21:30,60.80,55.40,82.37,20.00,2.00,0.00,30.36,M,6.21,M,M,M,M,M,M,M,M,M,M,M,M,M,M,M,M,60.80,LFMY 122130Z AUTO 02002KT CAVOK 16/13 Q1028,M
LFMY,LFMY,2019-09-12 22:00,60.80,53.60,77.14,M,1.00,0.00,30.36,M,6.21,M,M,M,M,M,M,M,M,M,M,M,M,M,M,M,M,60.80,LFMY 122200Z AUTO VRB01KT CAVOK 16/12 Q1028,M
LFMY,LFMY,2019-09-12 22:30,60.80,53.60,77.14,0.00,0.00,0.00,30.36,M,6.21,M,M,M,M,M,M,M,M,M,M,M,M,M,M,M,M,60.80,LFMY 122230Z AUTO 00000KT CAVOK 16/12 Q1028,M
LFMY,LFMY,2019-09-12 23:00,59.00,53.60,82.25,0.00,0.00,0.00,30.36,M,6.21,M,M,M,M,M,M,M,M,M,M,M,M,M,M,M,M,59.00,LFMY 122300Z AUTO 00000KT CAVOK 15/12 Q1028,M
LFMY,LFMY,2019-09-12 23:30,59.00,53.60,82.25,50.00,3.00,0.00,30.36,M,6.21,M,M,M,M,M,M,M,M,M,M,M,M,M,M,M,M,59.00,LFMY 122330Z AUTO 05003KT CAVOK 15/12 Q1028,M
LFOA,LFOA,2019-09-12 00:00,53.60,42.80,66.70,190.00,3.00,0.00,30.39,M,6.21,M,M,M,M,M,M,M,M,M,M,M,M,M,M,M,M,53.60,LFOA 120000Z AUTO 19003KT CAVOK 12/06 Q1029,M
LFOA,LFOA,2019-09-12 00:30,51.80,41.00,66.48,0.00,0.00,0.00,30.39,M,6.21,M,M,M,M,M,M,M,M,M,M,M,M,M,M,M,M,51.80,LFOA 120030Z AUTO 00000KT CAVOK 11/05 Q1029,M
LFOA,LFOA,2019-09-12 01:00,51.80,42.80,71.26,0.00,0.00,0.00,30.39,M,6.21,M,M,M,M,M,M,M,M,M,M,M,M,M,M,M,M,51.80,LFOA 120100Z AUTO 00000KT CAVOK 11/06 Q1029,M
LFOA,LFOA,2019-09-12 01:30,51.80,42.80,71.26,0.00,0.00,0.00,30.42,M,6.21,M,M,M,M,M,M,M,M,M,M,M,M,M,M,M,M,51.80,LFOA 120130Z AUTO 00000KT CAVOK 11/06 Q1030,M
LFOA,LFOA,2019-09-12 02:00,50.00,42.80,76.18,M,2.00,0.00,30.39,M,6.21,M,M,M,M,M,M,M,M,M,M,M,M,M,M,M,M,50.00,LFOA 120200Z AUTO VRB02KT CAVOK 10/06 Q1029,M
LFOA,LFOA,2019-09-12 02:30,50.00,41.00,71.07,M,1.00,0.00,30.42,M,6.21,M,M,M,M,M,M,M,M,M,M,M,M,M,M,M,M,50.00,LFOA 120230Z AUTO VRB01KT CAVOK 10/05 Q1030,M
LFOA,LFOA,2019-09-12 03:00,50.00,41.00,71.07,0.00,0.00,0.00,30.42,M,6.21,M,M,M,M,M,M,M,M,M,M,M,M,M,M,M,M,50.00,LFOA 120300Z AUTO 00000KT CAVOK 10/05 Q1030,M
LFOA,LFOA,2019-09-12 03:30,48.20,41.00,76.01,180.00,2.00,0.00,30.42,M,6.21,M,M,M,M,M,M,M,M,M,M,M,M,M,M,M,M,48.20,LFOA 120330Z AUTO 18002KT CAVOK 09/05 Q1030,M
LFOA,LFOA,2019-09-12 04:00,48.20,39.20,70.88,190.00,1.00,0.00,30.42,M,6.21,M,M,M,M,M,M,M,M,M,M,M,M,M,M,M,M,48.20,LFOA 120400Z AUTO 19001KT CAVOK 09/04 Q1030 TEMPO 3000 BR,M
LFOA,LFOA,2019-09-12 04:30,48.20,41.00,76.01,240.00,2.00,0.00,30.42,M,6.21,M,M,M,M,M,M,M,M,M,M,M,M,M,M,M,M,48.20,LFOA 120430Z AUTO 24002KT CAVOK 09/05 Q1030 TEMPO 3000 BR,M
LFOA,LFOA,2019-09-12 05:00,48.20,41.00,76.01,0.00,0.00,0.00,30.42,M,6.21,M,M,M,M,M,M,M,M,M,M,M,M,M,M,M,M,48.20,LFOA 120500Z AUTO 00000KT CAVOK 09/05 Q1030 TEMPO 3000 BR,M
LFOA,LFOA,2019-09-12 05:30,48.20,41.00,76.01,0.00,0.00,0.00,30.45,M,6.21,M,M,M,M,M,M,M,M,M,M,M,M,M,M,M,M,48.20,LFOA 120530Z AUTO 00000KT CAVOK 09/05 Q1031 TEMPO 3000 BR,M
LFOA,LFOA,2019-09-12 06:00,50.00,41.00,71.07,0.00,0.00,0.00,30.45,M,6.21,M,M,M,M,M,M,M,M,M,M,M,M,M,M,M,M,50.00,LFOA 120600Z AUTO 00000KT CAVOK 10/05 Q1031 TEMPO 3000 BR,M
LFOA,LFOA,2019-09-12 06:30,51.80,42.80,71.26,0.00,0.00,0.00,30.45,M,6.21,M,M,M,M,M,M,M,M,M,M,M,M,M,M,M,M,51.80,LFOA 120630Z AUTO 00000KT CAVOK 11/06 Q1031 NOSIG,M
LFOA,LFOA,2019-09-12 07:00,55.40,44.60,66.91,M,1.00,0.00,30.45,M,6.21,M,M,M,M,M,M,M,M,M,M,M,M,M,M,M,M,55.40,LFOA 120700Z AUTO VRB01KT CAVOK 13/07 Q1031 NOSIG,M
LFOA,LFOA,2019-09-12 07:30,59.00,46.40,62.92,M,2.00,0.00,30.45,M,6.21,M,M,M,M,M,M,M,M,M,M,M,M,M,M,M,M,59.00,LFOA 120730Z AUTO VRB02KT CAVOK 15/08 Q1031 NOSIG,M
LFOA,LFOA,2019-09-12 08:00,64.40,48.20,55.63,M,1.00,0.00,30.47,M,6.21,M,M,M,M,M,M,M,M,M,M,M,M,M,M,M,M,64.40,LFOA 120800Z AUTO VRB01KT CAVOK 18/09 Q1032 NOSIG,M
LFOA,LFOA,2019-09-12 08:30,68.00,50.00,52.51,M,2.00,0.00,30.47,M,6.21,M,M,M,M,M,M,M,M,M,M,M,M,M,M,M,M,68.00,LFOA 120830Z AUTO VRB02KT CAVOK 20/10 Q1032 NOSIG,M
LFOA,LFOA,2019-09-12 09:00,69.80,51.80,52.77,M,3.00,0.00,30.47,M,6.21,M,M,M,M,M,M,M,M,M,M,M,M,M,M,M,M,69.80,LFOA 120900Z AUTO VRB03KT CAVOK 21/11 Q1032 NOSIG,M
LFOA,LFOA,2019-09-12 09:30,71.60,51.80,49.64,M,2.00,0.00,30.47,M,6.21,M,M,M,M,M,M,M,M,M,M,M,M,M,M,M,M,71.60,LFOA 120930Z AUTO VRB02KT CAVOK 22/11 Q1032 NOSIG,M
LFOA,LFOA,2019-09-12 10:00,73.40,51.80,46.71,M,4.00,0.00,30.47,M,6.21,M,M,M,M,M,M,M,M,M,M,M,M,M,M,M,M,73.40,LFOA 121000Z AUTO VRB04KT CAVOK 23/11 Q1032 NOSIG,M
LFOA,LFOA,2019-09-12 10:30,75.20,51.80,43.97,M,2.00,0.00,30.47,M,6.21,M,M,M,M,M,M,M,M,M,M,M,M,M,M,M,M,75.20,LFOA 121030Z AUTO VRB02KT CAVOK 24/11 Q1032 NOSIG,M
LFOA,LFOA,2019-09-12 11:00,75.20,51.80,43.97,40.00,4.00,0.00,30.47,M,6.21,M,M,M,M,M,M,M,M,M,M,M,M,M,M,M,M,75.20,LFOA 121100Z AUTO 04004KT 020V090 CAVOK 24/11 Q1032 NOSIG,M
LFOA,LFOA,2019-09-12 11:30,75.20,51.80,43.97,M,4.00,0.00,30.47,M,6.21,M,M,M,M,M,M,M,M,M,M,M,M,M,M,M,M,75.20,LFOA 121130Z AUTO VRB04KT CAVOK 24/11 Q1032 NOSIG,M
LFOA,LFOA,2019-09-12 12:00,78.80,51.80,39.02,M,3.00,0.00,30.47,M,6.21,M,M,M,M,M,M,M,M,M,M,M,M,M,M,M,M,78.80,LFOA 121200Z AUTO VRB03KT CAVOK 26/11 Q1032 NOSIG,M
LFOA,LFOA,2019-09-12 12:30,77.00,51.80,41.42,280.00,4.00,0.00,30.45,M,6.21,M,M,M,M,M,M,M,M,M,M,M,M,M,M,M,M,77.00,LFOA 121230Z AUTO 28004KT 200V340 CAVOK 25/11 Q1031 NOSIG,M
LFOA,LFOA,2019-09-12 13:00,78.80,51.80,39.02,M,3.00,0.00,30.45,M,6.21,M,M,M,M,M,M,M,M,M,M,M,M,M,M,M,M,78.80,LFOA 121300Z AUTO VRB03KT CAVOK 26/11 Q1031 NOSIG,M
LFOA,LFOA,2019-09-12 13:30,80.60,51.80,36.79,M,4.00,0.00,30.45,M,6.21,M,M,M,M,M,M,M,M,M,M,M,M,M,M,M,M,80.08,LFOA 121330Z AUTO VRB04KT CAVOK 27/11 Q1031 NOSIG,M
LFOA,LFOA,2019-09-12 14:00,80.60,51.80,36.79,290.00,4.00,0.00,30.45,M,6.21,M,M,M,M,M,M,M,M,M,M,M,M,M,M,M,M,80.08,LFOA 121400Z AUTO 29004KT 220V360 CAVOK 27/11 Q1031 NOSIG,M
LFOA,LFOA,2019-09-12 14:30,80.60,51.80,36.79,320.00,3.00,0.00,30.45,M,6.21,M,M,M,M,M,M,M,M,M,M,M,M,M,M,M,M,80.08,LFOA 121430Z AUTO 32003KT 260V030 CAVOK 27/11 Q1031 NOSIG,M
LFOA,LFOA,2019-09-12 15:00,80.60,51.80,36.79,M,3.00,0.00,30.42,M,6.21,M,M,M,M,M,M,M,M,M,M,M,M,M,M,M,M,80.08,LFOA 121500Z AUTO VRB03KT CAVOK 27/11 Q1030 NOSIG,M
LFOA,LFOA,2019-09-12 15:30,82.40,51.80,34.69,M,3.00,0.00,30.42,M,6.21,M,NSC,M,M,M,M,M,M,M,M,M,M,M,M,M,M,81.20,LFOA 121530Z AUTO VRB03KT 9999 NSC 28/11 Q1030 NOSIG,M
LFOA,LFOA,2019-09-12 16:00,80.60,51.80,36.79,220.00,4.00,0.00,30.42,M,6.21,M,M,M,M,M,M,M,M,M,M,M,M,M,M,M,M,80.08,LFOA 121600Z AUTO 22004KT 170V330 CAVOK 27/11 Q1030 NOSIG,M
LFOA,LFOA,2019-09-12 16:30,80.60,51.80,36.79,60.00,4.00,0.00,30.42,M,6.21,M,M,M,M,M,M,M,M,M,M,M,M,M,M,M,M,80.08,LFOA 121630Z AUTO 06004KT 010V140 CAVOK 27/11 Q1030 NOSIG,M
LFOA,LFOA,2019-09-12 17:00,80.60,51.80,36.79,M,3.00,0.00,30.42,M,6.21,M,M,M,M,M,M,M,M,M,M,M,M,M,M,M,M,80.08,LFOA 121700Z AUTO VRB03KT CAVOK 27/11 Q1030 NOSIG,M
LFOA,LFOA,2019-09-12 17:30,78.80,51.80,39.02,250.00,3.00,0.00,30.42,M,6.21,M,M,M,M,M,M,M,M,M,M,M,M,M,M,M,M,78.80,LFOA 121730Z AUTO 25003KT CAVOK 26/11 Q1030 NOSIG,M
LFOA,LFOA,2019-09-12 18:00,77.00,51.80,41.42,300.00,3.00,0.00,30.42,M,6.21,M,M,M,M,M,M,M,M,M,M,M,M,M,M,M,M,77.00,LFOA 121800Z AUTO 30003KT CAVOK 25/11 Q1030 NOSIG,M
LFOA,LFOA,2019-09-12 18:30,73.40,51.80,46.71,310.00,2.00,0.00,30.42,M,6.21,M,M,M,M,M,M,M,M,M,M,M,M,M,M,M,M,73.40,LFOA 121830Z AUTO 31002KT CAVOK 23/11 Q1030 NOSIG,M
LFOA,LFOA,2019-09-12 19:00,71.60,51.80,49.64,290.00,2.00,0.00,30.45,M,6.21,M,M,M,M,M,M,M,M,M,M,M,M,M,M,M,M,71.60,LFOA 121900Z AUTO 29002KT CAVOK 22/11 Q1031 NOSIG,M
LFOA,LFOA,2019-09-12 19:30,69.80,51.80,52.77,300.00,1.00,0.00,30.45,M,6.21,M,M,M,M,M,M,M,M,M,M,M,M,M,M,M,M,69.80,LFOA 121930Z AUTO 30001KT CAVOK 21/11 Q1031 NOSIG,M
LFOA,LFOA,2019-09-12 20:00,68.00,51.80,56.13,80.00,3.00,0.00,30.45,M,6.21,M,M,M,M,M,M,M,M,M,M,M,M,M,M,M,M,68.00,LFOA 122000Z AUTO 08003KT CAVOK 20/11 Q1031 NOSIG,M
LFOA,LFOA,2019-09-12 20:30,69.80,51.80,52.77,60.00,2.00,0.00,30.45,M,6.21,M,M,M,M,M,M,M,M,M,M,M,M,M,M,M,M,69.80,LFOA 122030Z AUTO 06002KT CAVOK 21/11 Q1031 NOSIG,M
LFOA,LFOA,2019-09-12 21:00,66.20,51.80,59.74,0.00,0.00,0.00,30.45,M,6.21,M,M,M,M,M,M,M,M,M,M,M,M,M,M,M,M,66.20,LFOA 122100Z AUTO 00000KT CAVOK 19/11 Q1031 NOSIG,M
LFOA,LFOA,2019-09-12 21:30,64.40,51.80,63.60,130.00,2.00,0.00,30.45,M,6.21,M,M,M,M,M,M,M,M,M,M,M,M,M,M,M,M,64.40,LFOA 122130Z AUTO 13002KT CAVOK 18/11 Q1031 NOSIG,M
LFOA,LFOA,2019-09-12 22:00,64.40,50.00,59.50,350.00,3.00,0.00,30.45,M,6.21,M,M,M,M,M,M,M,M,M,M,M,M,M,M,M,M,64.40,LFOA 122200Z AUTO 35003KT CAVOK 18/10 Q1031,M
LFOA,LFOA,2019-09-12 22:30,64.40,51.80,63.60,40.00,4.00,0.00,30.45,M,6.21,M,M,M,M,M,M,M,M,M,M,M,M,M,M,M,M,64.40,LFOA 122230Z AUTO 04004KT CAVOK 18/11 Q1031,M
LFOA,LFOA,2019-09-12 23:00,64.40,53.60,67.95,50.00,4.00,0.00,30.45,M,6.21,M,M,M,M,M,M,M,M,M,M,M,M,M,M,M,M,64.40,LFOA 122300Z AUTO 05004KT CAVOK 18/12 Q1031,M
LFOA,LFOA,2019-09-12 23:30,62.60,51.80,67.75,40.00,5.00,0.00,30.45,M,6.21,M,M,M,M,M,M,M,M,M,M,M,M,M,M,M,M,62.60,LFOA 122330Z AUTO 04005KT CAVOK 17/11 Q1031,M
LFOB,LFOB,2019-09-12 00:00,66.20,59.00,77.60,250.00,7.00,0.00,30.33,M,6.21,M,OVC,M,M,M,1700.00,M,M,M,M,M,M,M,M,M,M,66.20,LFOB 120000Z AUTO 25007KT 9999 OVC017 19/15 Q1027 TEMPO 2500 DZRA OVC005,M
LFOB,LFOB,2019-09-12 00:30,66.20,59.00,77.60,250.00,8.00,0.00,30.33,M,6.21,M,OVC,M,M,M,1600.00,M,M,M,M,M,M,M,M,M,M,66.20,LFOB 120030Z AUTO 25008KT 9999 OVC016 19/15 Q1027 TEMPO 2500 DZRA OVC005,M
LFOB,LFOB,2019-09-12 01:00,66.20,59.00,77.60,250.00,9.00,0.00,30.33,M,6.21,M,OVC,M,M,M,1500.00,M,M,M,M,M,M,M,M,M,M,66.20,LFOB 120100Z AUTO 25009KT 9999 OVC015 19/15 Q1027 TEMPO 2500 DZRA OVC005,M
LFOB,LFOB,2019-09-12 01:30,64.40,59.00,82.62,250.00,7.00,0.00,30.33,M,6.21,M,OVC,M,M,M,1500.00,M,M,M,M,M,M,M,M,M,M,64.40,LFOB 120130Z AUTO 25007KT 9999 OVC015 18/15 Q1027 TEMPO 2500 DZRA OVC005,M
LFOB,LFOB,2019-09-12 02:00,64.40,59.00,82.62,250.00,8.00,0.00,30.33,M,6.21,M,OVC,M,M,M,1300.00,M,M,M,M,M,M,M,M,M,M,64.40,LFOB 120200Z AUTO 25008KT 9999 OVC013 18/15 Q1027 TEMPO 2500 DZRA OVC005,M
LFOB,LFOB,2019-09-12 02:30,64.40,60.80,88.09,240.00,10.00,0.00,30.33,M,6.21,M,OVC,M,M,M,1000.00,M,M,M,M,M,M,M,M,M,M,64.40,LFOB 120230Z AUTO 24010KT 9999 OVC010 18/16 Q1027 TEMPO 2500 DZRA,M
LFOB,LFOB,2019-09-12 03:00,62.60,60.80,93.83,240.00,8.00,0.00,30.33,M,6.21,M,BKN,OVC,M,M,1000.00,1400.00,M,M,M,M,M,M,M,M,M,62.60,LFOB 120300Z AUTO 24008KT 9999 BKN010 OVC014 17/16 Q1027 TEMPO 2500 DZRA,M
LFOB,LFOB,2019-09-12 03:30,62.60,60.80,93.83,250.00,8.00,0.00,30.33,M,6.21,M,OVC,M,M,M,700.00,M,M,M,M,M,M,M,M,M,M,62.60,LFOB 120330Z AUTO 25008KT 9999 OVC007 17/16 Q1027 TEMPO 2500 DZRA,M
LFOB,LFOB,2019-09-12 04:00,62.60,60.80,93.83,250.00,6.00,0.00,30.33,M,6.21,M,OVC,M,M,M,700.00,M,M,M,M,M,M,M,M,M,M,62.60,LFOB 120400Z AUTO 25006KT 9999 OVC007 17/16 Q1027 TEMPO 2500 DZRA,M
LFOB,LFOB,2019-09-12 04:30,62.60,60.80,93.83,250.00,6.00,0.00,30.36,M,6.21,M,OVC,M,M,M,700.00,M,M,M,M,M,M,M,M,M,M,62.60,LFOB 120430Z AUTO 25006KT 9999 OVC007 17/16 Q1028 TEMPO 2500 DZRA,M
LFOB,LFOB,2019-09-12 05:00,62.60,60.80,93.83,250.00,6.00,0.00,30.36,M,6.21,M,OVC,M,M,M,700.00,M,M,M,M,M,M,M,M,M,M,62.60,LFOB 120500Z AUTO 25006KT 9999 OVC007 17/16 Q1028 TEMPO 2500 DZRA,M
LFOB,LFOB,2019-09-12 05:30,62.60,60.80,93.83,250.00,6.00,0.00,30.36,M,6.21,M,OVC,M,M,M,700.00,M,M,M,M,M,M,M,M,M,M,62.60,LFOB 120530Z AUTO 25006KT 9999 OVC007 17/16 Q1028 TEMPO 2500 DZRA,M
LFOB,LFOB,2019-09-12 06:00,62.60,60.80,93.83,240.00,7.00,0.00,30.36,M,5.59,M,OVC,M,M,M,700.00,M,M,M,M,M,M,M,M,M,M,62.60,LFOB 120600Z AUTO 24007KT 9000 OVC007 17/16 Q1028 TEMPO BKN013,M
LFOB,LFOB,2019-09-12 06:30,62.60,60.80,93.83,230.00,6.00,0.00,30.39,M,6.21,M,SCT,BKN,OVC,M,800.00,1300.00,2200.00,M,M,M,M,M,M,M,M,62.60,LFOB 120630Z AUTO 23006KT 9999 SCT008 BKN013 OVC022 17/16 Q1029 NOSIG,M
LFOB,LFOB,2019-09-12 07:00,62.60,60.80,93.83,230.00,7.00,0.00,30.39,M,6.21,M,BKN,BKN,OVC,M,700.00,1500.00,2000.00,M,M,M,M,M,M,M,M,62.60,LFOB 120700Z AUTO 23007KT 9999 BKN007 BKN015 OVC020 17/16 Q1029 TEMPO BKN013,M
LFOB,LFOB,2019-09-12 07:30,64.40,62.60,93.88,240.00,7.00,0.00,30.42,M,6.21,M,BKN,OVC,M,M,700.00,1100.00,M,M,M,M,M,M,M,M,M,64.40,LFOB 120730Z AUTO 24007KT 9999 BKN007 OVC011 18/17 Q1030 TEMPO BKN013,M
LFOB,LFOB,2019-09-12 08:00,64.40,62.60,93.88,230.00,7.00,0.00,30.42,M,6.21,M,BKN,BKN,OVC,M,700.00,1100.00,1600.00,M,M,M,M,M,M,M,M,64.40,LFOB 120800Z AUTO 23007KT 9999 BKN007 BKN011 OVC016 18/17 Q1030 TEMPO BKN013,M
LFOB,LFOB,2019-09-12 08:30,66.20,60.80,82.74,240.00,9.00,0.00,30.42,M,6.21,M,BKN,OVC,M,M,1100.00,2200.00,M,M,M,M,M,M,M,M,M,66.20,LFOB 120830Z AUTO 24009KT 9999 BKN011 OVC022 19/16 Q1030 NOSIG,M
LFOB,LFOB,2019-09-12 09:00,66.20,62.60,88.18,230.00,8.00,0.00,30.42,M,6.21,M,OVC,M,M,M,1000.00,M,M,M,M,M,M,M,M,M,M,66.20,LFOB 120900Z AUTO 23008KT 9999 OVC010 19/17 Q1030 NOSIG,M
LFOB,LFOB,2019-09-12 09:30,66.20,62.60,88.18,240.00,7.00,0.00,30.45,M,6.21,M,OVC,M,M,M,1000.00,M,M,M,M,M,M,M,M,M,M,66.20,LFOB 120930Z AUTO 24007KT 9999 OVC010 19/17 Q1031 NOSIG,M
LFOB,LFOB,2019-09-12 10:00,66.20,62.60,88.18,240.00,6.00,0.00,30.45,M,6.21,M,BKN,BKN,OVC,M,800.00,1300.00,2500.00,M,M,M,M,M,M,M,M,66.20,LFOB 121000Z AUTO 24006KT 9999 BKN008 BKN013 OVC025 19/17 Q1031 TEMPO BKN013,M
LFOB,LFOB,2019-09-12 10:30,66.20,64.40,93.92,240.00,5.00,0.00,30.45,M,6.21,M,SCT,BKN,BKN,M,800.00,1300.00,1800.00,M,M,M,M,M,M,M,M,66.20,LFOB 121030Z AUTO 24005KT 200V270 9999 SCT008 BKN013 BKN018 19/18 Q1031 BECMG BKN030,M
LFOB,LFOB,2019-09-12 11:00,69.80,62.60,77.90,250.00,8.00,0.00,30.45,M,6.21,M,FEW,SCT,BKN,M,800.00,1300.00,1900.00,M,M,M,M,M,M,M,M,69.80,LFOB 121100Z AUTO 25008KT 220V280 9999 FEW008 SCT013 BKN019 21/17 Q1031 TEMPO BKN013,M
LFOB,LFOB,2019-09-12 11:30,69.80,62.60,77.90,250.00,6.00,0.00,30.45,M,6.21,M,FEW,SCT,OVC,M,1600.00,2100.00,2800.00,M,M,M,M,M,M,M,M,69.80,LFOB 121130Z AUTO 25006KT 210V270 9999 FEW016 SCT021 OVC028 21/17 Q1031 NOSIG,M
LFOB,LFOB,2019-09-12 12:00,69.80,62.60,77.90,240.00,8.00,0.00,30.45,M,6.21,M,SCT,OVC,M,M,2000.00,2600.00,M,M,M,M,M,M,M,M,M,69.80,LFOB 121200Z AUTO 24008KT 9999 SCT020 OVC026 21/17 Q1031 NOSIG,M
LFOB,LFOB,2019-09-12 12:30,69.80,62.60,77.90,270.00,8.00,0.00,30.45,M,6.21,M,SCT,OVC,M,M,1700.00,2600.00,M,M,M,M,M,M,M,M,M,69.80,LFOB 121230Z AUTO 27008KT 9999 SCT017 OVC026 21/17 Q1031 NOSIG,M
LFOB,LFOB,2019-09-12 13:00,71.60,62.60,73.27,240.00,7.00,0.00,30.45,M,6.21,M,FEW,BKN,BKN,M,1900.00,2600.00,3100.00,M,M,M,M,M,M,M,M,71.60,LFOB 121300Z AUTO 24007KT 190V270 9999 FEW019 BKN026 BKN031 22/17 Q1031 NOSIG,M
LFOB,LFOB,2019-09-12 13:30,73.40,60.80,64.69,230.00,7.00,0.00,30.45,M,6.21,M,BKN,BKN,M,M,2200.00,3800.00,M,M,M,M,M,M,M,M,M,73.40,LFOB 121330Z AUTO 23007KT 180V280 9999 BKN022 BKN038 23/16 Q1031 NOSIG,M
LFOB,LFOB,2019-09-12 14:00,71.60,62.60,73.27,240.00,8.00,0.00,30.45,M,6.21,M,SCT,OVC,M,M,2500.00,3700.00,M,M,M,M,M,M,M,M,M,71.60,LFOB 121400Z AUTO 24008KT 220V290 9999 SCT025 OVC037 22/17 Q1031 NOSIG,M
LFOB,LFOB,2019-09-12 14:30,71.60,60.80,68.75,240.00,7.00,0.00,30.45,M,6.21,M,FEW,BKN,OVC,M,2500.00,3100.00,3800.00,M,M,M,M,M,M,M,M,71.60,LFOB 121430Z AUTO 24007KT 200V280 9999 FEW025 BKN031 OVC038 22/16 Q1031 NOSIG,M
LFOB,LFOB,2019-09-12 15:00,71.60,62.60,73.27,230.00,7.00,0.00,30.45,M,6.21,M,FEW,BKN,OVC,M,2500.00,3500.00,4500.00,M,M,M,M,M,M,M,M,71.60,LFOB 121500Z AUTO 23007KT 9999 FEW025 BKN035 OVC045 22/17 Q1031 NOSIG,M
LFOB,LFOB,2019-09-12 15:30,71.60,60.80,68.75,220.00,6.00,0.00,30.42,M,6.21,M,BKN,BKN,OVC,M,2600.00,3200.00,4500.00,M,M,M,M,M,M,M,M,71.60,LFOB 121530Z AUTO 22006KT 9999 BKN026 BKN032 OVC045 22/16 Q1030 NOSIG,M
LFOB,LFOB,2019-09-12 16:00,71.60,62.60,73.27,240.00,5.00,0.00,30.45,M,6.21,M,BKN,BKN,OVC,M,2700.00,3800.00,4500.00,M,M,M,M,M,M,M,M,71.60,LFOB 121600Z AUTO 24005KT 9999 BKN027 BKN038 OVC045 22/17 Q1031 NOSIG,M
LFOB,LFOB,2019-09-12 16:30,69.80,62.60,77.90,290.00,9.00,0.00,30.45,M,6.21,M,BKN,BKN,OVC,M,2500.00,3700.00,4700.00,M,M,M,M,M,M,M,M,69.80,LFOB 121630Z AUTO 29009KT 9999 BKN025 BKN037 OVC047 21/17 Q1031 NOSIG,M
LFOB,LFOB,2019-09-12 17:00,69.80,62.60,77.90,270.00,6.00,0.00,30.45,M,6.21,M,FEW,SCT,BKN,M,1800.00,3000.00,4100.00,M,M,M,M,M,M,M,M,69.80,LFOB 121700Z AUTO 27006KT 230V290 9999 FEW018 SCT030 BKN041 21/17 Q1031 NOSIG,M
LFOB,LFOB,2019-09-12 17:30,68.00,62.60,82.86,290.00,7.00,0.00,30.45,M,6.21,M,BKN,OVC,M,M,1800.00,4600.00,M,M,M,M,M,M,M,M,M,68.00,LFOB 121730Z AUTO 29007KT 260V320 9999 BKN018 OVC046 20/17 Q1031 NOSIG,M
LFOB,LFOB,2019-09-12 18:00,66.20,62.60,88.18,300.00,9.00,0.00,30.45,M,6.21,M,SCT,BKN,BKN,M,900.00,1400.00,2600.00,M,M,M,M,M,M,M,M,66.20,LFOB 121800Z AUTO 30009KT 9999 SCT009 BKN014 BKN026 19/17 Q1031 BECMG SCT015 BKN030,M
LFOB,LFOB,2019-09-12 18:30,66.20,62.60,88.18,290.00,8.00,0.00,30.45,M,6.21,M,SCT,BKN,OVC,M,1000.00,1600.00,4300.00,M,M,M,M,M,M,M,M,66.20,LFOB 121830Z AUTO 29008KT 9999 SCT010 BKN016 OVC043 19/17 Q1031 NOSIG,M
LFOB,LFOB,2019-09-12 19:00,66.20,62.60,88.18,300.00,8.00,0.00,30.45,M,6.21,M,FEW,BKN,OVC,M,1000.00,1500.00,3700.00,M,M,M,M,M,M,M,M,66.20,LFOB 121900Z AUTO 30008KT 9999 FEW010 BKN015 OVC037 19/17 Q1031 NOSIG,M
LFOB,LFOB,2019-09-12 19:30,66.20,60.80,82.74,290.00,8.00,0.00,30.47,M,6.21,M,OVC,M,M,M,3900.00,M,M,M,M,M,M,M,M,M,M,66.20,LFOB 121930Z AUTO 29008KT 9999 OVC039 19/16 Q1032 NOSIG,M
LFOB,LFOB,2019-09-12 20:00,64.40,60.80,88.09,270.00,5.00,0.00,30.47,M,6.21,M,OVC,M,M,M,3700.00,M,M,M,M,M,M,M,M,M,M,64.40,LFOB 122000Z AUTO 27005KT 9999 OVC037 18/16 Q1032 NOSIG,M
LFOB,LFOB,2019-09-12 20:30,62.60,59.00,88.00,270.00,4.00,0.00,30.47,M,6.21,M,BKN,M,M,M,3500.00,M,M,M,M,M,M,M,M,M,M,62.60,LFOB 122030Z AUTO 27004KT 230V290 9999 BKN035 17/15 Q1032 NOSIG,M
LFOB,LFOB,2019-09-12 21:00,62.60,59.00,88.00,250.00,2.00,0.00,30.47,M,6.21,M,SCT,M,M,M,3300.00,M,M,M,M,M,M,M,M,M,M,62.60,LFOB 122100Z AUTO 25002KT 9999 SCT033 17/15 Q1032 NOSIG,M
LFOB,LFOB,2019-09-12 21:30,60.80,57.20,87.92,270.00,3.00,0.00,30.47,M,6.21,M,FEW,M,M,M,3300.00,M,M,M,M,M,M,M,M,M,M,60.80,LFOB 122130Z AUTO 27003KT 9999 FEW033 16/14 Q1032 NOSIG,M
LFOB,LFOB,2019-09-12 22:00,59.00,57.20,93.74,M,1.00,0.00,30.47,M,6.21,M,FEW,M,M,M,3100.00,M,M,M,M,M,M,M,M,M,M,59.00,LFOB 122200Z AUTO VRB01KT 9999 FEW031 15/14 Q1032 NOSIG,M
LFOB,LFOB,2019-09-12 22:30,57.20,55.40,93.69,290.00,3.00,0.00,30.47,M,6.21,M,M,M,M,M,M,M,M,M,M,M,M,M,M,M,M,57.20,LFOB 122230Z AUTO 29003KT CAVOK 14/13 Q1032 NOSIG,M
LFOB,LFOB,2019-09-12 23:00,57.20,55.40,93.69,290.00,3.00,0.00,30.47,M,6.21,M,M,M,M,M,M,M,M,M,M,M,M,M,M,M,M,57.20,LFOB 122300Z AUTO 29003KT CAVOK 14/13 Q1032 NOSIG,M
LFOB,LFOB,2019-09-12 23:30,55.40,53.60,93.65,240.00,2.00,0.00,30.47,M,6.21,M,NSC,M,M,M,M,M,M,M,M,M,M,M,M,M,M,55.40,LFOB 122330Z AUTO 24002KT 9999 1100 R30/1800D R12/P2000 NSC 13/12 Q1032 NOSIG,M
LFOC,LFOC,2019-09-12 00:00,51.80,48.20,87.47,250.00,3.00,0.00,30.39,M,6.21,M,M,M,M,M,M,M,M,M,M,M,M,M,M,M,M,51.80,LFOC 120000Z AUTO 25003KT CAVOK 11/09 Q1029,M
LFOC,LFOC,2019-09-12 00:30,53.60,50.00,87.56,250.00,3.00,0.00,30.39,M,6.21,M,M,M,M,M,M,M,M,M,M,M,M,M,M,M,M,53.60,LFOC 120030Z AUTO 25003KT CAVOK 12/10 Q1029,M
LFOC,LFOC,2019-09-12 01:00,53.60,50.00,87.56,250.00,4.00,0.00,30.39,M,6.21,M,M,M,M,M,M,M,M,M,M,M,M,M,M,M,M,53.60,LFOC 120100Z AUTO 25004KT CAVOK 12/10 Q1029,M
LFOC,LFOC,2019-09-12 01:30,53.60,50.00,87.56,260.00,4.00,0.00,30.39,M,6.21,M,M,M,M,M,M,M,M,M,M,M,M,M,M,M,M,53.60,LFOC 120130Z AUTO 26004KT CAVOK 12/10 Q1029,M
LFOC,LFOC,2019-09-12 02:00,51.80,50.00,93.55,230.00,4.00,0.00,30.39,M,6.21,M,M,M,M,M,M,M,M,M,M,M,M,M,M,M,M,51.80,LFOC 120200Z AUTO 23004KT CAVOK 11/10 Q1029,M
LFOC,LFOC,2019-09-12 02:30,51.80,51.80,100.00,260.00,3.00,0.00,30.39,M,6.21,M,M,M,M,M,M,M,M,M,M,M,M,M,M,M,M,51.80,LFOC 120230Z AUTO 26003KT CAVOK 11/11 Q1029,M
LFOC,LFOC,2019-09-12 03:00,51.80,50.00,93.55,230.00,3.00,0.00,30.39,M,6.21,M,M,M,M,M,M,M,M,M,M,M,M,M,M,M,M,51.80,LFOC 120300Z AUTO 23003KT CAVOK 11/10 Q1029,M
LFOC,LFOC,2019-09-12 03:30,51.80,50.00,93.55,240.00,6.00,0.00,30.39,M,6.21,M,M,M,M,M,M,M,M,M,M,M,M,M,M,M,M,51.80,LFOC 120330Z AUTO 24006KT CAVOK 11/10 Q1029,M
LFOC,LFOC,2019-09-12 04:00,53.60,51.80,93.60,250.00,5.00,0.00,30.39,M,6.21,M,M,M,M,M,M,M,M,M,M,M,M,M,M,M,M,53.60,LFOC 120400Z AUTO 25005KT CAVOK 12/11 Q1029,M
LFOC,LFOC,2019-09-12 04:30,53.60,53.60,100.00,0.00,0.00,0.00,30.39,M,6.21,M,M,M,M,M,M,M,M,M,M,M,M,M,M,M,M,53.60,LFOC 120430Z AUTO 00000KT CAVOK 12/12 Q1029,M
LFOC,LFOC,2019-09-12 05:00,51.80,51.80,100.00,M,2.00,0.00,30.42,M,6.21,M,M,M,M,M,M,M,M,M,M,M,M,M,M,M,M,51.80,LFOC 120500Z AUTO VRB02KT CAVOK 11/11 Q1030,M
LFOC,LFOC,2019-09-12 05:30,53.60,53.60,100.00,280.00,3.00,0.00,30.42,M,6.21,M,FEW,M,M,M,500.00,M,M,M,M,M,M,M,M,M,M,53.60,LFOC 120530Z AUTO 28003KT 9999 FEW005 12/12 Q1030,M
LFOC,LFOC,2019-09-12 06:00,59.00,59.00,100.00,310.00,3.00,0.00,30.42,M,6.21,M,OVC,M,M,M,500.00,M,M,M,M,M,M,M,M,M,M,59.00,LFOC 120600Z AUTO 31003KT 260V350 9999 OVC005 15/15 Q1030 TEMPO 4000 BR,M
LFOC,LFOC,2019-09-12 06:30,59.00,59.00,100.00,290.00,3.00,0.00,30.42,M,6.21,M,BKN,M,M,M,600.00,M,M,M,M,M,M,M,M,M,M,59.00,LFOC 120630Z AUTO 29003KT 250V310 9999 BKN006 15/15 Q1030 TEMPO 4000 BR BECMG BKN025,M
LFOC,LFOC,2019-09-12 07:00,60.80,59.00,93.79,250.00,5.00,0.00,30.45,M,6.21,M,M,M,M,M,M,M,M,M,M,M,M,M,M,M,M,60.80,LFOC 120700Z AUTO 25005KT 220V280 CAVOK 16/15 Q1031 TEMPO 4000 BR OVC004,M
LFOC,LFOC,2019-09-12 07:30,62.60,59.00,88.00,260.00,4.00,0.00,30.45,M,6.21,M,M,M,M,M,M,M,M,M,M,M,M,M,M,M,M,62.60,LFOC 120730Z AUTO 26004KT 230V290 CAVOK 17/15 Q1031 NOSIG,M
LFOC,LFOC,2019-09-12 08:00,64.40,59.00,82.62,240.00,4.00,0.00,30.45,M,6.21,M,BKN,M,M,M,4800.00,M,M,M,M,M,M,M,M,M,M,64.40,LFOC 120800Z AUTO 24004KT 200V290 9999 BKN048 18/15 Q1031 NOSIG,M
LFOC,LFOC,2019-09-12 08:30,66.20,59.00,77.60,M,3.00,0.00,30.47,M,6.21,M,FEW,M,M,M,4800.00,M,M,M,M,M,M,M,M,M,M,66.20,LFOC 120830Z AUTO VRB03KT 9999 FEW048 19/15 Q1032 NOSIG,M
LFOC,LFOC,2019-09-12 09:00,68.00,59.00,72.92,310.00,5.00,0.00,30.47,M,6.21,M,M,M,M,M,M,M,M,M,M,M,M,M,M,M,M,68.00,LFOC 120900Z AUTO 31005KT 270V350 CAVOK 20/15 Q1032 NOSIG,M
LFOC,LFOC,2019-09-12 09:30,69.80,60.80,73.09,270.00,5.00,0.00,30.47,M,6.21,M,OVC,M,M,M,4700.00,M,M,M,M,M,M,M,M,M,M,69.80,LFOC 120930Z AUTO 27005KT 230V340 9999 OVC047 21/16 Q1032 NOSIG,M
LFOC,LFOC,2019-09-12 10:00,71.60,60.80,68.75,280.00,5.00,0.00,30.47,M,6.21,M,FEW,BKN,M,M,2200.00,4600.00,M,M,M,M,M,M,M,M,M,71.60,LFOC 121000Z AUTO 28005KT 210V330 9999 FEW022 BKN046 22/16 Q1032 NOSIG,M
LFOC,LFOC,2019-09-12 10:30,71.60,60.80,68.75,320.00,5.00,0.00,30.47,M,6.21,M,BKN,OVC,M,M,2500.00,4800.00,M,M,M,M,M,M,M,M,M,71.60,LFOC 121030Z AUTO 32005KT 270V040 9999 BKN025 OVC048 22/16 Q1032 NOSIG,M
LFOC,LFOC,2019-09-12 11:00,75.20,60.80,60.90,M,5.00,0.00,30.47,M,6.21,M,BKN,BKN,M,M,2800.00,4700.00,M,M,M,M,M,M,M,M,M,75.20,LFOC 121100Z AUTO VRB05KT 9999 BKN028 BKN047 24/16 Q1032 NOSIG,M
LFOC,LFOC,2019-09-12 11:30,73.40,60.80,64.69,330.00,3.00,0.00,30.47,M,6.21,M,SCT,SCT,M,M,3000.00,3500.00,M,M,M,M,M,M,M,M,M,73.40,LFOC 121130Z AUTO 33003KT 280V010 9999 SCT030 SCT035 23/16 Q1032 NOSIG,M
LFOC,LFOC,2019-09-12 12:00,75.20,60.80,60.90,M,5.00,0.00,30.47,M,6.21,M,BKN,M,M,M,3500.00,M,M,M,M,M,M,M,M,M,M,75.20,LFOC 121200Z AUTO VRB05KT 9999 BKN035 24/16 Q1032 NOSIG,M
LFOC,LFOC,2019-09-12 12:30,75.20,60.80,60.90,270.00,5.00,0.00,30.47,M,6.21,M,OVC,M,M,M,3400.00,M,M,M,M,M,M,M,M,M,M,75.20,LFOC 121230Z AUTO 27005KT 230V010 9999 OVC034 24/16 Q1032 NOSIG,M
LFOC,LFOC,2019-09-12 13:00,75.20,60.80,60.90,M,3.00,0.00,30.45,M,6.21,M,OVC,M,M,M,3600.00,M,M,M,M,M,M,M,M,M,M,75.20,LFOC 121300Z AUTO VRB03KT 9999 OVC036 24/16 Q1031 NOSIG,M
LFOC,LFOC,2019-09-12 13:30,77.00,60.80,57.36,M,4.00,0.00,30.45,M,6.21,M,OVC,M,M,M,4000.00,M,M,M,M,M,M,M,M,M,M,77.00,LFOC 121330Z AUTO VRB04KT 9999 OVC040 25/16 Q1031 NOSIG,M
LFOC,LFOC,2019-09-12 14:00,77.00,60.80,57.36,270.00,4.00,0.00,30.45,M,6.21,M,OVC,M,M,M,3900.00,M,M,M,M,M,M,M,M,M,M,77.00,LFOC 121400Z AUTO 27004KT 210V010 9999 OVC039 25/16 Q1031 NOSIG,M
LFOC,LFOC,2019-09-12 14:30,80.60,60.80,50.95,M,4.00,0.00,30.45,M,6.21,M,OVC,M,M,M,4100.00,M,M,M,M,M,M,M,M,M,M,81.46,LFOC 121430Z AUTO VRB04KT 9999 OVC041 27/16 Q1031 NOSIG,M
LFOC,LFOC,2019-09-12 15:00,80.60,59.00,47.79,230.00,4.00,0.00,30.45,M,6.21,M,SCT,M,M,M,4300.00,M,M,M,M,M,M,M,M,M,M,81.11,LFOC 121500Z AUTO 23004KT 160V320 9999 SCT043 27/15 Q1031 NOSIG,M
LFOC,LFOC,2019-09-12 15:30,78.80,60.80,54.05,210.00,5.00,0.00,30.45,M,6.21,M,SCT,M,M,M,4300.00,M,M,M,M,M,M,M,M,M,M,78.80,LFOC 121530Z AUTO 21005KT 150V270 9999 SCT043 26/16 Q1031,M
LFOC,LFOC,2019-09-12 16:00,77.00,59.00,53.80,230.00,6.00,0.00,30.45,M,6.21,M,BKN,M,M,M,4400.00,M,M,M,M,M,M,M,M,M,M,77.00,LFOC 121600Z AUTO 23006KT 160V290 9999 BKN044 25/15 Q1031,M
LFOC,LFOC,2019-09-12 16:30,77.00,60.80,57.36,270.00,7.00,0.00,30.45,M,6.21,M,BKN,M,M,M,4400.00,M,M,M,M,M,M,M,M,M,M,77.00,LFOC 121630Z AUTO 27007KT 9999 BKN044 25/16 Q1031,M
LFOC,LFOC,2019-09-12 17:00,77.00,60.80,57.36,290.00,7.00,0.00,30.45,M,6.21,M,OVC,M,M,M,4400.00,M,M,M,M,M,M,M,M,M,M,77.00,LFOC 121700Z AUTO 29007KT 260V330 9999 OVC044 25/16 Q1031,M
LFOC,LFOC,2019-09-12 17:30,75.20,60.80,60.90,340.00,8.00,0.00,30.45,M,6.21,M,OVC,M,M,M,4300.00,M,M,M,M,M,M,M,M,M,M,75.20,LFOC 121730Z AUTO 34008KT 9999 OVC043 24/16 Q1031,M
LFOC,LFOC,2019-09-12 18:00,73.40,60.80,64.69,320.00,9.00,0.00,30.45,M,6.21,M,FEW,M,M,M,4300.00,M,M,M,M,M,M,M,M,M,M,73.40,LFOC 121800Z AUTO 32009KT 9999 FEW043 23/16 Q1031,M
LFOC,LFOC,2019-09-12 18:30,71.60,60.80,68.75,320.00,6.00,0.00,30.45,M,6.21,M,M,M,M,M,M,M,M,M,M,M,M,M,M,M,M,71.60,LFOC 121830Z AUTO 32006KT CAVOK 22/16 Q1031,M
LFOC,LFOC,2019-09-12 19:00,69.80,59.00,68.55,360.00,4.00,0.00,30.45,M,6.21,M,M,M,M,M,M,M,M,M,M,M,M,M,M,M,M,69.80,LFOC 121900Z AUTO 36004KT CAVOK 21/15 Q1031,M
LFOC,LFOC,2019-09-12 19:30,68.00,59.00,72.92,340.00,3.00,0.00,30.45,M,6.21,M,M,M,M,M,M,M,M,M,M,M,M,M,M,M,M,68.00,LFOC 121930Z AUTO 34003KT CAVOK 20/15 Q1031,M
LFOC,LFOC,2019-09-12 20:00,68.00,59.00,72.92,320.00,5.00,0.00,30.47,M,6.21,M,M,M,M,M,M,M,M,M,M,M,M,M,M,M,M,68.00,LFOC 122000Z AUTO 32005KT CAVOK 20/15 Q1032,M
LFOC,LFOC,2019-09-12 20:30,66.20,60.80,82.74,330.00,6.00,0.00,30.47,M,6.21,M,M,M,M,M,M,M,M,M,M,M,M,M,M,M,M,66.20,LFOC 122030Z AUTO 33006KT CAVOK 19/16 Q1032,M
LFOC,LFOC,2019-09-12 21:00,66.20,60.80,82.74,340.00,5.00,0.00,30.47,M,6.21,M,M,M,M,M,M,M,M,M,M,M,M,M,M,M,M,66.20,LFOC 122100Z AUTO 34005KT CAVOK 19/16 Q1032,M
LFOC,LFOC,2019-09-12 21:30,64.40,59.00,82.62,350.00,5.00,0.00,30.47,M,6.21,M,M,M,M,M,M,M,M,M,M,M,M,M,M,M,M,64.40,LFOC 122130Z AUTO 35005KT CAVOK 18/15 Q1032,M
LFOC,LFOC,2019-09-12 22:00,64.40,59.00,82.62,360.00,5.00,0.00,30.47,M,6.21,M,M,M,M,M,M,M,M,M,M,M,M,M,M,M,M,64.40,LFOC 122200Z AUTO 36005KT CAVOK 18/15 Q1032,M
LFOC,LFOC,2019-09-12 22:30,62.60,59.00,88.00,360.00,5.00,0.00,30.47,M,6.21,M,M,M,M,M,M,M,M,M,M,M,M,M,M,M,M,62.60,LFOC 122230Z AUTO 36005KT CAVOK 17/15 Q1032,M
LFOC,LFOC,2019-09-12 23:00,62.60,59.00,88.00,360.00,3.00,0.00,30.47,M,6.21,M,M,M,M,M,M,M,M,M,M,M,M,M,M,M,M,62.60,LFOC 122300Z AUTO 36003KT CAVOK 17/15 Q1032,M
LFOC,LFOC,2019-09-12 23:30,60.80,59.00,93.79,360.00,3.00,0.00,30.47,M,6.21,M,M,M,M,M,M,M,M,M,M,M,M,M,M,M,M,60.80,LFOC 122330Z AUTO 36003KT 330V030 CAVOK 16/15 Q1032,M
LFOE,LFOE,2019-09-12 00:00,64.40,59.00,82.62,250.00,9.00,0.00,30.36,M,6.21,M,OVC,M,M,M,1800.00,M,M,M,M,M,M,M,M,M,M,64.40,LFOE 120000Z AUTO 25009KT 9999 OVC018 18/15 Q1028 TEMPO 4000 -DZRA BKN005 OVC008,M
LFOE,LFOE,2019-09-12 00:30,60.80,57.20,87.92,M,M,0.00,30.36,M,6.21,M,BKN,M,M,M,1800.00,M,M,M,M,M,M,M,M,M,M,60.80,LFOE 120030Z AUTO /////KT 9999 BKN018 16/14 Q1028,M
LFOE,LFOE,2019-09-12 01:00,60.80,59.00,93.79,240.00,6.00,0.00,30.36,M,6.21,M,BKN,M,M,M,1400.00,M,M,M,M,M,M,M,M,M,M,60.80,LFOE 120100Z AUTO 24006KT 9999 BKN014 16/15 Q1028,M
LFOE,LFOE,2019-09-12 01:30,60.80,57.20,87.92,240.00,6.00,0.00,30.36,M,6.21,M,FEW,BKN,M,M,1400.00,2400.00,M,M,M,M,M,M,M,M,M,60.80,LFOE 120130Z AUTO 24006KT 9999 FEW014 BKN024 16/14 Q1028,M
LFOE,LFOE,2019-09-12 02:00,60.80,59.00,93.79,240.00,6.00,0.00,30.36,M,6.21,M,OVC,M,M,M,2100.00,M,M,M,M,M,M,M,M,M,M,60.80,LFOE 120200Z AUTO 24006KT 9999 OVC021 16/15 Q1028,M
LFOE,LFOE,2019-09-12 02:30,62.60,59.00,88.00,230.00,6.00,0.00,30.36,M,6.21,M,BKN,OVC,M,M,1400.00,1900.00,M,M,M,M,M,M,M,M,M,62.60,LFOE 120230Z AUTO 23006KT 9999 BKN014 OVC019 17/15 Q1028,M
LFOE,LFOE,2019-09-12 03:00,62.60,59.00,88.00,250.00,6.00,0.00,30.36,M,6.21,M,OVC,M,M,M,1200.00,M,M,M,M,M,M,M,M,M,M,62.60,LFOE 120300Z AUTO 25006KT 9999 OVC012 17/15 Q1028,M
LFOE,LFOE,2019-09-12 03:30,62.60,59.00,88.00,250.00,6.00,0.00,30.36,M,6.21,M,OVC,M,M,M,1100.00,M,M,M,M,M,M,M,M,M,M,62.60,LFOE 120330Z AUTO 25006KT 9999 OVC011 17/15 Q1028,M
LFOE,LFOE,2019-09-12 04:00,62.60,59.00,88.00,260.00,6.00,0.00,30.36,M,6.21,M,OVC,M,M,M,1200.00,M,M,M,M,M,M,M,M,M,M,62.60,LFOE 120400Z AUTO 26006KT 9999 OVC012 17/15 Q1028 TEMPO 3000 -DZRA OVC004,M
LFOE,LFOE,2019-09-12 04:30,62.60,59.00,88.00,250.00,6.00,0.00,30.36,M,6.21,M,OVC,M,M,M,1200.00,M,M,M,M,M,M,M,M,M,M,62.60,LFOE 120430Z AUTO 25006KT 220V280 9999 OVC012 17/15 Q1028 TEMPO 3000 -DZRA OVC004,M
LFOE,LFOE,2019-09-12 05:00,64.40,59.00,82.62,M,M,0.00,30.36,M,6.21,M,OVC,M,M,M,1100.00,M,M,M,M,M,M,M,M,M,M,64.40,LFOE 120500Z AUTO /////KT 9999 OVC011 18/15 Q1028,M
LFOE,LFOE,2019-09-12 05:30,62.60,59.00,88.00,240.00,6.00,0.00,30.39,M,6.21,M,OVC,M,M,M,1200.00,M,M,M,M,M,M,M,M,M,M,62.60,LFOE 120530Z AUTO 24006KT 9999 OVC012 17/15 Q1029 TEMPO 3000 -DZRA OVC004,M
LFOE,LFOE,2019-09-12 06:00,64.40,59.00,82.62,260.00,6.00,0.00,30.39,M,6.21,M,OVC,M,M,M,1100.00,M,M,M,M,M,M,M,M,M,M,64.40,LFOE 120600Z AUTO 26006KT 9999 OVC011 18/15 Q1029 TEMPO 3000 -DZRA OVC004,M
LFOE,LFOE,2019-09-12 06:30,64.40,59.00,82.62,250.00,7.00,0.00,30.39,M,6.21,M,OVC,M,M,M,1100.00,M,M,M,M,M,M,M,M,M,M,64.40,LFOE 120630Z AUTO 25007KT 9999 OVC011 18/15 Q1029 TEMPO 3000 -DZRA OVC004,M
LFOE,LFOE,2019-09-12 07:00,64.40,60.80,88.09,260.00,7.00,0.00,30.42,M,6.21,M,OVC,M,M,M,1100.00,M,M,M,M,M,M,M,M,M,M,64.40,LFOE 120700Z AUTO 26007KT 9999 OVC011 18/16 Q1030 TEMPO 3000 -DZRA OVC004,M
LFOE,LFOE,2019-09-12 07:30,64.40,59.00,82.62,260.00,7.00,0.00,30.42,M,6.21,M,OVC,M,M,M,1200.00,M,M,M,M,M,M,M,M,M,M,64.40,LFOE 120730Z AUTO 26007KT 230V290 9999 OVC012 18/15 Q1030 TEMPO 3000 -DZRA OVC004,M
LFOE,LFOE,2019-09-12 08:00,66.20,60.80,82.74,250.00,8.00,0.00,30.45,M,6.21,M,OVC,M,M,M,1200.00,M,M,M,M,M,M,M,M,M,M,66.20,LFOE 120800Z AUTO 25008KT 9999 OVC012 19/16 Q1031 TEMPO 3000 -DZRA OVC004,M
LFOE,LFOE,2019-09-12 08:30,66.20,60.80,82.74,270.00,9.00,0.00,30.45,M,6.21,M,BKN,OVC,M,M,1200.00,2200.00,M,M,M,M,M,M,M,M,M,66.20,LFOE 120830Z AUTO 27009KT 9999 BKN012 OVC022 19/16 Q1031 TEMPO 3000 -DZRA BECMG SCT015 BKN025,M
LFOE,LFOE,2019-09-12 09:00,66.20,60.80,82.74,270.00,8.00,0.00,30.45,M,6.21,M,OVC,M,M,M,1200.00,M,M,M,M,M,M,M,M,M,M,66.20,LFOE 120900Z AUTO 27008KT 9999 OVC012 19/16 Q1031 TEMPO 3000 -DZRA BECMG SCT015 BKN025,M
LFOE,LFOE,2019-09-12 09:30,68.00,60.80,77.75,260.00,7.00,0.00,30.45,M,6.21,M,BKN,OVC,M,M,1300.00,1900.00,M,M,M,M,M,M,M,M,M,68.00,LFOE 120930Z AUTO 26007KT 240V300 9999 BKN013 OVC019 20/16 Q1031 BECMG SCT015 BKN025,M
LFOE,LFOE,2019-09-12 10:00,68.00,60.80,77.75,270.00,7.00,0.00,30.45,M,6.21,M,OVC,M,M,M,1600.00,M,M,M,M,M,M,M,M,M,M,68.00,LFOE 121000Z AUTO 27007KT 230V300 9999 OVC016 20/16 Q1031 NOSIG,M
LFOE,LFOE,2019-09-12 10:30,69.80,60.80,73.09,260.00,6.00,0.00,30.45,M,6.21,M,OVC,M,M,M,1700.00,M,M,M,M,M,M,M,M,M,M,69.80,LFOE 121030Z AUTO 26006KT 230V300 9999 OVC017 21/16 Q1031 NOSIG,M
LFOE,LFOE,2019-09-12 11:00,69.80,60.80,73.09,270.00,8.00,0.00,30.45,M,6.21,M,OVC,M,M,M,2000.00,M,M,M,M,M,M,M,M,M,M,69.80,LFOE 121100Z AUTO 27008KT 240V300 9999 OVC020 21/16 Q1031 NOSIG,M
LFOE,LFOE,2019-09-12 11:30,73.40,60.80,64.69,290.00,5.00,0.00,30.45,M,6.21,M,OVC,M,M,M,2200.00,M,M,M,M,M,M,M,M,M,M,73.40,LFOE 121130Z AUTO 29005KT 250V340 9999 OVC022 23/16 Q1031 NOSIG,M
LFOE,LFOE,2019-09-12 12:00,73.40,60.80,64.69,270.00,5.00,0.00,30.45,M,6.21,M,BKN,OVC,M,M,2400.00,4200.00,M,M,M,M,M,M,M,M,M,73.40,LFOE 121200Z AUTO 27005KT 200V010 9999 BKN024 OVC042 23/16 Q1031 NOSIG,M
LFOE,LFOE,2019-09-12 12:30,75.20,60.80,60.90,280.00,6.00,0.00,30.45,M,6.21,M,BKN,OVC,M,M,2500.00,3100.00,M,M,M,M,M,M,M,M,M,75.20,LFOE 121230Z AUTO 28006KT 240V310 9999 BKN025 OVC031 24/16 Q1031 NOSIG,M
LFOE,LFOE,2019-09-12 13:00,73.40,60.80,64.69,250.00,5.00,0.00,30.45,M,6.21,M,BKN,OVC,M,M,2800.00,3400.00,M,M,M,M,M,M,M,M,M,73.40,LFOE 121300Z AUTO 25005KT 210V300 9999 BKN028 OVC034 23/16 Q1031 NOSIG,M
LFOE,LFOE,2019-09-12 13:30,73.40,60.80,64.69,280.00,8.00,0.00,30.45,M,6.21,M,BKN,OVC,M,M,2800.00,3400.00,M,M,M,M,M,M,M,M,M,73.40,LFOE 121330Z AUTO 28008KT 240V300 9999 BKN028 OVC034 23/16 Q1031 NOSIG,M
LFOE,LFOE,2019-09-12 14:00,73.40,60.80,64.69,260.00,8.00,0.00,30.45,M,6.21,M,FEW,BKN,M,M,2800.00,3400.00,M,M,M,M,M,M,M,M,M,73.40,LFOE 121400Z AUTO 26008KT 230V290 9999 FEW028 BKN034 23/16 Q1031 NOSIG,M
LFOE,LFOE,2019-09-12 14:30,71.60,60.80,68.75,280.00,9.00,0.00,30.45,M,6.21,M,OVC,M,M,M,3100.00,M,M,M,M,M,M,M,M,M,M,71.60,LFOE 121430Z AUTO 28009KT 250V320 9999 OVC031 22/16 Q1031 NOSIG,M
LFOE,LFOE,2019-09-12 15:00,71.60,60.80,68.75,280.00,9.00,0.00,30.45,M,6.21,M,OVC,M,M,M,3000.00,M,M,M,M,M,M,M,M,M,M,71.60,LFOE 121500Z AUTO 28009KT 9999 OVC030 22/16 Q1031 NOSIG,M
LFOE,LFOE,2019-09-12 15:30,71.60,60.80,68.75,270.00,8.00,0.00,30.45,M,6.21,M,OVC,M,M,M,2900.00,M,M,M,M,M,M,M,M,M,M,71.60,LFOE 121530Z AUTO 27008KT 9999 OVC029 22/16 Q1031 NOSIG,M
LFOE,LFOE,2019-09-12 16:00,71.60,60.80,68.75,300.00,6.00,0.00,30.45,M,6.21,M,FEW,OVC,M,M,2400.00,3100.00,M,M,M,M,M,M,M,M,M,71.60,LFOE 121600Z AUTO 30006KT 9999 FEW024 OVC031 22/16 Q1031 NOSIG,M
LFOE,LFOE,2019-09-12 16:30,69.80,60.80,73.09,290.00,7.00,0.00,30.45,M,6.21,M,BKN,OVC,M,M,2500.00,3200.00,M,M,M,M,M,M,M,M,M,69.80,LFOE 121630Z AUTO 29007KT 260V320 9999 BKN025 OVC032 21/16 Q1031 NOSIG,M
LFOE,LFOE,2019-09-12 17:00,68.00,62.60,82.86,320.00,6.00,0.00,30.47,M,6.21,M,FEW,SCT,BKN,M,1300.00,2000.00,3000.00,M,M,M,M,M,M,M,M,68.00,LFOE 121700Z AUTO 32006KT 280V360 9999 FEW013 SCT020 BKN030 20/17 Q1032 NOSIG,M
LFOE,LFOE,2019-09-12 17:30,66.20,62.60,88.18,300.00,5.00,0.00,30.47,M,6.21,M,FEW,SCT,BKN,M,1300.00,1900.00,2400.00,M,M,M,M,M,M,M,M,66.20,LFOE 121730Z AUTO 30005KT 9999 FEW013 SCT019 BKN024 19/17 Q1032 NOSIG,M
LFOE,LFOE,2019-09-12 18:00,66.20,62.60,88.18,300.00,5.00,0.00,30.47,M,6.21,M,FEW,OVC,M,M,2300.00,3000.00,M,M,M,M,M,M,M,M,M,66.20,LFOE 121800Z AUTO 30005KT 280V340 9999 FEW023 OVC030 19/17 Q1032 NOSIG,M
LFOE,LFOE,2019-09-12 18:30,66.20,62.60,88.18,M,M,0.00,30.47,M,6.21,M,BKN,OVC,M,M,1100.00,3000.00,M,M,M,M,M,M,M,M,M,66.20,LFOE 121830Z AUTO /////KT 9999 BKN011 OVC030 19/17 Q1032,M
LFOE,LFOE,2019-09-12 19:00,64.40,62.60,93.88,M,M,0.00,30.47,M,6.21,M,FEW,BKN,OVC,M,1000.00,2100.00,3000.00,M,M,M,M,M,M,M,M,64.40,LFOE 121900Z AUTO /////KT 9999 FEW010 BKN021 OVC030 18/17 Q1032,M
LFOE,LFOE,2019-09-12 19:30,66.20,62.60,88.18,280.00,3.00,0.00,30.47,M,6.21,M,FEW,OVC,M,M,2100.00,2900.00,M,M,M,M,M,M,M,M,M,66.20,LFOE 121930Z AUTO 28003KT 9999 FEW021 OVC029 19/17 Q1032 TEMPO BKN010,M
LFOE,LFOE,2019-09-12 20:00,66.20,62.60,88.18,280.00,2.00,0.00,30.47,M,6.21,M,OVC,M,M,M,2900.00,M,M,M,M,M,M,M,M,M,M,66.20,LFOE 122000Z AUTO 28002KT 9999 OVC029 19/17 Q1032 TEMPO BKN010,M
LFOE,LFOE,2019-09-12 20:30,64.40,62.60,93.88,M,M,0.00,30.47,M,6.21,M,OVC,M,M,M,3000.00,M,M,M,M,M,M,M,M,M,M,64.40,LFOE 122030Z AUTO /////KT 9999 OVC030 18/17 Q1032,M
LFOE,LFOE,2019-09-12 21:00,64.40,60.80,88.09,M,M,0.00,30.47,M,6.21,M,BKN,M,M,M,3000.00,M,M,M,M,M,M,M,M,M,M,64.40,LFOE 122100Z AUTO /////KT 9999 BKN030 18/16 Q1032,M
LFOE,LFOE,2019-09-12 21:30,62.60,60.80,93.83,M,M,0.00,30.47,M,6.21,M,M,M,M,M,M,M,M,M,M,M,M,M,M,M,M,62.60,LFOE 122130Z AUTO /////KT CAVOK 17/16 Q1032,M
LFOE,LFOE,2019-09-12 22:00,60.80,60.80,100.00,280.00,3.00,0.00,30.47,M,6.21,M,M,M,M,M,M,M,M,M,M,M,M,M,M,M,M,60.80,LFOE 122200Z AUTO 28003KT CAVOK 16/16 Q1032 TEMPO BKN010,M
LFOE,LFOE,2019-09-12 22:30,59.00,59.00,100.00,280.00,4.00,0.00,30.47,M,6.21,M,M,M,M,M,M,M,M,M,M,M,M,M,M,M,M,59.00,LFOE 122230Z AUTO 28004KT CAVOK 15/15 Q1032 BECMG 4000 BR OVC002,M
LFOE,LFOE,2019-09-12 23:00,59.00,59.00,100.00,M,M,0.00,30.47,M,6.21,M,M,M,M,M,M,M,M,M,M,M,M,M,M,M,M,59.00,LFOE 122300Z AUTO /////KT CAVOK 15/15 Q1032,M
LFOE,LFOE,2019-09-12 23:30,59.00,57.20,93.74,280.00,3.00,0.00,30.47,M,3.11,M,NSC,M,M,M,M,M,M,M,BCFG,M,M,M,M,M,M,59.00,LFOE 122330Z AUTO 28003KT 5000 0800 R22/1200U BCFG NSC 15/14 Q1032 BECMG OVC002,M
LFOH,LFOH,2019-09-12 00:00,62.60,62.60,100.00,260.00,15.00,0.00,30.33,M,6.21,M,OVC,M,M,M,500.00,M,M,M,M,M,M,M,M,M,M,62.60,LFOH 120000Z AUTO 26015KT 9999 OVC005 17/17 Q1027,M
LFOH,LFOH,2019-09-12 00:30,62.60,62.60,100.00,260.00,15.00,0.00,30.33,M,6.21,M,OVC,M,M,M,400.00,M,M,M,M,M,M,M,M,M,M,62.60,LFOH 120030Z AUTO 26015KT 9999 OVC004 17/17 Q1027,M
LFOH,LFOH,2019-09-12 01:00,62.60,62.60,100.00,260.00,15.00,0.00,30.33,M,6.21,M,OVC,M,M,M,400.00,M,M,M,M,M,M,M,M,M,M,62.60,LFOH 120100Z AUTO 26015KT 9999 OVC004 17/17 Q1027,M
LFOH,LFOH,2019-09-12 01:30,62.60,62.60,100.00,250.00,14.00,0.00,30.33,M,6.21,M,OVC,M,M,M,400.00,M,M,M,M,M,M,M,M,M,M,62.60,LFOH 120130Z AUTO 25014KT 9999 OVC004 17/17 Q1027,M
LFOH,LFOH,2019-09-12 02:00,62.60,62.60,100.00,260.00,14.00,0.00,30.33,M,5.59,M,OVC,M,M,M,300.00,M,M,M,M,M,M,M,M,M,M,62.60,LFOH 120200Z AUTO 26014KT 9000 OVC003 17/17 Q1027,M
LFOH,LFOH,2019-09-12 02:30,62.60,62.60,100.00,260.00,12.00,0.00,30.33,M,5.59,M,OVC,M,M,M,300.00,M,M,M,M,M,M,M,M,M,M,62.60,LFOH 120230Z AUTO 26012KT 9000 OVC003 17/17 Q1027,M
LFOH,LFOH,2019-09-12 03:00,62.60,62.60,100.00,260.00,11.00,0.00,30.33,M,6.21,M,OVC,M,M,M,300.00,M,M,M,M,M,M,M,M,M,M,62.60,LFOH 120300Z AUTO 26011KT 9999 OVC003 17/17 Q1027,M
LFOH,LFOH,2019-09-12 03:30,62.60,62.60,100.00,250.00,13.00,0.00,30.33,M,6.21,M,OVC,M,M,M,400.00,M,M,M,M,M,M,M,M,M,M,62.60,LFOH 120330Z AUTO 25013KT 9999 OVC004 17/17 Q1027,M
LFOH,LFOH,2019-09-12 04:00,62.60,62.60,100.00,260.00,12.00,0.00,30.36,M,6.21,M,OVC,M,M,M,400.00,M,M,M,M,M,M,M,M,M,M,62.60,LFOH 120400Z AUTO 26012KT 9999 OVC004 17/17 Q1028,M
LFOH,LFOH,2019-09-12 04:30,62.60,62.60,100.00,260.00,11.00,0.00,30.36,M,6.21,M,OVC,M,M,M,400.00,M,M,M,M,M,M,M,M,M,M,62.60,LFOH 120430Z AUTO 26011KT 9999 OVC004 17/17 Q1028,M
LFOH,LFOH,2019-09-12 05:00,62.60,62.60,100.00,260.00,12.00,0.00,30.36,M,6.21,M,OVC,M,M,M,500.00,M,M,M,M,M,M,M,M,M,M,62.60,LFOH 120500Z AUTO 26012KT 9999 OVC005 17/17 Q1028,M
LFOH,LFOH,2019-09-12 05:30,62.60,62.60,100.00,270.00,11.00,0.00,30.36,M,6.21,M,OVC,M,M,M,500.00,M,M,M,M,M,M,M,M,M,M,62.60,LFOH 120530Z AUTO 27011KT 9999 OVC005 17/17 Q1028,M
LFOH,LFOH,2019-09-12 06:00,62.60,62.60,100.00,270.00,11.00,0.00,30.39,M,6.21,M,OVC,M,M,M,500.00,M,M,M,M,M,M,M,M,M,M,62.60,LFOH 120600Z AUTO 27011KT 9999 OVC005 17/17 Q1029 NOSIG,M
LFOH,LFOH,2019-09-12 06:30,64.40,62.60,93.88,270.00,12.00,0.00,30.39,M,6.21,M,OVC,M,M,M,500.00,M,M,M,M,M,M,M,M,M,M,64.40,LFOH 120630Z AUTO 27012KT 9999 OVC005 18/17 Q1029 NOSIG,M
LFOH,LFOH,2019-09-12 07:00,64.40,62.60,93.88,270.00,10.00,0.00,30.39,M,6.21,M,OVC,M,M,M,500.00,M,M,M,M,M,M,M,M,M,M,64.40,LFOH 120700Z AUTO 27010KT 9999 OVC005 18/17 Q1029 NOSIG,M
LFOH,LFOH,2019-09-12 07:30,64.40,62.60,93.88,270.00,10.00,0.00,30.42,M,6.21,M,OVC,M,M,M,400.00,M,M,M,M,M,M,M,M,M,M,64.40,LFOH 120730Z AUTO 27010KT 9999 OVC004 18/17 Q1030 TEMPO BKN008,M
LFOH,LFOH,2019-09-12 08:00,64.40,62.60,93.88,270.00,11.00,0.00,30.42,M,6.21,M,OVC,M,M,M,300.00,M,M,M,M,M,M,M,M,M,M,64.40,LFOH 120800Z AUTO 27011KT 9999 OVC003 18/17 Q1030 TEMPO BKN008,M
LFOH,LFOH,2019-09-12 08:30,64.40,62.60,93.88,260.00,11.00,0.00,30.42,M,6.21,M,OVC,M,M,M,300.00,M,M,M,M,M,M,M,M,M,M,64.40,LFOH 120830Z AUTO 26011KT 9999 OVC003 18/17 Q1030 TEMPO BKN008,M
LFOH,LFOH,2019-09-12 09:00,64.40,64.40,100.00,260.00,10.00,0.00,30.42,M,2.67,M,OVC,M,M,M,200.00,M,M,M,BR,M,M,M,M,M,M,64.40,LFOH 120900Z AUTO 26010KT 4300 BR OVC002 18/18 Q1030 TEMPO BKN008 BECMG 9999 NSW,M
LFOH,LFOH,2019-09-12 09:30,64.40,62.60,93.88,260.00,10.00,0.00,30.45,M,6.21,M,OVC,M,M,M,200.00,M,M,M,M,M,M,M,M,M,M,64.40,LFOH 120930Z AUTO 26010KT 9999 OVC002 18/17 Q1031 TEMPO BKN008,M
LFOH,LFOH,2019-09-12 10:00,64.40,64.40,100.00,250.00,9.00,0.00,30.45,M,6.21,M,OVC,M,M,M,200.00,M,M,M,M,M,M,M,M,M,M,64.40,LFOH 121000Z AUTO 25009KT 9999 OVC002 18/18 Q1031 TEMPO BKN008,M
LFOH,LFOH,2019-09-12 10:30,64.40,62.60,93.88,250.00,8.00,0.00,30.45,M,6.21,M,OVC,M,M,M,300.00,M,M,M,M,M,M,M,M,M,M,64.40,LFOH 121030Z AUTO 25008KT 9999 OVC003 18/17 Q1031 TEMPO BKN008,M
LFOH,LFOH,2019-09-12 11:00,64.40,62.60,93.88,260.00,9.00,0.00,30.45,M,6.21,M,OVC,M,M,M,400.00,M,M,M,M,M,M,M,M,M,M,64.40,LFOH 121100Z AUTO 26009KT 9999 OVC004 18/17 Q1031 TEMPO BKN008,M
LFOH,LFOH,2019-09-12 11:30,64.40,62.60,93.88,270.00,10.00,0.00,30.45,M,6.21,M,BKN,OVC,M,M,400.00,800.00,M,M,M,M,M,M,M,M,M,64.40,LFOH 121130Z AUTO 27010KT 9999 BKN004 OVC008 18/17 Q1031 TEMPO BKN008,M
LFOH,LFOH,2019-09-12 12:00,64.40,62.60,93.88,270.00,9.00,0.00,30.45,M,6.21,M,OVC,M,M,M,500.00,M,M,M,M,M,M,M,M,M,M,64.40,LFOH 121200Z AUTO 27009KT 9999 OVC005 18/17 Q1031 TEMPO 4000 BR,M
LFOH,LFOH,2019-09-12 12:30,64.40,62.60,93.88,280.00,8.00,0.00,30.45,M,6.21,M,BKN,BKN,OVC,M,600.00,1000.00,1700.00,M,M,M,M,M,M,M,M,64.40,LFOH 121230Z AUTO 28008KT 9999 BKN006 BKN010 OVC017 18/17 Q1031 TEMPO 4000 BR BECMG BKN030,M
LFOH,LFOH,2019-09-12 13:00,64.40,62.60,93.88,280.00,7.00,0.00,30.45,M,6.21,M,SCT,OVC,M,M,500.00,1400.00,M,M,M,M,M,M,M,M,M,64.40,LFOH 121300Z AUTO 28007KT 9999 3300 SCT005 OVC014 18/17 Q1031 TEMPO 4000 BR BECMG BKN030,M
LFOH,LFOH,2019-09-12 13:30,66.20,62.60,88.18,290.00,8.00,0.00,30.47,M,6.21,M,FEW,SCT,BKN,M,700.00,1200.00,1700.00,M,M,M,M,M,M,M,M,66.20,LFOH 121330Z AUTO 29008KT 9999 FEW007 SCT012 BKN017 19/17 Q1032 NOSIG,M
LFOH,LFOH,2019-09-12 14:00,66.20,60.80,82.74,270.00,9.00,0.00,30.45,M,6.21,M,OVC,M,M,M,1700.00,M,M,M,M,M,M,M,M,M,M,66.20,LFOH 121400Z AUTO 27009KT 9999 OVC017 19/16 Q1031 NOSIG,M
LFOH,LFOH,2019-09-12 14:30,66.20,60.80,82.74,280.00,8.00,0.00,30.45,M,6.21,M,OVC,M,M,M,2400.00,M,M,M,M,M,M,M,M,M,M,66.20,LFOH 121430Z AUTO 28008KT 9999 OVC024 19/16 Q1031 NOSIG,M
LFOH,LFOH,2019-09-12 15:00,66.20,60.80,82.74,280.00,10.00,0.00,30.45,M,6.21,M,OVC,M,M,M,2800.00,M,M,M,M,M,M,M,M,M,M,66.20,LFOH 121500Z AUTO 28010KT 9999 OVC028 19/16 Q1031 NOSIG,M
LFOH,LFOH,2019-09-12 15:30,66.20,60.80,82.74,280.00,10.00,0.00,30.45,M,6.21,M,OVC,M,M,M,3200.00,M,M,M,M,M,M,M,M,M,M,66.20,LFOH 121530Z AUTO 28010KT 9999 OVC032 19/16 Q1031 NOSIG,M
LFOH,LFOH,2019-09-12 16:00,66.20,60.80,82.74,280.00,9.00,0.00,30.45,M,6.21,M,OVC,M,M,M,3500.00,M,M,M,M,M,M,M,M,M,M,66.20,LFOH 121600Z AUTO 28009KT 9999 OVC035 19/16 Q1031 NOSIG,M
LFOH,LFOH,2019-09-12 16:30,66.20,60.80,82.74,280.00,7.00,0.00,30.45,M,6.21,M,OVC,M,M,M,3300.00,M,M,M,M,M,M,M,M,M,M,66.20,LFOH 121630Z AUTO 28007KT 9999 OVC033 19/16 Q1031 NOSIG,M
LFOH,LFOH,2019-09-12 17:00,66.20,60.80,82.74,290.00,8.00,0.00,30.45,M,6.21,M,SCT,OVC,M,M,3000.00,3500.00,M,M,M,M,M,M,M,M,M,66.20,LFOH 121700Z AUTO 29008KT 9999 SCT030 OVC035 19/16 Q1031 NOSIG,M
LFOH,LFOH,2019-09-12 17:30,66.20,60.80,82.74,270.00,9.00,0.00,30.45,M,6.21,M,OVC,M,M,M,3300.00,M,M,M,M,M,M,M,M,M,M,66.20,LFOH 121730Z AUTO 27009KT 9999 OVC033 19/16 Q1031 BECMG OVC003,M
LFOH,LFOH,2019-09-12 18:00,66.20,60.80,82.74,280.00,9.00,0.00,30.45,M,6.21,M,OVC,M,M,M,3400.00,M,M,M,M,M,M,M,M,M,M,66.20,LFOH 121800Z AUTO 28009KT 9999 OVC034 19/16 Q1031 BECMG OVC003,M
LFOH,LFOH,2019-09-12 18:30,64.40,60.80,88.09,280.00,9.00,0.00,30.45,M,6.21,M,BKN,M,M,M,3200.00,M,M,M,M,M,M,M,M,M,M,64.40,LFOH 121830Z AUTO 28009KT 9999 BKN032 18/16 Q1031,M
LFOH,LFOH,2019-09-12 19:00,64.40,60.80,88.09,260.00,8.00,0.00,30.47,M,6.21,M,FEW,M,M,M,3200.00,M,M,M,M,M,M,M,M,M,M,64.40,LFOH 121900Z AUTO 26008KT 9999 FEW032 18/16 Q1032,M
LFOH,LFOH,2019-09-12 19:30,64.40,60.80,88.09,270.00,8.00,0.00,30.47,M,6.21,M,M,M,M,M,M,M,M,M,M,M,M,M,M,M,M,64.40,LFOH 121930Z AUTO 27008KT CAVOK 18/16 Q1032,M
LFOH,LFOH,2019-09-12 20:00,64.40,60.80,88.09,280.00,6.00,0.00,30.47,M,6.21,M,BKN,M,M,M,3900.00,M,M,M,M,M,M,M,M,M,M,64.40,LFOH 122000Z AUTO 28006KT 9999 BKN039 18/16 Q1032,M
LFOH,LFOH,2019-09-12 20:30,64.40,59.00,82.62,290.00,7.00,0.00,30.47,M,6.21,M,BKN,OVC,M,M,2600.00,3800.00,M,M,M,M,M,M,M,M,M,64.40,LFOH 122030Z AUTO 29007KT 9999 BKN026 OVC038 18/15 Q1032,M
LFOH,LFOH,2019-09-12 21:00,64.40,60.80,88.09,270.00,7.00,0.00,30.47,M,6.21,M,OVC,M,M,M,2700.00,M,M,M,M,M,M,M,M,M,M,64.40,LFOH 122100Z AUTO 27007KT 9999 OVC027 18/16 Q1032,M
LFOH,LFOH,2019-09-12 21:30,64.40,60.80,88.09,270.00,9.00,0.00,30.47,M,6.21,M,OVC,M,M,M,2800.00,M,M,M,M,M,M,M,M,M,M,64.40,LFOH 122130Z AUTO 27009KT 9999 OVC028 18/16 Q1032,M
LFOH,LFOH,2019-09-12 22:00,64.40,60.80,88.09,270.00,8.00,0.00,30.47,M,6.21,M,SCT,BKN,BKN,M,1800.00,2500.00,3000.00,M,M,M,M,M,M,M,M,64.40,LFOH 122200Z AUTO 27008KT 9999 SCT018 BKN025 BKN030 18/16 Q1032,M
LFOH,LFOH,2019-09-12 22:30,64.40,59.00,82.62,270.00,9.00,0.00,30.47,M,6.21,M,OVC,M,M,M,1900.00,M,M,M,M,M,M,M,M,M,M,64.40,LFOH 122230Z AUTO 27009KT 9999 OVC019 18/15 Q1032,M
LFOH,LFOH,2019-09-12 23:00,62.60,60.80,93.83,260.00,9.00,0.00,30.47,M,6.21,M,SCT,M,M,M,2000.00,M,M,M,M,M,M,M,M,M,M,62.60,LFOH 122300Z AUTO 26009KT 9999 SCT020 17/16 Q1032,M
LFOH,LFOH,2019-09-12 23:30,62.60,59.00,88.00,270.00,10.00,0.00,30.47,M,6.21,M,M,M,M,M,M,M,M,M,M,M,M,M,M,M,M,62.60,LFOH 122330Z AUTO 27010KT CAVOK 17/15 Q1032,M
LFOJ,LFOJ,2019-09-12 00:00,55.40,46.40,71.64,220.00,2.00,0.00,30.36,M,6.21,M,M,M,M,M,M,M,M,M,M,M,M,M,M,M,M,55.40,LFOJ 120000Z AUTO 22002KT CAVOK 13/08 Q1028,M
LFOJ,LFOJ,2019-09-12 00:30,55.40,46.40,71.64,260.00,3.00,0.00,30.39,M,6.21,M,M,M,M,M,M,M,M,M,M,M,M,M,M,M,M,55.40,LFOJ 120030Z AUTO 26003KT CAVOK 13/08 Q1029,M
LFOJ,LFOJ,2019-09-12 01:00,55.40,48.20,76.66,260.00,3.00,0.00,30.39,M,6.21,M,M,M,M,M,M,M,M,M,M,M,M,M,M,M,M,55.40,LFOJ 120100Z AUTO 26003KT CAVOK 13/09 Q1029,M
LFOJ,LFOJ,2019-09-12 01:30,53.60,48.20,81.87,M,1.00,0.00,30.39,M,6.21,M,M,M,M,M,M,M,M,M,M,M,M,M,M,M,M,53.60,LFOJ 120130Z AUTO VRB01KT CAVOK 12/09 Q1029,M
LFOJ,LFOJ,2019-09-12 02:00,51.80,48.20,87.47,270.00,4.00,0.00,30.39,M,6.21,M,M,M,M,M,M,M,M,M,M,M,M,M,M,M,M,51.80,LFOJ 120200Z AUTO 27004KT CAVOK 11/09 Q1029,M
LFOJ,LFOJ,2019-09-12 02:30,53.60,50.00,87.56,260.00,4.00,0.00,30.39,M,6.21,M,M,M,M,M,M,M,M,M,M,M,M,M,M,M,M,53.60,LFOJ 120230Z AUTO 26004KT CAVOK 12/10 Q1029,M
LFOJ,LFOJ,2019-09-12 03:00,53.60,50.00,87.56,270.00,3.00,0.00,30.39,M,6.21,M,M,M,M,M,M,M,M,M,M,M,M,M,M,M,M,53.60,LFOJ 120300Z AUTO 27003KT CAVOK 12/10 Q1029,M
LFOJ,LFOJ,2019-09-12 03:30,53.60,51.80,93.60,M,2.00,0.00,30.39,M,6.21,M,M,M,M,M,M,M,M,M,M,M,M,M,M,M,M,53.60,LFOJ 120330Z AUTO VRB02KT CAVOK 12/11 Q1029 TEMPO 4500 BR BKN005,M
LFOJ,LFOJ,2019-09-12 04:00,53.60,51.80,93.60,0.00,0.00,0.00,30.39,M,6.21,M,M,M,M,M,M,M,M,M,M,M,M,M,M,M,M,53.60,LFOJ 120400Z AUTO 00000KT CAVOK 12/11 Q1029 TEMPO 4500 BR BKN005,M
LFOJ,LFOJ,2019-09-12 04:30,53.60,51.80,93.60,230.00,3.00,0.00,30.39,M,6.21,M,M,M,M,M,M,M,M,M,M,M,M,M,M,M,M,53.60,LFOJ 120430Z AUTO 23003KT CAVOK 12/11 Q1029 TEMPO 4500 BR BKN005,M
LFOJ,LFOJ,2019-09-12 05:00,51.80,50.00,93.55,220.00,3.00,0.00,30.39,M,6.21,M,M,M,M,M,M,M,M,M,M,M,M,M,M,M,M,51.80,LFOJ 120500Z AUTO 22003KT CAVOK 11/10 Q1029 TEMPO 4500 BR BKN005,M
LFOJ,LFOJ,2019-09-12 05:30,51.80,50.00,93.55,240.00,3.00,0.00,30.42,M,6.21,M,M,M,M,M,M,M,M,M,M,M,M,M,M,M,M,51.80,LFOJ 120530Z AUTO 24003KT CAVOK 11/10 Q1030 TEMPO 4500 BR BKN005,M
LFOJ,LFOJ,2019-09-12 06:00,53.60,51.80,93.60,220.00,3.00,0.00,30.42,M,6.21,M,M,M,M,M,M,M,M,M,M,M,M,M,M,M,M,53.60,LFOJ 120600Z AUTO 22003KT CAVOK 12/11 Q1030 TEMPO 4500 BR BKN005,M
LFOJ,LFOJ,2019-09-12 06:30,57.20,53.60,87.74,220.00,1.00,0.00,30.42,M,6.21,M,M,M,M,M,M,M,M,M,M,M,M,M,M,M,M,57.20,LFOJ 120630Z AUTO 22001KT CAVOK 14/12 Q1030 TEMPO 4500 BR BKN005,M
LFOJ,LFOJ,2019-09-12 07:00,59.00,55.40,87.83,260.00,3.00,0.00,30.42,M,6.21,M,SCT,M,M,M,300.00,M,M,M,M,M,M,M,M,M,M,59.00,LFOJ 120700Z AUTO 26003KT 220V300 9999 SCT003 15/13 Q1030 TEMPO 4500 BR BKN005,M
LFOJ,LFOJ,2019-09-12 07:30,60.80,57.20,87.92,M,3.00,0.00,30.45,M,6.21,M,SCT,M,M,M,400.00,M,M,M,M,M,M,M,M,M,M,60.80,LFOJ 120730Z AUTO VRB03KT 9999 SCT004 16/14 Q1031 NOSIG,M
LFOJ,LFOJ,2019-09-12 08:00,62.60,57.20,82.50,M,2.00,0.00,30.45,M,6.21,M,M,M,M,M,M,M,M,M,M,M,M,M,M,M,M,62.60,LFOJ 120800Z AUTO VRB02KT CAVOK 17/14 Q1031 NOSIG,M
LFOJ,LFOJ,2019-09-12 08:30,66.20,59.00,77.60,180.00,3.00,0.00,30.45,M,6.21,M,M,M,M,M,M,M,M,M,M,M,M,M,M,M,M,66.20,LFOJ 120830Z AUTO 18003KT 120V220 CAVOK 19/15 Q1031 TEMPO BKN014,M
LFOJ,LFOJ,2019-09-12 09:00,69.80,59.00,68.55,200.00,3.00,0.00,30.45,M,6.21,M,M,M,M,M,M,M,M,M,M,M,M,M,M,M,M,69.80,LFOJ 120900Z AUTO 20003KT 150V250 CAVOK 21/15 Q1031 TEMPO BKN014,M
LFOJ,LFOJ,2019-09-12 09:30,69.80,59.00,68.55,240.00,4.00,0.00,30.45,M,6.21,M,M,M,M,M,M,M,M,M,M,M,M,M,M,M,M,69.80,LFOJ 120930Z AUTO 24004KT 170V290 CAVOK 21/15 Q1031 NOSIG,M
LFOJ,LFOJ,2019-09-12 10:00,71.60,59.00,64.48,250.00,7.00,0.00,30.47,M,6.21,M,FEW,M,M,M,4800.00,M,M,M,M,M,M,M,M,M,M,71.60,LFOJ 121000Z AUTO 25007KT 220V280 9999 FEW048 22/15 Q1032 NOSIG,M
LFOJ,LFOJ,2019-09-12 10:30,73.40,59.00,60.67,240.00,7.00,0.00,30.45,M,6.21,M,SCT,SCT,M,M,2700.00,4700.00,M,M,M,M,M,M,M,M,M,73.40,LFOJ 121030Z AUTO 24007KT 190V300 9999 SCT027 SCT047 23/15 Q1031 NOSIG,M
LFOJ,LFOJ,2019-09-12 11:00,73.40,59.00,60.67,260.00,7.00,0.00,30.45,M,6.21,M,BKN,M,M,M,3000.00,M,M,M,M,M,M,M,M,M,M,73.40,LFOJ 121100Z AUTO 26007KT 230V290 9999 BKN030 23/15 Q1031 NOSIG,M
LFOJ,LFOJ,2019-09-12 11:30,77.00,59.00,53.80,240.00,5.00,0.00,30.45,M,6.21,M,OVC,M,M,M,3300.00,M,M,M,M,M,M,M,M,M,M,77.00,LFOJ 121130Z AUTO 24005KT 190V290 9999 OVC033 25/15 Q1031 NOSIG,M
LFOJ,LFOJ,2019-09-12 12:00,75.20,59.00,57.12,280.00,5.00,0.00,30.45,M,6.21,M,BKN,M,M,M,3500.00,M,M,M,M,M,M,M,M,M,M,75.20,LFOJ 121200Z AUTO 28005KT 210V340 9999 BKN035 24/15 Q1031 NOSIG,M
LFOJ,LFOJ,2019-09-12 12:30,75.20,57.20,53.55,M,5.00,0.00,30.45,M,6.21,M,SCT,M,M,M,3700.00,M,M,M,M,M,M,M,M,M,M,75.20,LFOJ 121230Z AUTO VRB05KT 9999 SCT037 24/14 Q1031 NOSIG,M
LFOJ,LFOJ,2019-09-12 13:00,77.00,59.00,53.80,300.00,6.00,0.00,30.45,M,6.21,M,BKN,M,M,M,4000.00,M,M,M,M,M,M,M,M,M,M,77.00,LFOJ 121300Z AUTO 30006KT 270V340 9999 BKN040 25/15 Q1031 NOSIG,M
LFOJ,LFOJ,2019-09-12 13:30,75.20,59.00,57.12,270.00,6.00,0.00,30.45,M,6.21,M,SCT,M,M,M,4300.00,M,M,M,M,M,M,M,M,M,M,75.20,LFOJ 121330Z AUTO 27006KT 220V310 9999 SCT043 24/15 Q1031 NOSIG,M
LFOJ,LFOJ,2019-09-12 14:00,78.80,59.00,50.69,230.00,6.00,0.00,30.45,M,6.21,M,BKN,M,M,M,4400.00,M,M,M,M,M,M,M,M,M,M,78.80,LFOJ 121400Z AUTO 23006KT 190V260 9999 BKN044 26/15 Q1031 NOSIG,M
LFOJ,LFOJ,2019-09-12 14:30,80.60,57.20,44.80,260.00,5.00,0.00,30.42,M,6.21,M,BKN,M,M,M,4400.00,M,M,M,M,M,M,M,M,M,M,80.81,LFOJ 121430Z AUTO 26005KT 190V330 9999 BKN044 27/14 Q1030 NOSIG,M
LFOJ,LFOJ,2019-09-12 15:00,77.00,57.20,50.43,310.00,4.00,0.00,30.42,M,6.21,M,BKN,M,M,M,4400.00,M,M,M,M,M,M,M,M,M,M,77.00,LFOJ 121500Z AUTO 31004KT 260V010 9999 BKN044 25/14 Q1030 NOSIG,M
LFOJ,LFOJ,2019-09-12 15:30,78.80,59.00,50.69,290.00,5.00,0.00,30.42,M,6.21,M,FEW,M,M,M,4400.00,M,M,M,M,M,M,M,M,M,M,78.80,LFOJ 121530Z AUTO 29005KT 260V330 9999 FEW044 26/15 Q1030 NOSIG,M
LFOJ,LFOJ,2019-09-12 16:00,77.00,59.00,53.80,300.00,4.00,0.00,30.42,M,6.21,M,FEW,M,M,M,4500.00,M,M,M,M,M,M,M,M,M,M,77.00,LFOJ 121600Z AUTO 30004KT 270V330 9999 FEW045 25/15 Q1030 NOSIG,M
LFOJ,LFOJ,2019-09-12 16:30,77.00,59.00,53.80,280.00,6.00,0.00,30.42,M,6.21,M,BKN,M,M,M,4600.00,M,M,M,M,M,M,M,M,M,M,77.00,LFOJ 121630Z AUTO 28006KT 9999 BKN046 25/15 Q1030 NOSIG,M
LFOJ,LFOJ,2019-09-12 17:00,75.20,59.00,57.12,310.00,5.00,0.00,30.42,M,6.21,M,FEW,M,M,M,4600.00,M,M,M,M,M,M,M,M,M,M,75.20,LFOJ 121700Z AUTO 31005KT 9999 FEW046 24/15 Q1030 NOSIG,M
LFOJ,LFOJ,2019-09-12 17:30,75.20,59.00,57.12,300.00,4.00,0.00,30.42,M,6.21,M,FEW,M,M,M,4500.00,M,M,M,M,M,M,M,M,M,M,75.20,LFOJ 121730Z AUTO 30004KT 9999 FEW045 24/15 Q1030 NOSIG,M
LFOJ,LFOJ,2019-09-12 18:00,73.40,59.00,60.67,350.00,5.00,0.00,30.42,M,6.21,M,FEW,M,M,M,4600.00,M,M,M,M,M,M,M,M,M,M,73.40,LFOJ 121800Z AUTO 35005KT 9999 FEW046 23/15 Q1030 NOSIG,M
LFOJ,LFOJ,2019-09-12 18:30,69.80,59.00,68.55,340.00,4.00,0.00,30.42,M,6.21,M,FEW,M,M,M,4600.00,M,M,M,M,M,M,M,M,M,M,69.80,LFOJ 121830Z AUTO 34004KT 9999 FEW046 21/15 Q1030 NOSIG,M
LFOJ,LFOJ,2019-09-12 19:00,68.00,57.20,68.35,340.00,6.00,0.00,30.45,M,6.21,M,M,M,M,M,M,M,M,M,M,M,M,M,M,M,M,68.00,LFOJ 121900Z AUTO 34006KT CAVOK 20/14 Q1031 NOSIG,M
LFOJ,LFOJ,2019-09-12 19:30,66.20,59.00,77.60,330.00,6.00,0.00,30.45,M,6.21,M,M,M,M,M,M,M,M,M,M,M,M,M,M,M,M,66.20,LFOJ 121930Z AUTO 33006KT CAVOK 19/15 Q1031 NOSIG,M
LFOJ,LFOJ,2019-09-12 20:00,66.20,59.00,77.60,340.00,7.00,0.00,30.45,M,6.21,M,M,M,M,M,M,M,M,M,M,M,M,M,M,M,M,66.20,LFOJ 122000Z AUTO 34007KT CAVOK 19/15 Q1031,M
LFOJ,LFOJ,2019-09-12 20:30,64.40,59.00,82.62,340.00,7.00,0.00,30.45,M,6.21,M,M,M,M,M,M,M,M,M,M,M,M,M,M,M,M,64.40,LFOJ 122030Z AUTO 34007KT CAVOK 18/15 Q1031 NOSIG,M
LFOJ,LFOJ,2019-09-12 21:00,64.40,57.20,77.45,350.00,4.00,0.00,30.45,M,6.21,M,M,M,M,M,M,M,M,M,M,M,M,M,M,M,M,64.40,LFOJ 122100Z AUTO 35004KT CAVOK 18/14 Q1031 NOSIG,M
LFOJ,LFOJ,2019-09-12 21:30,62.60,57.20,82.50,340.00,4.00,0.00,30.45,M,6.21,M,M,M,M,M,M,M,M,M,M,M,M,M,M,M,M,62.60,LFOJ 122130Z AUTO 34004KT CAVOK 17/14 Q1031,M
LFOJ,LFOJ,2019-09-12 22:00,60.80,57.20,87.92,340.00,5.00,0.00,30.45,M,6.21,M,M,M,M,M,M,M,M,M,M,M,M,M,M,M,M,60.80,LFOJ 122200Z AUTO 34005KT CAVOK 16/14 Q1031,M
LFOJ,LFOJ,2019-09-12 22:30,60.80,57.20,87.92,350.00,8.00,0.00,30.45,M,6.21,M,M,M,M,M,M,M,M,M,M,M,M,M,M,M,M,60.80,LFOJ 122230Z AUTO 35008KT CAVOK 16/14 Q1031,M
LFOJ,LFOJ,2019-09-12 23:00,62.60,59.00,88.00,360.00,7.00,0.00,30.47,M,6.21,M,M,M,M,M,M,M,M,M,M,M,M,M,M,M,M,62.60,LFOJ 122300Z AUTO 36007KT CAVOK 17/15 Q1032,M
LFOJ,LFOJ,2019-09-12 23:30,62.60,59.00,88.00,360.00,7.00,0.00,30.47,M,6.21,M,M,M,M,M,M,M,M,M,M,M,M,M,M,M,M,62.60,LFOJ 122330Z AUTO 36007KT CAVOK 17/15 Q1032,M
LFOK,LFOK,2019-09-12 00:00,55.40,48.20,76.66,220.00,5.00,0.00,30.36,M,6.21,M,FEW,BKN,BKN,M,4300.00,5000.00,11000.00,M,M,M,M,M,M,M,M,55.40,LFOK 120000Z AUTO 22005KT 9999 FEW043 BKN050 BKN110 13/09 Q1028 NOSIG,M
LFOK,LFOK,2019-09-12 00:30,55.40,48.20,76.66,200.00,5.00,0.00,30.36,M,6.21,M,BKN,BKN,OVC,M,4900.00,7600.00,11000.00,M,M,M,M,M,M,M,M,55.40,LFOK 120030Z AUTO 20005KT 9999 BKN049 BKN076 OVC110 13/09 Q1028 NOSIG,M
LFOK,LFOK,2019-09-12 01:00,55.40,48.20,76.66,220.00,5.00,0.00,30.36,M,6.21,M,FEW,BKN,BKN,M,4600.00,6200.00,7600.00,M,M,M,M,M,M,M,M,55.40,LFOK 120100Z AUTO 22005KT 9999 FEW046 BKN062 BKN076 13/09 Q1028 NOSIG,M
LFOK,LFOK,2019-09-12 01:30,55.40,48.20,76.66,220.00,4.00,0.00,30.36,M,6.21,M,FEW,BKN,M,M,3800.00,6200.00,M,M,M,M,M,M,M,M,M,55.40,LFOK 120130Z AUTO 22004KT 9999 FEW038 BKN062 13/09 Q1028 NOSIG,M
LFOK,LFOK,2019-09-12 02:00,53.60,48.20,81.87,220.00,5.00,0.00,30.36,M,6.21,M,FEW,BKN,M,M,4300.00,5800.00,M,M,M,M,M,M,M,M,M,53.60,LFOK 120200Z AUTO 22005KT 9999 FEW043 BKN058 12/09 Q1028 NOSIG,M
LFOK,LFOK,2019-09-12 02:30,53.60,48.20,81.87,210.00,5.00,0.00,30.36,M,6.21,M,FEW,OVC,M,M,4400.00,6400.00,M,M,M,M,M,M,M,M,M,53.60,LFOK 120230Z AUTO 21005KT 9999 FEW044 OVC064 12/09 Q1028 NOSIG,M
LFOK,LFOK,2019-09-12 03:00,53.60,48.20,81.87,210.00,6.00,0.00,30.36,M,6.21,M,FEW,SCT,BKN,M,3300.00,4000.00,6000.00,M,M,M,M,M,M,M,M,53.60,LFOK 120300Z AUTO 21006KT 9999 FEW033 SCT040 BKN060 12/09 Q1028 NOSIG,M
LFOK,LFOK,2019-09-12 03:30,55.40,50.00,81.99,200.00,5.00,0.00,30.36,M,6.21,M,BKN,BKN,M,M,4000.00,5600.00,M,M,M,M,M,M,M,M,M,55.40,LFOK 120330Z AUTO 20005KT 9999 BKN040 BKN056 13/10 Q1028 TEMPO BKN014,M
LFOK,LFOK,2019-09-12 04:00,55.40,50.00,81.99,190.00,5.00,0.00,30.36,M,6.21,M,OVC,M,M,M,3900.00,M,M,M,M,M,M,M,M,M,M,55.40,LFOK 120400Z AUTO 19005KT 9999 OVC039 13/10 Q1028 TEMPO BKN014,M
LFOK,LFOK,2019-09-12 04:30,55.40,50.00,81.99,210.00,5.00,0.00,30.39,M,6.21,M,OVC,M,M,M,3800.00,M,M,M,M,M,M,M,M,M,M,55.40,LFOK 120430Z AUTO 21005KT 9999 OVC038 13/10 Q1029 TEMPO BKN014,M
LFOK,LFOK,2019-09-12 05:00,55.40,50.00,81.99,210.00,5.00,0.00,30.39,M,6.21,M,OVC,M,M,M,3900.00,M,M,M,M,M,M,M,M,M,M,55.40,LFOK 120500Z AUTO 21005KT 9999 OVC039 13/10 Q1029 TEMPO BKN014,M
LFOK,LFOK,2019-09-12 05:30,57.20,51.80,82.12,220.00,5.00,0.00,30.39,M,6.21,M,BKN,OVC,M,M,4200.00,5400.00,M,M,M,M,M,M,M,M,M,57.20,LFOK 120530Z AUTO 22005KT 9999 BKN042 OVC054 14/11 Q1029 TEMPO BKN014,M
LFOK,LFOK,2019-09-12 06:00,55.40,51.80,87.65,200.00,5.00,0.00,30.42,M,6.21,M,M,M,M,M,M,M,M,M,M,M,M,M,M,M,M,55.40,LFOK 120600Z AUTO 20005KT CAVOK 13/11 Q1030 TEMPO BKN012,M
LFOK,LFOK,2019-09-12 06:30,57.20,51.80,82.12,170.00,4.00,0.00,30.42,M,6.21,M,M,M,M,M,M,M,M,M,M,M,M,M,M,M,M,57.20,LFOK 120630Z AUTO 17004KT CAVOK 14/11 Q1030 TEMPO BKN012,M
LFOK,LFOK,2019-09-12 07:00,59.00,51.80,76.98,200.00,5.00,0.00,30.42,M,6.21,M,FEW,BKN,M,M,2900.00,6600.00,M,M,M,M,M,M,M,M,M,59.00,LFOK 120700Z AUTO 20005KT 9999 FEW029 BKN066 15/11 Q1030 TEMPO BKN012,M
LFOK,LFOK,2019-09-12 07:30,62.60,55.40,77.29,210.00,6.00,0.00,30.42,M,6.21,M,SCT,BKN,BKN,M,3100.00,4000.00,6400.00,M,M,M,M,M,M,M,M,62.60,LFOK 120730Z AUTO 21006KT 9999 SCT031 BKN040 BKN064 17/13 Q1030 TEMPO BKN012,M
LFOK,LFOK,2019-09-12 08:00,64.40,55.40,72.56,220.00,9.00,0.00,30.45,M,6.21,M,FEW,BKN,BKN,M,1500.00,3200.00,4100.00,M,M,M,M,M,M,M,M,64.40,LFOK 120800Z AUTO 22009KT 9999 FEW015 BKN032 BKN041 18/13 Q1031 TEMPO BKN012,M
LFOK,LFOK,2019-09-12 08:30,66.20,59.00,77.60,220.00,9.00,0.00,30.45,M,6.21,M,FEW,BKN,BKN,M,2600.00,3500.00,5800.00,M,M,M,M,M,M,M,M,66.20,LFOK 120830Z AUTO 22009KT 190V250 9999 FEW026 BKN035 BKN058 19/15 Q1031 NOSIG,M
LFOK,LFOK,2019-09-12 09:00,68.00,59.00,72.92,210.00,9.00,0.00,30.45,M,6.21,M,BKN,M,M,M,3900.00,M,M,M,M,M,M,M,M,M,M,68.00,LFOK 120900Z AUTO 21009KT 9999 BKN039 20/15 Q1031 NOSIG,M
LFOK,LFOK,2019-09-12 09:30,69.80,60.80,73.09,220.00,9.00,0.00,30.45,M,6.21,M,FEW,BKN,OVC,M,1900.00,3900.00,5600.00,M,M,M,M,M,M,M,M,69.80,LFOK 120930Z AUTO 22009KT 9999 FEW019 BKN039 OVC056 21/16 Q1031 NOSIG,M
LFOK,LFOK,2019-09-12 10:00,69.80,60.80,73.09,230.00,9.00,0.00,30.45,M,6.21,M,FEW,BKN,OVC,M,900.00,4700.00,5600.00,M,M,M,M,M,M,M,M,69.80,LFOK 121000Z AUTO 23009KT 210V270 9999 FEW009 BKN047 OVC056 21/16 Q1031 NOSIG,M
LFOK,LFOK,2019-09-12 10:30,69.80,60.80,73.09,250.00,9.00,0.00,30.45,M,6.21,M,FEW,SCT,OVC,M,2500.00,3400.00,4300.00,M,M,M,M,M,M,M,M,69.80,LFOK 121030Z AUTO 25009KT 210V280 9999 FEW025 SCT034 OVC043 21/16 Q1031 NOSIG,M
LFOK,LFOK,2019-09-12 11:00,69.80,60.80,73.09,250.00,8.00,0.00,30.45,M,6.21,M,FEW,BKN,OVC,M,2400.00,3000.00,3900.00,M,M,M,M,M,M,M,M,69.80,LFOK 121100Z AUTO 25008KT 9999 FEW024 BKN030 OVC039 21/16 Q1031 NOSIG,M
LFOK,LFOK,2019-09-12 11:30,69.80,60.80,73.09,260.00,9.00,0.00,30.45,M,6.21,M,FEW,BKN,OVC,M,2500.00,3300.00,4300.00,M,M,M,M,M,M,M,M,69.80,LFOK 121130Z AUTO 26009KT 9999 FEW025 BKN033 OVC043 21/16 Q1031 NOSIG,M
LFOK,LFOK,2019-09-12 12:00,69.80,60.80,73.09,240.00,9.00,0.00,30.45,M,6.21,M,BKN,BKN,OVC,M,2500.00,3500.00,4300.00,M,M,M,M,M,M,M,M,69.80,LFOK 121200Z AUTO 24009KT 210V270 9999 BKN025 BKN035 OVC043 21/16 Q1031 NOSIG,M
LFOK,LFOK,2019-09-12 12:30,71.60,60.80,68.75,240.00,8.00,0.00,30.45,M,6.21,M,BKN,BKN,BKN,M,2500.00,3200.00,4100.00,M,M,M,M,M,M,M,M,71.60,LFOK 121230Z AUTO 24008KT 9999 BKN025 BKN032 BKN041 22/16 Q1031 NOSIG,M
LFOK,LFOK,2019-09-12 13:00,71.60,60.80,68.75,240.00,11.00,0.00,30.45,M,6.21,M,FEW,BKN,BKN,M,1700.00,2600.00,3400.00,M,M,M,M,M,M,M,M,71.60,LFOK 121300Z AUTO 24011KT 9999 FEW017 BKN026 BKN034 22/16 Q1031 NOSIG,M
LFOK,LFOK,2019-09-12 13:30,71.60,60.80,68.75,260.00,10.00,0.00,30.45,M,6.21,M,FEW,BKN,M,M,1400.00,4600.00,M,M,M,M,M,M,M,M,M,71.60,LFOK 121330Z AUTO 26010KT 9999 FEW014 BKN046 22/16 Q1031 NOSIG,M
LFOK,LFOK,2019-09-12 14:00,71.60,60.80,68.75,240.00,9.00,0.00,30.45,M,6.21,M,FEW,SCT,M,M,4000.00,4600.00,M,M,M,M,M,M,M,M,M,71.60,LFOK 121400Z AUTO 24009KT 9999 FEW040 SCT046 22/16 Q1031 NOSIG,M
LFOK,LFOK,2019-09-12 14:30,75.20,60.80,60.90,250.00,8.00,0.00,30.45,M,6.21,M,FEW,M,M,M,4300.00,M,M,M,M,M,M,M,M,M,M,75.20,LFOK 121430Z AUTO 25008KT 9999 FEW043 24/16 Q1031 NOSIG,M
LFOK,LFOK,2019-09-12 15:00,73.40,60.80,64.69,250.00,8.00,0.00,30.45,M,6.21,M,FEW,SCT,M,M,700.00,4300.00,M,M,M,M,M,M,M,M,M,73.40,LFOK 121500Z AUTO 25008KT 220V290 9999 FEW007 SCT043 23/16 Q1031 NOSIG,M
LFOK,LFOK,2019-09-12 15:30,73.40,59.00,60.67,280.00,8.00,0.00,30.45,M,6.21,M,FEW,BKN,M,M,3100.00,4200.00,M,M,M,M,M,M,M,M,M,73.40,LFOK 121530Z AUTO 28008KT 9999 FEW031 BKN042 23/15 Q1031 NOSIG,M
LFOK,LFOK,2019-09-12 16:00,71.60,60.80,68.75,260.00,7.00,0.00,30.45,M,6.21,M,OVC,M,M,M,4100.00,M,M,M,M,M,M,M,M,M,M,71.60,LFOK 121600Z AUTO 26007KT 9999 OVC041 22/16 Q1031 NOSIG,M
LFOK,LFOK,2019-09-12 16:30,71.60,60.80,68.75,280.00,6.00,0.00,30.45,M,6.21,M,OVC,M,M,M,4000.00,M,M,M,M,M,M,M,M,M,M,71.60,LFOK 121630Z AUTO 28006KT 9999 OVC040 22/16 Q1031 NOSIG,M
LFOK,LFOK,2019-09-12 17:00,71.60,60.80,68.75,270.00,6.00,0.00,30.45,M,6.21,M,OVC,M,M,M,3800.00,M,M,M,M,M,M,M,M,M,M,71.60,LFOK 121700Z AUTO 27006KT 9999 OVC038 22/16 Q1031 NOSIG,M
LFOK,LFOK,2019-09-12 17:30,69.80,60.80,73.09,300.00,5.00,0.00,30.45,M,6.21,M,OVC,M,M,M,3700.00,M,M,M,M,M,M,M,M,M,M,69.80,LFOK 121730Z AUTO 30005KT 9999 OVC037 21/16 Q1031 NOSIG,M
LFOK,LFOK,2019-09-12 18:00,69.80,60.80,73.09,340.00,5.00,0.00,30.45,M,6.21,M,OVC,M,M,M,3700.00,M,M,M,M,M,M,M,M,M,M,69.80,LFOK 121800Z AUTO 34005KT 9999 OVC037 21/16 Q1031 NOSIG,M
LFOK,LFOK,2019-09-12 18:30,69.80,60.80,73.09,340.00,2.00,0.00,30.45,M,6.21,M,OVC,M,M,M,4000.00,M,M,M,M,M,M,M,M,M,M,69.80,LFOK 121830Z AUTO 34002KT 9999 OVC040 21/16 Q1031 NOSIG,M
LFOK,LFOK,2019-09-12 19:00,68.00,60.80,77.75,330.00,2.00,0.00,30.47,M,6.21,M,OVC,M,M,M,4100.00,M,M,M,M,M,M,M,M,M,M,68.00,LFOK 121900Z AUTO 33002KT 9999 OVC041 20/16 Q1032 NOSIG,M
LFOK,LFOK,2019-09-12 19:30,68.00,59.00,72.92,30.00,2.00,0.00,30.47,M,6.21,M,OVC,M,M,M,4100.00,M,M,M,M,M,M,M,M,M,M,68.00,LFOK 121930Z AUTO 03002KT 9999 OVC041 20/15 Q1032 NOSIG,M
LFOK,LFOK,2019-09-12 20:00,68.00,59.00,72.92,40.00,2.00,0.00,30.47,M,6.21,M,OVC,M,M,M,4100.00,M,M,M,M,M,M,M,M,M,M,68.00,LFOK 122000Z AUTO 04002KT 9999 OVC041 20/15 Q1032 NOSIG,M
LFOK,LFOK,2019-09-12 20:30,66.20,59.00,77.60,40.00,2.00,0.00,30.47,M,6.21,M,BKN,M,M,M,4000.00,M,M,M,M,M,M,M,M,M,M,66.20,LFOK 122030Z AUTO 04002KT 9999 BKN040 19/15 Q1032 NOSIG,M
LFOK,LFOK,2019-09-12 21:00,64.40,59.00,82.62,70.00,2.00,0.00,30.47,M,6.21,M,SCT,M,M,M,4000.00,M,M,M,M,M,M,M,M,M,M,64.40,LFOK 122100Z AUTO 07002KT 9999 SCT040 18/15 Q1032 NOSIG,M
LFOK,LFOK,2019-09-12 21:30,64.40,59.00,82.62,0.00,0.00,0.00,30.47,M,6.21,M,M,M,M,M,M,M,M,M,M,M,M,M,M,M,M,64.40,LFOK 122130Z AUTO 00000KT CAVOK 18/15 Q1032 NOSIG,M
LFOK,LFOK,2019-09-12 22:00,60.80,59.00,93.79,210.00,1.00,0.00,30.47,M,6.21,M,M,M,M,M,M,M,M,M,M,M,M,M,M,M,M,60.80,LFOK 122200Z AUTO 21001KT CAVOK 16/15 Q1032 NOSIG,M
LFOK,LFOK,2019-09-12 22:30,60.80,57.20,87.92,200.00,3.00,0.00,30.47,M,6.21,M,FEW,M,M,M,4200.00,M,M,M,M,M,M,M,M,M,M,60.80,LFOK 122230Z AUTO 20003KT 9999 FEW042 16/14 Q1032 NOSIG,M
LFOK,LFOK,2019-09-12 23:00,60.80,59.00,93.79,240.00,3.00,0.00,30.47,M,6.21,M,M,M,M,M,M,M,M,M,M,M,M,M,M,M,M,60.80,LFOK 122300Z AUTO 24003KT CAVOK 16/15 Q1032 NOSIG,M
LFOK,LFOK,2019-09-12 23:30,62.60,59.00,88.00,290.00,3.00,0.00,30.47,M,6.21,M,M,M,M,M,M,M,M,M,M,M,M,M,M,M,M,62.60,LFOK 122330Z AUTO 29003KT CAVOK 17/15 Q1032 NOSIG,M
LFOP,LFOP,2019-09-12 00:00,64.40,60.80,88.09,260.00,10.00,0.00,30.33,M,6.21,M,OVC,M,M,M,1100.00,M,M,M,M,M,M,M,M,M,M,64.40,LFOP 120000Z AUTO 26010KT 9999 OVC011 18/16 Q1027,M
LFOP,LFOP,2019-09-12 00:30,62.60,60.80,93.83,260.00,10.00,0.00,30.36,M,6.21,M,OVC,M,M,M,900.00,M,M,M,M,M,M,M,M,M,M,62.60,LFOP 120030Z AUTO 26010KT 9999 OVC009 17/16 Q1028,M
LFOP,LFOP,2019-09-12 01:00,62.60,60.80,93.83,250.00,7.00,0.00,30.36,M,3.11,M,OVC,M,M,M,600.00,M,M,M,-RA BR,M,M,M,M,M,M,62.60,LFOP 120100Z AUTO 25007KT 5000 -RA BR OVC006 17/16 Q1028,M
LFOP,LFOP,2019-09-12 01:30,62.60,60.80,93.83,250.00,7.00,0.00,30.36,M,2.30,M,OVC,M,M,M,400.00,M,M,M,-DZ BR,M,M,M,M,M,M,62.60,LFOP 120130Z AUTO 25007KT 3700 -DZ BR OVC004 17/16 Q1028,M
LFOP,LFOP,2019-09-12 02:00,62.60,60.80,93.83,250.00,8.00,0.00,30.36,M,3.73,M,OVC,M,M,M,400.00,M,M,M,M,M,M,M,M,M,M,62.60,LFOP 120200Z AUTO 25008KT 6000 OVC004 17/16 Q1028,M
LFOP,LFOP,2019-09-12 02:30,62.60,60.80,93.83,250.00,8.00,0.00,30.36,M,6.21,M,OVC,M,M,M,300.00,M,M,M,M,M,M,M,M,M,M,62.60,LFOP 120230Z AUTO 25008KT 9999 OVC003 17/16 Q1028,M
LFOP,LFOP,2019-09-12 03:00,62.60,60.80,93.83,250.00,8.00,0.00,30.36,M,6.21,M,OVC,M,M,M,500.00,M,M,M,M,M,M,M,M,M,M,62.60,LFOP 120300Z AUTO 25008KT 9999 OVC005 17/16 Q1028,M
LFOP,LFOP,2019-09-12 03:30,62.60,60.80,93.83,250.00,6.00,0.00,30.33,M,6.21,M,OVC,M,M,M,600.00,M,M,M,M,M,M,M,M,M,M,62.60,LFOP 120330Z AUTO 25006KT 9999 OVC006 17/16 Q1027,M
LFOP,LFOP,2019-09-12 04:00,62.60,60.80,93.83,250.00,7.00,0.00,30.36,M,6.21,M,OVC,M,M,M,700.00,M,M,M,M,M,M,M,M,M,M,62.60,LFOP 120400Z AUTO 25007KT 9999 OVC007 17/16 Q1028,M
LFOP,LFOP,2019-09-12 04:30,62.60,60.80,93.83,260.00,7.00,0.00,30.36,M,6.21,M,OVC,M,M,M,700.00,M,M,M,M,M,M,M,M,M,M,62.60,LFOP 120430Z AUTO 26007KT 230V290 9999 OVC007 17/16 Q1028,M
LFOP,LFOP,2019-09-12 05:00,62.60,60.80,93.83,250.00,8.00,0.00,30.36,M,6.21,M,BKN,OVC,M,M,800.00,1500.00,M,M,M,M,M,M,M,M,M,62.60,LFOP 120500Z AUTO 25008KT 9999 BKN008 OVC015 17/16 Q1028,M
LFOP,LFOP,2019-09-12 05:30,60.80,60.80,100.00,250.00,6.00,0.00,30.36,M,3.73,M,OVC,M,M,M,400.00,M,M,M,M,M,M,M,M,M,M,60.80,LFOP 120530Z AUTO 25006KT 230V290 6000 OVC004 16/16 Q1028,M
LFOP,LFOP,2019-09-12 06:00,60.80,60.80,100.00,240.00,7.00,0.00,30.39,M,1.86,M,OVC,M,M,M,400.00,M,M,M,-DZ BR,M,M,M,M,M,M,60.80,LFOP 120600Z AUTO 24007KT 3000 -DZ BR OVC004 16/16 Q1029 BECMG 9999 NSW OVC007,M
LFOP,LFOP,2019-09-12 06:30,62.60,60.80,93.83,250.00,6.00,0.00,30.39,M,1.74,M,OVC,M,M,M,400.00,M,M,M,-DZ BR,M,M,M,M,M,M,62.60,LFOP 120630Z AUTO 25006KT 2800 -DZ BR OVC004 17/16 Q1029 TEMPO BKN013 BECMG 9999 NSW,M
LFOP,LFOP,2019-09-12 07:00,62.60,60.80,93.83,250.00,7.00,0.00,30.39,M,1.55,M,OVC,M,M,M,300.00,M,M,M,-DZ BR,M,M,M,M,M,M,62.60,LFOP 120700Z AUTO 25007KT 2500 -DZ BR OVC003 17/16 Q1029 TEMPO BKN013 BECMG 9999 NSW,M
LFOP,LFOP,2019-09-12 07:30,62.60,62.60,100.00,250.00,7.00,0.00,30.42,M,2.92,M,OVC,M,M,M,300.00,M,M,M,-RADZ BR,M,M,M,M,M,M,62.60,LFOP 120730Z AUTO 25007KT 4700 -RADZ BR OVC003 17/17 Q1030 TEMPO BKN013 BECMG 9999 NSW,M
LFOP,LFOP,2019-09-12 08:00,62.60,62.60,100.00,270.00,6.00,0.00,30.42,M,2.17,M,OVC,M,M,M,300.00,M,M,M,BR,M,M,M,M,M,M,62.60,LFOP 120800Z AUTO 27006KT 230V290 3500 BR OVC003 17/17 Q1030 TEMPO BKN013 BECMG 9999 NSW,M
LFOP,LFOP,2019-09-12 08:30,62.60,62.60,100.00,250.00,5.00,0.00,30.45,M,1.74,M,OVC,M,M,M,300.00,M,M,M,-DZ BR,M,M,M,M,M,M,62.60,LFOP 120830Z AUTO 25005KT 230V300 2800 -DZ BR OVC003 17/17 Q1031 TEMPO BKN013 BECMG 9999 NSW,M
LFOP,LFOP,2019-09-12 09:00,62.60,62.60,100.00,260.00,7.00,0.00,30.45,M,4.97,M,OVC,M,M,M,300.00,M,M,M,M,M,M,M,M,M,M,62.60,LFOP 120900Z AUTO 26007KT 230V300 8000 OVC003 17/17 Q1031 TEMPO 4000 BR BKN013,M
LFOP,LFOP,2019-09-12 09:30,64.40,62.60,93.88,260.00,5.00,0.00,30.45,M,4.35,M,OVC,M,M,M,400.00,M,M,M,M,M,M,M,M,M,M,64.40,LFOP 120930Z AUTO 26005KT 7000 OVC004 18/17 Q1031 TEMPO BKN013,M
LFOP,LFOP,2019-09-12 10:00,64.40,64.40,100.00,270.00,6.00,0.00,30.45,M,6.21,M,OVC,M,M,M,400.00,M,M,M,M,M,M,M,M,M,M,64.40,LFOP 121000Z AUTO 27006KT 240V310 9999 OVC004 18/18 Q1031 TEMPO BKN013,M
LFOP,LFOP,2019-09-12 10:30,64.40,62.60,93.88,270.00,4.00,0.00,30.45,M,6.21,M,OVC,M,M,M,600.00,M,M,M,M,M,M,M,M,M,M,64.40,LFOP 121030Z AUTO 27004KT 230V310 9999 OVC006 18/17 Q1031 TEMPO BKN013,M
LFOP,LFOP,2019-09-12 11:00,66.20,64.40,93.92,280.00,4.00,0.00,30.45,M,6.21,M,SCT,OVC,M,M,1000.00,1600.00,M,M,M,M,M,M,M,M,M,66.20,LFOP 121100Z AUTO 28004KT 230V320 9999 SCT010 OVC016 19/18 Q1031 TEMPO BKN013,M
LFOP,LFOP,2019-09-12 11:30,68.00,64.40,88.26,260.00,4.00,0.00,30.45,M,6.21,M,FEW,OVC,M,M,1000.00,1700.00,M,M,M,M,M,M,M,M,M,68.00,LFOP 121130Z AUTO 26004KT 230V300 9999 FEW010 OVC017 20/18 Q1031 TEMPO BKN013,M
LFOP,LFOP,2019-09-12 12:00,68.00,64.40,88.26,250.00,3.00,0.00,30.45,M,6.21,M,BKN,BKN,OVC,M,1300.00,2500.00,4000.00,M,M,M,M,M,M,M,M,68.00,LFOP 121200Z AUTO 25003KT 200V300 9999 BKN013 BKN025 OVC040 20/18 Q1031 BECMG BKN030,M
LFOP,LFOP,2019-09-12 12:30,69.80,62.60,77.90,270.00,5.00,0.00,30.45,M,6.21,M,FEW,BKN,BKN,M,1700.00,2300.00,2900.00,M,M,M,M,M,M,M,M,69.80,LFOP 121230Z AUTO 27005KT 240V310 9999 FEW017 BKN023 BKN029 21/17 Q1031 NOSIG,M
LFOP,LFOP,2019-09-12 13:00,71.60,64.40,78.04,280.00,5.00,0.00,30.45,M,6.21,M,BKN,BKN,OVC,M,2000.00,2800.00,3400.00,M,M,M,M,M,M,M,M,71.60,LFOP 121300Z AUTO 28005KT 240V320 9999 BKN020 BKN028 OVC034 22/18 Q1031 NOSIG,M
LFOP,LFOP,2019-09-12 13:30,69.80,62.60,77.90,270.00,8.00,0.00,30.45,M,6.21,M,BKN,OVC,M,M,2100.00,3800.00,M,M,M,M,M,M,M,M,M,69.80,LFOP 121330Z AUTO 27008KT 230V300 9999 BKN021 OVC038 21/17 Q1031 NOSIG,M
LFOP,LFOP,2019-09-12 14:00,69.80,62.60,77.90,280.00,6.00,0.00,30.45,M,6.21,M,FEW,OVC,M,M,2000.00,2800.00,M,M,M,M,M,M,M,M,M,69.80,LFOP 121400Z AUTO 28006KT 250V320 9999 FEW020 OVC028 21/17 Q1031 NOSIG,M
LFOP,LFOP,2019-09-12 14:30,66.20,62.60,88.18,300.00,6.00,0.00,30.45,M,6.21,M,BKN,OVC,M,M,1600.00,3100.00,M,M,M,M,M,M,M,M,M,66.20,LFOP 121430Z AUTO 30006KT 270V330 9999 BKN016 OVC031 19/17 Q1031 NOSIG,M
LFOP,LFOP,2019-09-12 15:00,66.20,64.40,93.92,300.00,6.00,0.00,30.45,M,6.21,M,BKN,BKN,OVC,M,900.00,1500.00,2400.00,M,M,M,M,M,M,M,M,66.20,LFOP 121500Z AUTO 30006KT 270V330 9999 BKN009 BKN015 OVC024 19/18 Q1031 BECMG BKN030,M
LFOP,LFOP,2019-09-12 15:30,64.40,64.40,100.00,290.00,6.00,0.00,30.45,M,3.73,M,OVC,M,M,M,700.00,M,M,M,DZ,M,M,M,M,M,M,64.40,LFOP 121530Z AUTO 29006KT 250V320 6000 DZ OVC007 18/18 Q1031 BECMG NSW BKN030,M
LFOP,LFOP,2019-09-12 16:00,64.40,62.60,93.88,290.00,6.00,0.00,30.45,M,3.73,M,OVC,M,M,M,600.00,M,M,M,-RADZ,M,M,M,M,M,M,64.40,LFOP 121600Z AUTO 29006KT 250V320 6000 -RADZ OVC006 18/17 Q1031 BECMG BKN030,M
LFOP,LFOP,2019-09-12 16:30,64.40,62.60,93.88,300.00,7.00,0.00,30.47,M,2.73,M,BKN,OVC,M,M,500.00,900.00,M,M,-RA BR,M,M,M,M,M,M,64.40,LFOP 121630Z AUTO 30007KT 240V340 4400 -RA BR BKN005 OVC009 18/17 Q1032 BECMG 9999 NSW BKN030,M
LFOP,LFOP,2019-09-12 17:00,64.40,62.60,93.88,280.00,4.00,0.00,30.47,M,6.21,M,FEW,OVC,M,M,900.00,1700.00,M,M,M,M,M,M,M,M,M,64.40,LFOP 121700Z AUTO 28004KT 240V320 9999 FEW009 OVC017 18/17 Q1032 NOSIG,M
LFOP,LFOP,2019-09-12 17:30,64.40,62.60,93.88,M,2.00,0.00,30.47,M,6.21,M,OVC,M,M,M,2000.00,M,M,M,M,M,M,M,M,M,M,64.40,LFOP 121730Z AUTO VRB02KT 9999 OVC020 18/17 Q1032 NOSIG,M
LFOP,LFOP,2019-09-12 18:00,64.40,60.80,88.09,210.00,3.00,0.00,30.47,M,6.21,M,OVC,M,M,M,2300.00,M,M,M,M,M,M,M,M,M,M,64.40,LFOP 121800Z AUTO 21003KT 9999 OVC023 18/16 Q1032 NOSIG,M
LFOP,LFOP,2019-09-12 18:30,62.60,60.80,93.83,220.00,3.00,0.00,30.47,M,6.21,M,BKN,OVC,M,M,2800.00,3300.00,M,M,-RA,M,M,M,M,M,M,62.60,LFOP 121830Z AUTO 22003KT 9999 1400 R22/P2000 -RA BKN028 OVC033 17/16 Q1032 NOSIG,M
LFOP,LFOP,2019-09-12 19:00,60.80,59.00,93.79,220.00,4.00,0.00,30.47,M,6.21,M,SCT,M,M,M,3900.00,M,M,M,M,M,M,M,M,M,M,60.80,LFOP 121900Z AUTO 22004KT 9999 SCT039 16/15 Q1032 NOSIG,M
LFOP,LFOP,2019-09-12 19:30,59.00,59.00,100.00,230.00,5.00,0.00,30.47,M,6.21,M,FEW,M,M,M,3600.00,M,M,M,M,M,M,M,M,M,M,59.00,LFOP 121930Z AUTO 23005KT 9999 FEW036 15/15 Q1032 NOSIG,M
LFOP,LFOP,2019-09-12 20:00,59.00,57.20,93.74,250.00,3.00,0.00,30.47,M,6.21,M,NSC,M,M,M,M,M,M,M,M,M,M,M,M,M,M,59.00,LFOP 122000Z AUTO 25003KT 9999 3700 NSC 15/14 Q1032 NOSIG,M
LFOP,LFOP,2019-09-12 20:30,59.00,59.00,100.00,0.00,0.00,0.00,30.47,M,3.73,M,NSC,M,M,M,M,M,M,M,M,M,M,M,M,M,M,59.00,LFOP 122030Z AUTO 00000KT 6000 1000 R22/P2000 NSC 15/15 Q1032,M
LFOP,LFOP,2019-09-12 21:00,57.20,57.20,100.00,280.00,3.00,0.00,30.47,M,3.11,M,NSC,M,M,M,M,M,M,M,BCFG,M,M,M,M,M,M,57.20,LFOP 122100Z AUTO 28003KT 5000 0800 R22/P2000 BCFG NSC 14/14 Q1032,M
LFOP,LFOP,2019-09-12 21:30,57.20,57.20,100.00,220.00,2.00,0.00,30.47,M,3.11,M,NSC,M,M,M,M,M,M,M,BCFG,M,M,M,M,M,M,57.20,LFOP 122130Z AUTO 22002KT 5000 0650 R22/P2000 BCFG NSC 14/14 Q1032,M
LFOP,LFOP,2019-09-12 22:00,59.00,59.00,100.00,M,1.00,0.00,30.47,M,1.30,M,NSC,M,M,M,M,M,M,M,BR,M,M,M,M,M,M,59.00,LFOP 122200Z AUTO VRB01KT 2100 R22/1400D BR NSC 15/15 Q1032,M
LFOP,LFOP,2019-09-12 22:30,57.20,57.20,100.00,220.00,2.00,0.00,30.47,M,0.62,M,NSC,M,M,M,M,M,M,M,BCFG,M,M,M,M,M,M,57.20,LFOP 122230Z AUTO 22002KT 1000 0600 R22/1700D BCFG NSC 14/14 Q1032,M
LFOP,LFOP,2019-09-12 23:00,55.40,55.40,100.00,210.00,2.00,0.00,30.47,M,0.50,M,NSC,M,M,M,M,M,M,M,FG,M,M,M,M,M,M,55.40,LFOP 122300Z AUTO 21002KT 0800 0650 R22/1300N FG NSC 13/13 Q1032,M
LFOP,LFOP,2019-09-12 23:30,55.40,55.40,100.00,230.00,3.00,0.00,30.47,M,0.56,M,FEW,M,M,M,100.00,M,M,M,FG,M,M,M,M,M,M,55.40,LFOP 122330Z AUTO 23003KT 0900 0700 R22/1300D FG FEW001 13/13 Q1032,M
LFOT,LFOT,2019-09-12 00:00,57.20,50.00,76.82,260.00,3.00,0.00,30.39,M,6.21,M,M,M,M,M,M,M,M,M,M,M,M,M,M,M,M,57.20,LFOT 120000Z AUTO 26003KT CAVOK 14/10 Q1029 NOSIG,M
LFOT,LFOT,2019-09-12 00:30,57.20,48.20,71.83,270.00,3.00,0.00,30.39,M,6.21,M,M,M,M,M,M,M,M,M,M,M,M,M,M,M,M,57.20,LFOT 120030Z AUTO 27003KT CAVOK 14/09 Q1029 TEMPO BKN008,M
LFOT,LFOT,2019-09-12 01:00,57.20,50.00,76.82,270.00,3.00,0.00,30.39,M,6.21,M,M,M,M,M,M,M,M,M,M,M,M,M,M,M,M,57.20,LFOT 120100Z AUTO 27003KT CAVOK 14/10 Q1029 TEMPO BKN008,M
LFOT,LFOT,2019-09-12 01:30,57.20,51.80,82.12,270.00,3.00,0.00,30.39,M,6.21,M,M,M,M,M,M,M,M,M,M,M,M,M,M,M,M,57.20,LFOT 120130Z AUTO 27003KT CAVOK 14/11 Q1029 TEMPO 0400 FG VV///,M
LFOT,LFOT,2019-09-12 02:00,55.40,51.80,87.65,280.00,3.00,0.00,30.39,M,6.21,M,M,M,M,M,M,M,M,M,M,M,M,M,M,M,M,55.40,LFOT 120200Z AUTO 28003KT CAVOK 13/11 Q1029 TEMPO 0400 FG VV///,M
LFOT,LFOT,2019-09-12 02:30,55.40,51.80,87.65,280.00,3.00,0.00,30.39,M,6.21,M,M,M,M,M,M,M,M,M,M,M,M,M,M,M,M,55.40,LFOT 120230Z AUTO 28003KT CAVOK 13/11 Q1029 TEMPO 0400 FG VV///,M
LFOT,LFOT,2019-09-12 03:00,55.40,53.60,93.65,270.00,2.00,0.00,30.39,M,6.21,M,M,M,M,M,M,M,M,M,M,M,M,M,M,M,M,55.40,LFOT 120300Z AUTO 27002KT CAVOK 13/12 Q1029 TEMPO 0400 FG VV///,M
LFOT,LFOT,2019-09-12 03:30,55.40,53.60,93.65,250.00,3.00,0.00,30.42,M,6.21,M,M,M,M,M,M,M,M,M,M,M,M,M,M,M,M,55.40,LFOT 120330Z AUTO 25003KT CAVOK 13/12 Q1030 TEMPO 0400 FG VV///,M
LFOT,LFOT,2019-09-12 04:00,53.60,51.80,93.60,250.00,4.00,0.00,30.42,M,6.21,M,M,M,M,M,M,M,M,M,M,M,M,M,M,M,M,53.60,LFOT 120400Z AUTO 25004KT CAVOK 12/11 Q1030 TEMPO 0400 FG VV///,M
LFOT,LFOT,2019-09-12 04:30,53.60,51.80,93.60,240.00,3.00,0.00,30.42,M,6.21,M,M,M,M,M,M,M,M,M,M,M,M,M,M,M,M,53.60,LFOT 120430Z AUTO 24003KT CAVOK 12/11 Q1030 TEMPO 0400 FG VV///,M
LFOT,LFOT,2019-09-12 05:00,53.60,53.60,100.00,250.00,2.00,0.00,30.42,M,5.59,M,NSC,M,M,M,M,M,M,M,M,M,M,M,M,M,M,53.60,LFOT 120500Z AUTO 25002KT 9000 2600 NSC 12/12 Q1030 TEMPO 0400 FG VV///,M
LFOT,LFOT,2019-09-12 05:30,53.60,53.60,100.00,M,2.00,0.00,30.42,M,6.21,M,BKN,M,M,M,300.00,M,M,M,M,M,M,M,M,M,M,53.60,LFOT 120530Z AUTO VRB02KT 9999 BKN003 12/12 Q1030 TEMPO BKN008,M
LFOT,LFOT,2019-09-12 06:00,55.40,55.40,100.00,270.00,3.00,0.00,30.42,M,6.21,M,OVC,M,M,M,200.00,M,M,M,M,M,M,M,M,M,M,55.40,LFOT 120600Z AUTO 27003KT 9999 OVC002 13/13 Q1030 TEMPO 2500 BR,M
LFOT,LFOT,2019-09-12 06:30,55.40,55.40,100.00,M,3.00,0.00,30.45,M,0.99,M,OVC,M,M,M,200.00,M,M,M,BR,M,M,M,M,M,M,55.40,LFOT 120630Z AUTO VRB03KT 1600 1300 R20/1900D BR OVC002 13/13 Q1031 NOSIG,M
LFOT,LFOT,2019-09-12 07:00,55.40,55.40,100.00,M,3.00,0.00,30.45,M,2.05,M,OVC,M,M,M,200.00,M,M,M,BR,M,M,M,M,M,M,55.40,LFOT 120700Z AUTO VRB03KT 3300 1300 R20/2800D BR OVC002 13/13 Q1031 TEMPO 2500 BR,M
LFOT,LFOT,2019-09-12 07:30,57.20,55.40,93.69,290.00,3.00,0.00,30.45,M,3.73,M,OVC,M,M,M,200.00,M,M,M,M,M,M,M,M,M,M,57.20,LFOT 120730Z AUTO 29003KT 240V320 6000 OVC002 14/13 Q1031 TEMPO 2500 BR BECMG NSC,M
LFOT,LFOT,2019-09-12 08:00,59.00,55.40,87.83,300.00,4.00,0.00,30.47,M,6.21,M,SCT,M,M,M,200.00,M,M,M,M,M,M,M,M,M,M,59.00,LFOT 120800Z AUTO 30004KT 270V340 9999 SCT002 15/13 Q1032 TEMPO 2500 BR BKN002,M
LFOT,LFOT,2019-09-12 08:30,60.80,57.20,87.92,M,3.00,0.00,30.47,M,6.21,M,M,M,M,M,M,M,M,M,M,M,M,M,M,M,M,60.80,LFOT 120830Z AUTO VRB03KT CAVOK 16/14 Q1032 NOSIG,M
LFOT,LFOT,2019-09-12 09:00,66.20,59.00,77.60,M,3.00,0.00,30.47,M,6.21,M,M,M,M,M,M,M,M,M,M,M,M,M,M,M,M,66.20,LFOT 120900Z AUTO VRB03KT CAVOK 19/15 Q1032 NOSIG,M
LFOT,LFOT,2019-09-12 09:30,68.00,59.00,72.92,M,2.00,0.00,30.47,M,6.21,M,M,M,M,M,M,M,M,M,M,M,M,M,M,M,M,68.00,LFOT 120930Z AUTO VRB02KT CAVOK 20/15 Q1032 NOSIG,M
LFOT,LFOT,2019-09-12 10:00,69.80,59.00,68.55,M,3.00,0.00,30.47,M,6.21,M,M,M,M,M,M,M,M,M,M,M,M,M,M,M,M,69.80,LFOT 121000Z AUTO VRB03KT CAVOK 21/15 Q1032 NOSIG,M
LFOT,LFOT,2019-09-12 10:30,71.60,59.00,64.48,280.00,5.00,0.00,30.47,M,6.21,M,M,M,M,M,M,M,M,M,M,M,M,M,M,M,M,71.60,LFOT 121030Z AUTO 28005KT 210V320 CAVOK 22/15 Q1032 NOSIG,M
LFOT,LFOT,2019-09-12 11:00,71.60,59.00,64.48,280.00,5.00,0.00,30.47,M,6.21,M,FEW,M,M,M,2600.00,M,M,M,M,M,M,M,M,M,M,71.60,LFOT 121100Z AUTO 28005KT 220V310 9999 FEW026 22/15 Q1032 NOSIG,M
LFOT,LFOT,2019-09-12 11:30,73.40,59.00,60.67,M,5.00,0.00,30.47,M,6.21,M,SCT,M,M,M,2700.00,M,M,M,M,M,M,M,M,M,M,73.40,LFOT 121130Z AUTO VRB05KT 9999 SCT027 23/15 Q1032 NOSIG,M
LFOT,LFOT,2019-09-12 12:00,73.40,59.00,60.67,290.00,6.00,0.00,30.47,M,6.21,M,BKN,M,M,M,3000.00,M,M,M,M,M,M,M,M,M,M,73.40,LFOT 121200Z AUTO 29006KT 230V030 9999 BKN030 23/15 Q1032 NOSIG,M
LFOT,LFOT,2019-09-12 12:30,75.20,59.00,57.12,320.00,5.00,0.00,30.47,M,6.21,M,BKN,M,M,M,3200.00,M,M,M,M,M,M,M,M,M,M,75.20,LFOT 121230Z AUTO 32005KT 270V020 9999 BKN032 24/15 Q1032 NOSIG,M
LFOT,LFOT,2019-09-12 13:00,75.20,57.20,53.55,280.00,5.00,0.00,30.47,M,6.21,M,SCT,M,M,M,3500.00,M,M,M,M,M,M,M,M,M,M,75.20,LFOT 121300Z AUTO 28005KT 240V330 9999 SCT035 24/14 Q1032 NOSIG,M
LFOT,LFOT,2019-09-12 13:30,75.20,57.20,53.55,M,4.00,0.00,30.45,M,6.21,M,BKN,M,M,M,3700.00,M,M,M,M,M,M,M,M,M,M,75.20,LFOT 121330Z AUTO VRB04KT 9999 BKN037 24/14 Q1031 NOSIG,M
LFOT,LFOT,2019-09-12 14:00,77.00,59.00,53.80,290.00,5.00,0.00,30.45,M,6.21,M,SCT,M,M,M,3700.00,M,M,M,M,M,M,M,M,M,M,77.00,LFOT 121400Z AUTO 29005KT 210V340 9999 SCT037 25/15 Q1031 NOSIG,M
LFOT,LFOT,2019-09-12 14:30,77.00,59.00,53.80,320.00,4.00,0.00,30.45,M,6.21,M,SCT,M,M,M,3800.00,M,M,M,M,M,M,M,M,M,M,77.00,LFOT 121430Z AUTO 32004KT 230V010 9999 SCT038 25/15 Q1031 NOSIG,M
LFOT,LFOT,2019-09-12 15:00,77.00,59.00,53.80,M,5.00,0.00,30.45,M,6.21,M,FEW,M,M,M,4000.00,M,M,M,M,M,M,M,M,M,M,77.00,LFOT 121500Z AUTO VRB05KT 9999 FEW040 25/15 Q1031 NOSIG,M
LFOT,LFOT,2019-09-12 15:30,77.00,57.20,50.43,260.00,5.00,0.00,30.45,M,6.21,M,NSC,M,M,M,M,M,M,M,M,M,M,M,M,M,M,77.00,LFOT 121530Z AUTO 26005KT 160V320 9999 NSC 25/14 Q1031 NOSIG,M
LFOT,LFOT,2019-09-12 16:00,77.00,59.00,53.80,280.00,5.00,0.00,30.45,M,6.21,M,M,M,M,M,M,M,M,M,M,M,M,M,M,M,M,77.00,LFOT 121600Z AUTO 28005KT 240V320 CAVOK 25/15 Q1031 NOSIG,M
LFOT,LFOT,2019-09-12 16:30,77.00,57.20,50.43,290.00,5.00,0.00,30.45,M,6.21,M,M,M,M,M,M,M,M,M,M,M,M,M,M,M,M,77.00,LFOT 121630Z AUTO 29005KT 240V330 CAVOK 25/14 Q1031 NOSIG,M
LFOT,LFOT,2019-09-12 17:00,77.00,59.00,53.80,310.00,6.00,0.00,30.45,M,6.21,M,M,M,M,M,M,M,M,M,M,M,M,M,M,M,M,77.00,LFOT 121700Z AUTO 31006KT 280V340 CAVOK 25/15 Q1031 NOSIG,M
LFOT,LFOT,2019-09-12 17:30,75.20,59.00,57.12,330.00,6.00,0.00,30.45,M,6.21,M,M,M,M,M,M,M,M,M,M,M,M,M,M,M,M,75.20,LFOT 121730Z AUTO 33006KT 290V360 CAVOK 24/15 Q1031 NOSIG,M
LFOT,LFOT,2019-09-12 18:00,73.40,57.20,56.88,330.00,7.00,0.00,30.45,M,6.21,M,M,M,M,M,M,M,M,M,M,M,M,M,M,M,M,73.40,LFOT 121800Z AUTO 33007KT 300V360 CAVOK 23/14 Q1031 NOSIG,M
LFOT,LFOT,2019-09-12 18:30,71.60,57.20,60.44,330.00,3.00,0.00,30.45,M,6.21,M,M,M,M,M,M,M,M,M,M,M,M,M,M,M,M,71.60,LFOT 121830Z AUTO 33003KT CAVOK 22/14 Q1031 NOSIG,M
LFOT,LFOT,2019-09-12 19:00,69.80,57.20,64.26,320.00,4.00,0.00,30.45,M,6.21,M,M,M,M,M,M,M,M,M,M,M,M,M,M,M,M,69.80,LFOT 121900Z AUTO 32004KT CAVOK 21/14 Q1031 NOSIG,M
LFOT,LFOT,2019-09-12 19:30,68.00,57.20,68.35,320.00,4.00,0.00,30.45,M,6.21,M,M,M,M,M,M,M,M,M,M,M,M,M,M,M,M,68.00,LFOT 121930Z AUTO 32004KT CAVOK 20/14 Q1031 NOSIG,M
LFOT,LFOT,2019-09-12 20:00,66.20,57.20,72.74,330.00,4.00,0.00,30.45,M,6.21,M,M,M,M,M,M,M,M,M,M,M,M,M,M,M,M,66.20,LFOT 122000Z AUTO 33004KT CAVOK 19/14 Q1031 NOSIG,M
LFOT,LFOT,2019-09-12 20:30,66.20,59.00,77.60,350.00,3.00,0.00,30.47,M,6.21,M,M,M,M,M,M,M,M,M,M,M,M,M,M,M,M,66.20,LFOT 122030Z AUTO 35003KT CAVOK 19/15 Q1032 NOSIG,M
LFOT,LFOT,2019-09-12 21:00,66.20,59.00,77.60,350.00,3.00,0.00,30.45,M,6.21,M,M,M,M,M,M,M,M,M,M,M,M,M,M,M,M,66.20,LFOT 122100Z AUTO 35003KT 320V020 CAVOK 19/15 Q1031 NOSIG,M
LFOT,LFOT,2019-09-12 21:30,64.40,59.00,82.62,M,3.00,0.00,30.47,M,6.21,M,M,M,M,M,M,M,M,M,M,M,M,M,M,M,M,64.40,LFOT 122130Z AUTO VRB03KT CAVOK 18/15 Q1032 NOSIG,M
LFOT,LFOT,2019-09-12 22:00,64.40,59.00,82.62,20.00,4.00,0.00,30.47,M,6.21,M,M,M,M,M,M,M,M,M,M,M,M,M,M,M,M,64.40,LFOT 122200Z AUTO 02004KT CAVOK 18/15 Q1032 NOSIG,M
LFOT,LFOT,2019-09-12 22:30,64.40,59.00,82.62,350.00,4.00,0.00,30.47,M,6.21,M,M,M,M,M,M,M,M,M,M,M,M,M,M,M,M,64.40,LFOT 122230Z AUTO 35004KT CAVOK 18/15 Q1032 NOSIG,M
LFOT,LFOT,2019-09-12 23:00,64.40,59.00,82.62,10.00,4.00,0.00,30.45,M,6.21,M,M,M,M,M,M,M,M,M,M,M,M,M,M,M,M,64.40,LFOT 122300Z AUTO 01004KT 340V040 CAVOK 18/15 Q1031 NOSIG,M
LFOT,LFOT,2019-09-12 23:30,64.40,59.00,82.62,M,3.00,0.00,30.45,M,6.21,M,M,M,M,M,M,M,M,M,M,M,M,M,M,M,M,64.40,LFOT 122330Z AUTO VRB03KT CAVOK 18/15 Q1031 NOSIG,M
LFOV,LFOV,2019-09-12 00:00,59.00,57.20,93.74,M,3.00,0.00,30.39,M,6.21,M,M,M,M,M,M,M,M,M,M,M,M,M,M,M,M,59.00,LFOV 120000Z AUTO VRB03KT CAVOK 15/14 Q1029,M
LFOV,LFOV,2019-09-12 00:30,57.20,57.20,100.00,200.00,3.00,0.00,30.39,M,6.21,M,M,M,M,M,M,M,M,M,M,M,M,M,M,M,M,57.20,LFOV 120030Z AUTO 20003KT 160V260 CAVOK 14/14 Q1029,M
LFOV,LFOV,2019-09-12 01:00,57.20,57.20,100.00,M,1.00,0.00,30.42,M,6.21,M,SCT,M,M,M,400.00,M,M,M,M,M,M,M,M,M,M,57.20,LFOV 120100Z AUTO VRB01KT 9999 SCT004 14/14 Q1030,M
LFOV,LFOV,2019-09-12 01:30,57.20,57.20,100.00,M,2.00,0.00,30.39,M,6.21,M,FEW,M,M,M,2500.00,M,M,M,M,M,M,M,M,M,M,57.20,LFOV 120130Z AUTO VRB02KT 9999 FEW025 14/14 Q1029,M
LFOV,LFOV,2019-09-12 02:00,57.20,57.20,100.00,M,2.00,0.00,30.39,M,6.21,M,M,M,M,M,M,M,M,M,M,M,M,M,M,M,M,57.20,LFOV 120200Z AUTO VRB02KT CAVOK 14/14 Q1029,M
LFOV,LFOV,2019-09-12 02:30,57.20,57.20,100.00,M,1.00,0.00,30.39,M,6.21,M,FEW,M,M,M,300.00,M,M,M,M,M,M,M,M,M,M,57.20,LFOV 120230Z AUTO VRB01KT 9999 FEW003 14/14 Q1029,M
LFOV,LFOV,2019-09-12 03:00,57.20,57.20,100.00,220.00,3.00,0.00,30.39,M,3.11,M,FEW,BKN,BKN,M,200.00,1500.00,2900.00,M,BR,M,M,M,M,M,M,57.20,LFOV 120300Z AUTO 22003KT 5000 BR FEW002 BKN015 BKN029 14/14 Q1029,M
LFOV,LFOV,2019-09-12 03:30,57.20,57.20,100.00,M,3.00,0.00,30.39,M,0.50,M,VV ,M,M,M,M,M,M,M,FG,M,M,M,M,M,M,57.20,LFOV 120330Z AUTO VRB03KT 0800 0600 FG VV/// 14/14 Q1029,M
LFOV,LFOV,2019-09-12 04:00,57.20,57.20,100.00,190.00,4.00,0.00,30.39,M,0.31,M,VV ,M,M,M,M,M,M,M,FG,M,M,M,M,M,M,57.20,LFOV 120400Z AUTO 19004KT 0500 FG VV/// 14/14 Q1029,M
LFOV,LFOV,2019-09-12 04:30,57.20,57.20,100.00,210.00,3.00,0.00,30.42,M,0.37,M,VV ,M,M,M,M,M,M,M,FG,M,M,M,M,M,M,57.20,LFOV 120430Z AUTO 21003KT 0600 FG VV/// 14/14 Q1030,M
LFOV,LFOV,2019-09-12 05:00,59.00,59.00,100.00,200.00,3.00,0.00,30.42,M,0.31,M,VV ,M,M,M,M,M,M,M,FG,M,M,M,M,M,M,59.00,LFOV 120500Z AUTO 20003KT 170V230 0500 FG VV/// 15/15 Q1030,M
LFOV,LFOV,2019-09-12 05:30,59.00,59.00,100.00,M,2.00,0.00,30.42,M,0.34,M,VV ,M,M,M,M,M,M,M,FG,M,M,M,M,M,M,59.00,LFOV 120530Z AUTO VRB02KT 0550 FG VV/// 15/15 Q1030,M
LFOV,LFOV,2019-09-12 06:00,59.00,59.00,100.00,M,2.00,0.00,30.42,M,0.25,M,VV ,M,M,M,M,M,M,M,FG,M,M,M,M,M,M,59.00,LFOV 120600Z AUTO VRB02KT 0400 FG VV/// 15/15 Q1030,M
LFOV,LFOV,2019-09-12 06:30,59.00,59.00,100.00,M,3.00,0.00,30.45,M,0.56,M,VV ,M,M,M,M,M,M,M,FG,M,M,M,M,M,M,59.00,LFOV 120630Z AUTO VRB03KT 0900 FG VV/// 15/15 Q1031,M
LFOV,LFOV,2019-09-12 07:00,60.80,60.80,100.00,240.00,3.00,0.00,30.45,M,4.35,M,OVC,M,M,M,300.00,M,M,M,M,M,M,M,M,M,M,60.80,LFOV 120700Z AUTO 24003KT 190V300 7000 OVC003 16/16 Q1031,M
LFOV,LFOV,2019-09-12 07:30,60.80,60.80,100.00,250.00,6.00,0.00,30.45,M,6.21,M,OVC,M,M,M,400.00,M,M,M,M,M,M,M,M,M,M,60.80,LFOV 120730Z AUTO 25006KT 220V280 9999 OVC004 16/16 Q1031,M
LFOV,LFOV,2019-09-12 08:00,62.60,62.60,100.00,280.00,3.00,0.00,30.47,M,6.21,M,OVC,M,M,M,500.00,M,M,M,M,M,M,M,M,M,M,62.60,LFOV 120800Z AUTO 28003KT 210V330 9999 OVC005 17/17 Q1032,M
LFOV,LFOV,2019-09-12 08:30,62.60,62.60,100.00,300.00,5.00,0.00,30.47,M,6.21,M,OVC,M,M,M,500.00,M,M,M,M,M,M,M,M,M,M,62.60,LFOV 120830Z AUTO 30005KT 270V330 9999 OVC005 17/17 Q1032,M
LFOV,LFOV,2019-09-12 09:00,66.20,60.80,82.74,280.00,7.00,0.00,30.47,M,6.21,M,BKN,BKN,M,M,900.00,1900.00,M,M,M,M,M,M,M,M,M,66.20,LFOV 120900Z AUTO 28007KT 9999 BKN009 BKN019 19/16 Q1032,M
LFOV,LFOV,2019-09-12 09:30,69.80,62.60,77.90,250.00,5.00,0.00,30.47,M,6.21,M,BKN,M,M,M,1500.00,M,M,M,M,M,M,M,M,M,M,69.80,LFOV 120930Z AUTO 25005KT 210V290 9999 BKN015 21/17 Q1032,M
LFOV,LFOV,2019-09-12 10:00,68.00,60.80,77.75,270.00,4.00,0.00,30.47,M,6.21,M,OVC,M,M,M,1800.00,M,M,M,M,M,M,M,M,M,M,68.00,LFOV 121000Z AUTO 27004KT 240V310 9999 OVC018 20/16 Q1032,M
LFOV,LFOV,2019-09-12 10:30,69.80,60.80,73.09,270.00,6.00,0.00,30.47,M,6.21,M,BKN,M,M,M,2000.00,M,M,M,M,M,M,M,M,M,M,69.80,LFOV 121030Z AUTO 27006KT 180V340 9999 BKN020 21/16 Q1032,M
LFOV,LFOV,2019-09-12 11:00,69.80,60.80,73.09,250.00,5.00,0.00,30.47,M,6.21,M,OVC,M,M,M,2200.00,M,M,M,M,M,M,M,M,M,M,69.80,LFOV 121100Z AUTO 25005KT 190V290 9999 OVC022 21/16 Q1032,M
LFOV,LFOV,2019-09-12 11:30,69.80,60.80,73.09,300.00,5.00,0.00,30.47,M,6.21,M,OVC,M,M,M,2200.00,M,M,M,M,M,M,M,M,M,M,69.80,LFOV 121130Z AUTO 30005KT 270V330 9999 OVC022 21/16 Q1032,M
LFOV,LFOV,2019-09-12 12:00,69.80,60.80,73.09,270.00,4.00,0.00,30.47,M,6.21,M,OVC,M,M,M,2500.00,M,M,M,M,M,M,M,M,M,M,69.80,LFOV 121200Z AUTO 27004KT 210V330 9999 OVC025 21/16 Q1032,M
LFOV,LFOV,2019-09-12 12:30,69.80,60.80,73.09,230.00,5.00,0.00,30.47,M,6.21,M,OVC,M,M,M,2600.00,M,M,M,M,M,M,M,M,M,M,69.80,LFOV 121230Z AUTO 23005KT 190V270 9999 OVC026 21/16 Q1032,M
LFOV,LFOV,2019-09-12 13:00,71.60,60.80,68.75,220.00,4.00,0.00,30.47,M,6.21,M,OVC,M,M,M,2800.00,M,M,M,M,M,M,M,M,M,M,71.60,LFOV 121300Z AUTO 22004KT 190V280 9999 OVC028 22/16 Q1032,M
LFOV,LFOV,2019-09-12 13:30,71.60,60.80,68.75,240.00,4.00,0.00,30.47,M,6.21,M,OVC,M,M,M,2800.00,M,M,M,M,M,M,M,M,M,M,71.60,LFOV 121330Z AUTO 24004KT 150V310 9999 OVC028 22/16 Q1032,M
LFOV,LFOV,2019-09-12 14:00,73.40,60.80,64.69,260.00,4.00,0.00,30.47,M,6.21,M,OVC,M,M,M,3000.00,M,M,M,M,M,M,M,M,M,M,73.40,LFOV 121400Z AUTO 26004KT 220V300 9999 OVC030 23/16 Q1032,M
LFOV,LFOV,2019-09-12 14:30,71.60,60.80,68.75,270.00,6.00,0.00,30.47,M,6.21,M,OVC,M,M,M,3100.00,M,M,M,M,M,M,M,M,M,M,71.60,LFOV 121430Z AUTO 27006KT 210V300 9999 OVC031 22/16 Q1032,M
LFOV,LFOV,2019-09-12 15:00,71.60,60.80,68.75,290.00,6.00,0.00,30.45,M,6.21,M,OVC,M,M,M,3400.00,M,M,M,M,M,M,M,M,M,M,71.60,LFOV 121500Z AUTO 29006KT 270V330 9999 OVC034 22/16 Q1031,M
LFOV,LFOV,2019-09-12 15:30,71.60,60.80,68.75,290.00,6.00,0.00,30.45,M,6.21,M,OVC,M,M,M,3500.00,M,M,M,M,M,M,M,M,M,M,71.60,LFOV 121530Z AUTO 29006KT 260V320 9999 OVC035 22/16 Q1031,M
LFOV,LFOV,2019-09-12 16:00,71.60,59.00,64.48,310.00,7.00,0.00,30.45,M,6.21,M,OVC,M,M,M,3500.00,M,M,M,M,M,M,M,M,M,M,71.60,LFOV 121600Z AUTO 31007KT 260V340 9999 OVC035 22/15 Q1031,M
LFOV,LFOV,2019-09-12 16:30,71.60,59.00,64.48,290.00,5.00,0.00,30.45,M,6.21,M,OVC,M,M,M,3400.00,M,M,M,M,M,M,M,M,M,M,71.60,LFOV 121630Z AUTO 29005KT 9999 OVC034 22/15 Q1031,M
LFOV,LFOV,2019-09-12 17:00,73.40,59.00,60.67,310.00,4.00,0.00,30.45,M,6.21,M,FEW,M,M,M,3400.00,M,M,M,M,M,M,M,M,M,M,73.40,LFOV 121700Z AUTO 31004KT 240V010 9999 FEW034 23/15 Q1031,M
LFOV,LFOV,2019-09-12 17:30,73.40,59.00,60.67,300.00,3.00,0.00,30.45,M,6.21,M,M,M,M,M,M,M,M,M,M,M,M,M,M,M,M,73.40,LFOV 121730Z AUTO 30003KT 270V360 CAVOK 23/15 Q1031,M
LFOV,LFOV,2019-09-12 18:00,69.80,59.00,68.55,360.00,2.00,0.00,30.45,M,6.21,M,M,M,M,M,M,M,M,M,M,M,M,M,M,M,M,69.80,LFOV 121800Z AUTO 36002KT CAVOK 21/15 Q1031,M
LFOV,LFOV,2019-09-12 18:30,68.00,57.20,68.35,0.00,0.00,0.00,30.45,M,6.21,M,M,M,M,M,M,M,M,M,M,M,M,M,M,M,M,68.00,LFOV 121830Z AUTO 00000KT CAVOK 20/14 Q1031,M
LFOV,LFOV,2019-09-12 19:00,66.20,57.20,72.74,0.00,0.00,0.00,30.47,M,6.21,M,M,M,M,M,M,M,M,M,M,M,M,M,M,M,M,66.20,LFOV 121900Z AUTO 00000KT CAVOK 19/14 Q1032,M
LFOV,LFOV,2019-09-12 19:30,64.40,59.00,82.62,M,3.00,0.00,30.47,M,6.21,M,M,M,M,M,M,M,M,M,M,M,M,M,M,M,M,64.40,LFOV 121930Z AUTO VRB03KT CAVOK 18/15 Q1032,M
LFOV,LFOV,2019-09-12 20:00,64.40,59.00,82.62,10.00,5.00,0.00,30.47,M,6.21,M,M,M,M,M,M,M,M,M,M,M,M,M,M,M,M,64.40,LFOV 122000Z AUTO 01005KT CAVOK 18/15 Q1032,M
LFOV,LFOV,2019-09-12 20:30,62.60,60.80,93.83,10.00,4.00,0.00,30.47,M,6.21,M,M,M,M,M,M,M,M,M,M,M,M,M,M,M,M,62.60,LFOV 122030Z AUTO 01004KT CAVOK 17/16 Q1032,M
LFOV,LFOV,2019-09-12 21:00,62.60,59.00,88.00,350.00,5.00,0.00,30.47,M,6.21,M,M,M,M,M,M,M,M,M,M,M,M,M,M,M,M,62.60,LFOV 122100Z AUTO 35005KT CAVOK 17/15 Q1032,M
LFOV,LFOV,2019-09-12 21:30,60.80,59.00,93.79,340.00,6.00,0.00,30.47,M,6.21,M,M,M,M,M,M,M,M,M,M,M,M,M,M,M,M,60.80,LFOV 122130Z AUTO 34006KT CAVOK 16/15 Q1032,M
LFOV,LFOV,2019-09-12 22:00,60.80,59.00,93.79,350.00,5.00,0.00,30.47,M,6.21,M,M,M,M,M,M,M,M,M,M,M,M,M,M,M,M,60.80,LFOV 122200Z AUTO 35005KT CAVOK 16/15 Q1032,M
LFOV,LFOV,2019-09-12 22:30,60.80,59.00,93.79,330.00,4.00,0.00,30.47,M,6.21,M,M,M,M,M,M,M,M,M,M,M,M,M,M,M,M,60.80,LFOV 122230Z AUTO 33004KT CAVOK 16/15 Q1032,M
LFOV,LFOV,2019-09-12 23:00,59.00,59.00,100.00,350.00,6.00,0.00,30.47,M,6.21,M,M,M,M,M,M,M,M,M,M,M,M,M,M,M,M,59.00,LFOV 122300Z AUTO 35006KT CAVOK 15/15 Q1032,M
LFOV,LFOV,2019-09-12 23:30,59.00,59.00,100.00,350.00,6.00,0.00,30.47,M,6.21,M,M,M,M,M,M,M,M,M,M,M,M,M,M,M,M,59.00,LFOV 122330Z AUTO 35006KT CAVOK 15/15 Q1032,M
LFPB,LFPB,2019-09-12 00:00,64.40,57.20,77.45,230.00,5.00,0.00,30.33,M,6.21,M,FEW,SCT,M,M,2600.00,7800.00,M,M,M,M,M,M,M,M,M,64.40,LFPB 120000Z AUTO 23005KT 9999 FEW026 SCT078 18/14 Q1027 NOSIG,M
LFPB,LFPB,2019-09-12 00:30,64.40,57.20,77.45,240.00,6.00,0.00,30.36,M,6.21,M,BKN,BKN,M,M,2100.00,2700.00,M,M,M,M,M,M,M,M,M,64.40,LFPB 120030Z AUTO 24006KT 9999 BKN021 BKN027 18/14 Q1028 NOSIG,M
LFPB,LFPB,2019-09-12 01:00,66.20,57.20,72.74,250.00,7.00,0.00,30.36,M,6.21,M,OVC,M,M,M,2300.00,M,M,M,M,M,M,M,M,M,M,66.20,LFPB 120100Z AUTO 25007KT 9999 OVC023 19/14 Q1028 NOSIG,M
LFPB,LFPB,2019-09-12 01:30,64.40,57.20,77.45,240.00,6.00,0.00,30.36,M,6.21,M,OVC,M,M,M,2300.00,M,M,M,M,M,M,M,M,M,M,64.40,LFPB 120130Z AUTO 24006KT 9999 OVC023 18/14 Q1028 NOSIG,M
LFPB,LFPB,2019-09-12 02:00,64.40,57.20,77.45,250.00,4.00,0.00,30.36,M,6.21,M,OVC,M,M,M,2200.00,M,M,M,M,M,M,M,M,M,M,64.40,LFPB 120200Z AUTO 25004KT 210V280 9999 OVC022 18/14 Q1028 NOSIG,M
LFPB,LFPB,2019-09-12 02:30,64.40,57.20,77.45,240.00,6.00,0.00,30.36,M,6.21,M,OVC,M,M,M,2200.00,M,M,M,M,M,M,M,M,M,M,64.40,LFPB 120230Z AUTO 24006KT 9999 OVC022 18/14 Q1028 NOSIG,M
LFPB,LFPB,2019-09-12 03:00,64.40,57.20,77.45,240.00,7.00,0.00,30.36,M,6.21,M,OVC,M,M,M,1900.00,M,M,M,M,M,M,M,M,M,M,64.40,LFPB 120300Z AUTO 24007KT 210V280 9999 OVC019 18/14 Q1028 NOSIG,M
LFPB,LFPB,2019-09-12 03:30,64.40,57.20,77.45,240.00,6.00,0.00,30.36,M,6.21,M,BKN,BKN,M,M,2000.00,2500.00,M,M,M,M,M,M,M,M,M,64.40,LFPB 120330Z AUTO 24006KT 9999 BKN020 BKN025 18/14 Q1028 NOSIG,M
LFPB,LFPB,2019-09-12 04:00,64.40,57.20,77.45,250.00,5.00,0.00,30.36,M,6.21,M,OVC,M,M,M,2300.00,M,M,M,M,M,M,M,M,M,M,64.40,LFPB 120400Z AUTO 25005KT 9999 OVC023 18/14 Q1028 NOSIG,M
LFPB,LFPB,2019-09-12 04:30,64.40,57.20,77.45,250.00,7.00,0.00,30.36,M,6.21,M,FEW,OVC,M,M,1600.00,4400.00,M,M,M,M,M,M,M,M,M,64.40,LFPB 120430Z AUTO 25007KT 220V280 9999 FEW016 OVC044 18/14 Q1028 TEMPO SCT005 BKN012,M
LFPB,LFPB,2019-09-12 05:00,64.40,57.20,77.45,240.00,6.00,0.00,30.39,M,6.21,M,BKN,OVC,M,M,1800.00,4700.00,M,M,M,M,M,M,M,M,M,64.40,LFPB 120500Z AUTO 24006KT 9999 BKN018 OVC047 18/14 Q1029 TEMPO SCT005 BKN012,M
LFPB,LFPB,2019-09-12 05:30,64.40,59.00,82.62,250.00,5.00,0.00,30.39,M,6.21,M,OVC,M,M,M,1600.00,M,M,M,M,M,M,M,M,M,M,64.40,LFPB 120530Z AUTO 25005KT 9999 OVC016 18/15 Q1029 BECMG BKN012,M
LFPB,LFPB,2019-09-12 06:00,64.40,59.00,82.62,240.00,5.00,0.00,30.39,M,6.21,M,BKN,OVC,M,M,1400.00,4300.00,M,M,M,M,M,M,M,M,M,64.40,LFPB 120600Z AUTO 24005KT 210V290 9999 BKN014 OVC043 18/15 Q1029 NOSIG,M
LFPB,LFPB,2019-09-12 06:30,64.40,59.00,82.62,240.00,6.00,0.00,30.39,M,6.21,M,BKN,OVC,M,M,1400.00,4000.00,M,M,M,M,M,M,M,M,M,64.40,LFPB 120630Z AUTO 24006KT 9999 BKN014 OVC040 18/15 Q1029 NOSIG,M
LFPB,LFPB,2019-09-12 07:00,64.40,59.00,82.62,260.00,6.00,0.00,30.42,M,6.21,M,OVC,M,M,M,1500.00,M,M,M,M,M,M,M,M,M,M,64.40,LFPB 120700Z AUTO 26006KT 230V290 9999 OVC015 18/15 Q1030 BECMG BKN012,M
LFPB,LFPB,2019-09-12 07:30,66.20,59.00,77.60,250.00,7.00,0.00,30.42,M,6.21,M,BKN,OVC,M,M,1500.00,4100.00,M,M,M,M,M,M,M,M,M,66.20,LFPB 120730Z AUTO 25007KT 220V280 9999 BKN015 OVC041 19/15 Q1030 BECMG BKN012,M
LFPB,LFPB,2019-09-12 08:00,66.20,59.00,77.60,270.00,8.00,0.00,30.42,M,6.21,M,OVC,M,M,M,1500.00,M,M,M,M,M,M,M,M,M,M,66.20,LFPB 120800Z AUTO 27008KT 240V300 9999 OVC015 19/15 Q1030 BECMG BKN012,M
LFPB,LFPB,2019-09-12 08:30,68.00,59.00,72.92,270.00,6.00,0.00,30.45,M,6.21,M,BKN,OVC,M,M,1700.00,3700.00,M,M,M,M,M,M,M,M,M,68.00,LFPB 120830Z AUTO 27006KT 230V320 9999 BKN017 OVC037 20/15 Q1031 BECMG BKN012,M
LFPB,LFPB,2019-09-12 09:00,68.00,59.00,72.92,250.00,5.00,0.00,30.45,M,6.21,M,SCT,SCT,BKN,M,1800.00,3700.00,4900.00,M,M,M,M,M,M,M,M,68.00,LFPB 120900Z AUTO 25005KT 220V300 9999 SCT018 SCT037 BKN049 20/15 Q1031 TEMPO BKN012,M
LFPB,LFPB,2019-09-12 09:30,69.80,59.00,68.55,280.00,7.00,0.00,30.45,M,6.21,M,BKN,BKN,OVC,M,2500.00,3000.00,5400.00,M,M,M,M,M,M,M,M,69.80,LFPB 120930Z AUTO 28007KT 250V320 9999 BKN025 BKN030 OVC054 21/15 Q1031 TEMPO BKN012,M
LFPB,LFPB,2019-09-12 10:00,69.80,59.00,68.55,280.00,7.00,0.00,30.45,M,6.21,M,BKN,OVC,M,M,2600.00,3200.00,M,M,M,M,M,M,M,M,M,69.80,LFPB 121000Z AUTO 28007KT 250V320 9999 BKN026 OVC032 21/15 Q1031 TEMPO BKN012,M
LFPB,LFPB,2019-09-12 10:30,71.60,59.00,64.48,270.00,7.00,0.00,30.45,M,6.21,M,BKN,BKN,M,M,2800.00,3400.00,M,M,M,M,M,M,M,M,M,71.60,LFPB 121030Z AUTO 27007KT 230V320 9999 BKN028 BKN034 22/15 Q1031 NOSIG,M
LFPB,LFPB,2019-09-12 11:00,71.60,59.00,64.48,270.00,8.00,0.00,30.45,M,6.21,M,FEW,BKN,OVC,M,2500.00,3100.00,4100.00,M,M,M,M,M,M,M,M,71.60,LFPB 121100Z AUTO 27008KT 240V310 9999 FEW025 BKN031 OVC041 22/15 Q1031 NOSIG,M
LFPB,LFPB,2019-09-12 11:30,71.60,59.00,64.48,280.00,6.00,0.00,30.45,M,6.21,M,BKN,OVC,M,M,2700.00,3200.00,M,M,M,M,M,M,M,M,M,71.60,LFPB 121130Z AUTO 28006KT 230V330 9999 BKN027 OVC032 22/15 Q1031 NOSIG,M
LFPB,LFPB,2019-09-12 12:00,71.60,59.00,64.48,M,4.00,0.00,30.45,M,6.21,M,OVC,M,M,M,2700.00,M,M,M,M,M,M,M,M,M,M,71.60,LFPB 121200Z AUTO VRB04KT 9999 OVC027 22/15 Q1031 NOSIG,M
LFPB,LFPB,2019-09-12 12:30,71.60,59.00,64.48,260.00,7.00,0.00,30.45,M,6.21,M,OVC,M,M,M,2800.00,M,M,M,M,M,M,M,M,M,M,71.60,LFPB 121230Z AUTO 26007KT 220V290 9999 OVC028 22/15 Q1031 NOSIG,M
LFPB,LFPB,2019-09-12 13:00,73.40,59.00,60.67,250.00,6.00,0.00,30.45,M,6.21,M,OVC,M,M,M,3100.00,M,M,M,M,M,M,M,M,M,M,73.40,LFPB 121300Z AUTO 25006KT 210V300 9999 OVC031 23/15 Q1031 NOSIG,M
LFPB,LFPB,2019-09-12 13:30,73.40,59.00,60.67,270.00,5.00,0.00,30.45,M,6.21,M,OVC,M,M,M,3400.00,M,M,M,M,M,M,M,M,M,M,73.40,LFPB 121330Z AUTO 27005KT 220V330 9999 OVC034 23/15 Q1031 NOSIG,M
LFPB,LFPB,2019-09-12 14:00,73.40,59.00,60.67,260.00,5.00,0.00,30.45,M,6.21,M,BKN,OVC,M,M,3400.00,4000.00,M,M,M,M,M,M,M,M,M,73.40,LFPB 121400Z AUTO 26005KT 180V350 9999 BKN034 OVC040 23/15 Q1031 NOSIG,M
LFPB,LFPB,2019-09-12 14:30,73.40,59.00,60.67,300.00,5.00,0.00,30.45,M,6.21,M,BKN,OVC,M,M,3700.00,4300.00,M,M,M,M,M,M,M,M,M,73.40,LFPB 121430Z AUTO 30005KT 260V010 9999 BKN037 OVC043 23/15 Q1031 NOSIG,M
LFPB,LFPB,2019-09-12 15:00,73.40,59.00,60.67,310.00,3.00,0.00,30.45,M,6.21,M,BKN,OVC,M,M,3500.00,4100.00,M,M,M,M,M,M,M,M,M,73.40,LFPB 121500Z AUTO 31003KT 260V350 9999 BKN035 OVC041 23/15 Q1031 NOSIG,M
LFPB,LFPB,2019-09-12 15:30,73.40,59.00,60.67,M,3.00,0.00,30.45,M,6.21,M,BKN,BKN,OVC,M,3500.00,4200.00,4800.00,M,M,M,M,M,M,M,M,73.40,LFPB 121530Z AUTO VRB03KT 9999 BKN035 BKN042 OVC048 23/15 Q1031 NOSIG,M
LFPB,LFPB,2019-09-12 16:00,73.40,59.00,60.67,M,2.00,0.00,30.42,M,6.21,M,OVC,M,M,M,4500.00,M,M,M,M,M,M,M,M,M,M,73.40,LFPB 121600Z AUTO VRB02KT 9999 OVC045 23/15 Q1030 NOSIG,M
LFPB,LFPB,2019-09-12 16:30,73.40,59.00,60.67,M,2.00,0.00,30.45,M,6.21,M,FEW,OVC,M,M,4000.00,4800.00,M,M,M,M,M,M,M,M,M,73.40,LFPB 121630Z AUTO VRB02KT 9999 FEW040 OVC048 23/15 Q1031 NOSIG,M
LFPB,LFPB,2019-09-12 17:00,73.40,59.00,60.67,0.00,0.00,0.00,30.45,M,6.21,M,FEW,OVC,M,M,3700.00,4700.00,M,M,M,M,M,M,M,M,M,73.40,LFPB 121700Z AUTO 00000KT 9999 FEW037 OVC047 23/15 Q1031 BECMG 27010KT,M
LFPB,LFPB,2019-09-12 17:30,73.40,60.80,64.69,40.00,3.00,0.00,30.45,M,6.21,M,BKN,OVC,M,M,3700.00,4800.00,M,M,M,M,M,M,M,M,M,73.40,LFPB 121730Z AUTO 04003KT 9999 BKN037 OVC048 23/16 Q1031 NOSIG,M
LFPB,LFPB,2019-09-12 18:00,73.40,59.00,60.67,20.00,2.00,0.00,30.45,M,6.21,M,BKN,OVC,M,M,3600.00,4700.00,M,M,M,M,M,M,M,M,M,73.40,LFPB 121800Z AUTO 02002KT 9999 BKN036 OVC047 23/15 Q1031 NOSIG,M
LFPB,LFPB,2019-09-12 18:30,71.60,60.80,68.75,310.00,4.00,0.00,30.45,M,6.21,M,FEW,OVC,M,M,3600.00,4800.00,M,M,M,M,M,M,M,M,M,71.60,LFPB 121830Z AUTO 31004KT 260V350 9999 FEW036 OVC048 22/16 Q1031 NOSIG,M
LFPB,LFPB,2019-09-12 19:00,71.60,60.80,68.75,330.00,5.00,0.00,30.45,M,6.21,M,BKN,OVC,M,M,3300.00,4900.00,M,M,M,M,M,M,M,M,M,71.60,LFPB 121900Z AUTO 33005KT 9999 BKN033 OVC049 22/16 Q1031 NOSIG,M
LFPB,LFPB,2019-09-12 19:30,71.60,60.80,68.75,330.00,5.00,0.00,30.45,M,6.21,M,BKN,OVC,M,M,3400.00,4900.00,M,M,M,M,M,M,M,M,M,71.60,LFPB 121930Z AUTO 33005KT 9999 BKN034 OVC049 22/16 Q1031 NOSIG,M
LFPB,LFPB,2019-09-12 20:00,69.80,60.80,73.09,320.00,6.00,0.00,30.47,M,6.21,M,BKN,OVC,M,M,3300.00,4800.00,M,M,M,M,M,M,M,M,M,69.80,LFPB 122000Z AUTO 32006KT 280V350 9999 BKN033 OVC048 21/16 Q1032 NOSIG,M
LFPB,LFPB,2019-09-12 20:30,68.00,60.80,77.75,320.00,6.00,0.00,30.47,M,6.21,M,BKN,OVC,M,M,3400.00,4400.00,M,M,M,M,M,M,M,M,M,68.00,LFPB 122030Z AUTO 32006KT 290V350 9999 BKN034 OVC044 20/16 Q1032 NOSIG,M
LFPB,LFPB,2019-09-12 21:00,68.00,60.80,77.75,310.00,5.00,0.00,30.47,M,6.21,M,BKN,OVC,M,M,3500.00,4300.00,M,M,M,M,M,M,M,M,M,68.00,LFPB 122100Z AUTO 31005KT 270V350 9999 BKN035 OVC043 20/16 Q1032 NOSIG,M
LFPB,LFPB,2019-09-12 21:30,68.00,60.80,77.75,320.00,5.00,0.00,30.47,M,6.21,M,FEW,OVC,M,M,3500.00,4200.00,M,M,M,M,M,M,M,M,M,68.00,LFPB 122130Z AUTO 32005KT 280V350 9999 FEW035 OVC042 20/16 Q1032 NOSIG,M
LFPB,LFPB,2019-09-12 22:00,66.20,60.80,82.74,300.00,3.00,0.00,30.47,M,6.21,M,OVC,M,M,M,4100.00,M,M,M,M,M,M,M,M,M,M,66.20,LFPB 122200Z AUTO 30003KT 270V330 9999 OVC041 19/16 Q1032 NOSIG,M
LFPB,LFPB,2019-09-12 22:30,66.20,59.00,77.60,M,2.00,0.00,30.47,M,6.21,M,OVC,M,M,M,4000.00,M,M,M,M,M,M,M,M,M,M,66.20,LFPB 122230Z AUTO VRB02KT 9999 OVC040 19/15 Q1032 NOSIG,M
LFPB,LFPB,2019-09-12 23:00,66.20,59.00,77.60,M,2.00,0.00,30.47,M,6.21,M,FEW,M,M,M,4000.00,M,M,M,M,M,M,M,M,M,M,66.20,LFPB 122300Z AUTO VRB02KT 9999 FEW040 19/15 Q1032 NOSIG,M
LFPB,LFPB,2019-09-12 23:30,64.40,59.00,82.62,M,3.00,0.00,30.47,M,6.21,M,FEW,M,M,M,200.00,M,M,M,M,M,M,M,M,M,M,64.40,LFPB 122330Z AUTO VRB03KT 9999 FEW002 18/15 Q1032 NOSIG,M
LFPG,LFPG,2019-09-12 00:00,66.20,57.20,72.74,220.00,8.00,0.00,30.36,M,6.21,M,BKN,M,M,M,2200.00,M,M,M,M,M,M,M,M,M,M,66.20,LFPG 120000Z 22008KT 9999 BKN022 19/14 Q1028 NOSIG,M
LFPG,LFPG,2019-09-12 00:30,66.20,57.20,72.74,220.00,7.00,0.00,30.36,M,6.21,M,BKN,M,M,M,2000.00,M,M,M,M,M,M,M,M,M,M,66.20,LFPG 120030Z 22007KT 9999 BKN020 19/14 Q1028 NOSIG,M
LFPG,LFPG,2019-09-12 01:00,66.20,57.20,72.74,240.00,8.00,0.00,30.36,M,6.21,M,BKN,M,M,M,2000.00,M,M,M,M,M,M,M,M,M,M,66.20,LFPG 120100Z 24008KT 9999 BKN020 19/14 Q1028 NOSIG,M
LFPG,LFPG,2019-09-12 01:30,64.40,57.20,77.45,230.00,8.00,0.00,30.36,M,6.21,M,BKN,M,M,M,1800.00,M,M,M,M,M,M,M,M,M,M,64.40,LFPG 120130Z 23008KT 9999 BKN018 18/14 Q1028 NOSIG,M
LFPG,LFPG,2019-09-12 02:00,64.40,57.20,77.45,240.00,7.00,0.00,30.36,M,6.21,M,BKN,M,M,M,1700.00,M,M,M,M,M,M,M,M,M,M,64.40,LFPG 120200Z 24007KT 9999 BKN017 18/14 Q1028 NOSIG,M
LFPG,LFPG,2019-09-12 02:30,64.40,57.20,77.45,220.00,9.00,0.00,30.36,M,6.21,M,BKN,M,M,M,1700.00,M,M,M,M,M,M,M,M,M,M,64.40,LFPG 120230Z 22009KT 9999 BKN017 18/14 Q1028 NOSIG,M
LFPG,LFPG,2019-09-12 03:00,64.40,57.20,77.45,220.00,8.00,0.00,30.36,M,6.21,M,BKN,M,M,M,1500.00,M,M,M,M,M,M,M,M,M,M,64.40,LFPG 120300Z 22008KT 9999 BKN015 18/14 Q1028 NOSIG,M
LFPG,LFPG,2019-09-12 03:30,64.40,57.20,77.45,220.00,9.00,0.00,30.36,M,6.21,M,BKN,M,M,M,1500.00,M,M,M,M,M,M,M,M,M,M,64.40,LFPG 120330Z 22009KT 9999 BKN015 18/14 Q1028 NOSIG,M
LFPG,LFPG,2019-09-12 04:00,64.40,57.20,77.45,220.00,8.00,0.00,30.36,M,6.21,M,BKN,M,M,M,1800.00,M,M,M,M,M,M,M,M,M,M,64.40,LFPG 120400Z 22008KT 9999 BKN018 18/14 Q1028 NOSIG,M
LFPG,LFPG,2019-09-12 04:30,64.40,57.20,77.45,230.00,8.00,0.00,30.36,M,6.21,M,BKN,BKN,M,M,1700.00,4000.00,M,M,M,M,M,M,M,M,M,64.40,LFPG 120430Z 23008KT 9999 BKN017 BKN040 18/14 Q1028 NOSIG,M
LFPG,LFPG,2019-09-12 05:00,64.40,57.20,77.45,230.00,8.00,0.00,30.39,M,6.21,M,BKN,BKN,M,M,1400.00,4000.00,M,M,M,M,M,M,M,M,M,64.40,LFPG 120500Z 23008KT 9999 BKN014 BKN040 18/14 Q1029 NOSIG,M
LFPG,LFPG,2019-09-12 05:30,64.40,57.20,77.45,220.00,8.00,0.00,30.39,M,6.21,M,BKN,BKN,M,M,1300.00,4000.00,M,M,M,M,M,M,M,M,M,64.40,LFPG 120530Z 22008KT 9999 BKN013 BKN040 18/14 Q1029 NOSIG,M
LFPG,LFPG,2019-09-12 06:00,64.40,57.20,77.45,220.00,9.00,0.00,30.39,M,6.21,M,BKN,BKN,M,M,1200.00,4000.00,M,M,M,M,M,M,M,M,M,64.40,LFPG 120600Z 22009KT 190V250 9999 BKN012 BKN040 18/14 Q1029 NOSIG,M
LFPG,LFPG,2019-09-12 06:30,64.40,59.00,82.62,230.00,8.00,0.00,30.39,M,6.21,M,BKN,BKN,M,M,1200.00,3700.00,M,M,M,M,M,M,M,M,M,64.40,LFPG 120630Z 23008KT 9999 BKN012 BKN037 18/15 Q1029 NOSIG,M
LFPG,LFPG,2019-09-12 07:00,64.40,59.00,82.62,240.00,9.00,0.00,30.42,M,6.21,M,BKN,BKN,M,M,1200.00,3700.00,M,M,M,M,M,M,M,M,M,64.40,LFPG 120700Z 24009KT 9999 BKN012 BKN037 18/15 Q1030 NOSIG,M
LFPG,LFPG,2019-09-12 07:30,64.40,59.00,82.62,240.00,9.00,0.00,30.42,M,6.21,M,BKN,BKN,M,M,1200.00,3700.00,M,M,M,M,M,M,M,M,M,64.40,LFPG 120730Z 24009KT 9999 BKN012 BKN037 18/15 Q1030 NOSIG,M
LFPG,LFPG,2019-09-12 08:00,66.20,59.00,77.60,240.00,8.00,0.00,30.42,M,6.21,M,BKN,BKN,M,M,1200.00,3700.00,M,M,M,M,M,M,M,M,M,66.20,LFPG 120800Z 24008KT 9999 BKN012 BKN037 19/15 Q1030 NOSIG,M
LFPG,LFPG,2019-09-12 08:30,66.20,59.00,77.60,250.00,9.00,0.00,30.45,M,6.21,M,BKN,BKN,M,M,1400.00,3700.00,M,M,M,M,M,M,M,M,M,66.20,LFPG 120830Z 25009KT 210V270 9999 BKN014 BKN037 19/15 Q1031 NOSIG,M
LFPG,LFPG,2019-09-12 09:00,68.00,59.00,72.92,260.00,6.00,0.00,30.45,M,6.21,M,BKN,BKN,M,M,1600.00,3700.00,M,M,M,M,M,M,M,M,M,68.00,LFPG 120900Z 26006KT 230V320 9999 BKN016 BKN037 20/15 Q1031 NOSIG,M
LFPG,LFPG,2019-09-12 09:30,69.80,60.80,73.09,260.00,9.00,0.00,30.45,M,6.21,M,BKN,M,M,M,2100.00,M,M,M,M,M,M,M,M,M,M,69.80,LFPG 120930Z 26009KT 220V290 9999 BKN021 21/16 Q1031 NOSIG,M
LFPG,LFPG,2019-09-12 10:00,69.80,59.00,68.55,260.00,9.00,0.00,30.45,M,6.21,M,BKN,M,M,M,2100.00,M,M,M,M,M,M,M,M,M,M,69.80,LFPG 121000Z 26009KT 210V280 9999 BKN021 21/15 Q1031 NOSIG,M
LFPG,LFPG,2019-09-12 10:30,71.60,59.00,64.48,260.00,9.00,0.00,30.45,M,6.21,M,FEW,BKN,M,M,2100.00,2500.00,M,M,M,M,M,M,M,M,M,71.60,LFPG 121030Z 26009KT 230V290 9999 FEW021 BKN025 22/15 Q1031 NOSIG,M
LFPG,LFPG,2019-09-12 11:00,71.60,59.00,64.48,250.00,9.00,0.00,30.45,M,6.21,M,FEW,BKN,M,M,2200.00,2500.00,M,M,M,M,M,M,M,M,M,71.60,LFPG 121100Z 25009KT 9999 FEW022 BKN025 22/15 Q1031 NOSIG,M
LFPG,LFPG,2019-09-12 11:30,69.80,59.00,68.55,240.00,8.00,0.00,30.45,M,6.21,M,FEW,BKN,M,M,2200.00,2500.00,M,M,M,M,M,M,M,M,M,69.80,LFPG 121130Z 24008KT 210V270 9999 FEW022 BKN025 21/15 Q1031 NOSIG,M
LFPG,LFPG,2019-09-12 12:00,71.60,59.00,64.48,270.00,7.00,0.00,30.45,M,6.21,M,FEW,BKN,M,M,2300.00,2600.00,M,M,M,M,M,M,M,M,M,71.60,LFPG 121200Z 27007KT 240V310 9999 FEW023 BKN026 22/15 Q1031 NOSIG,M
LFPG,LFPG,2019-09-12 12:30,71.60,59.00,64.48,280.00,7.00,0.00,30.45,M,6.21,M,BKN,M,M,M,2500.00,M,M,M,M,M,M,M,M,M,M,71.60,LFPG 121230Z 28007KT 9999 BKN025 22/15 Q1031 NOSIG,M
LFPG,LFPG,2019-09-12 13:00,71.60,59.00,64.48,240.00,6.00,0.00,30.45,M,6.21,M,BKN,M,M,M,2500.00,M,M,M,M,M,M,M,M,M,M,71.60,LFPG 121300Z 24006KT 190V290 9999 BKN025 22/15 Q1031 NOSIG,M
LFPG,LFPG,2019-09-12 13:30,71.60,59.00,64.48,240.00,6.00,0.00,30.45,M,6.21,M,BKN,M,M,M,2800.00,M,M,M,M,M,M,M,M,M,M,71.60,LFPG 121330Z 24006KT 9999 BKN028 22/15 Q1031 NOSIG,M
LFPG,LFPG,2019-09-12 14:00,73.40,59.00,60.67,290.00,6.00,0.00,30.45,M,6.21,M,SCT,BKN,M,M,2800.00,3400.00,M,M,M,M,M,M,M,M,M,73.40,LFPG 121400Z 29006KT 250V330 9999 SCT028 BKN034 23/15 Q1031 NOSIG,M
LFPG,LFPG,2019-09-12 14:30,71.60,59.00,64.48,310.00,5.00,0.00,30.45,M,6.21,M,FEW,BKN,M,M,2800.00,3400.00,M,M,M,M,M,M,M,M,M,71.60,LFPG 121430Z 31005KT 250V340 9999 FEW028 BKN034 22/15 Q1031 NOSIG,M
LFPG,LFPG,2019-09-12 15:00,73.40,60.80,64.69,310.00,5.00,0.00,30.45,M,6.21,M,FEW,BKN,M,M,2800.00,3400.00,M,M,M,M,M,M,M,M,M,73.40,LFPG 121500Z 31005KT 260V350 9999 FEW028 BKN034 23/16 Q1031 NOSIG,M
LFPG,LFPG,2019-09-12 15:30,71.60,59.00,64.48,330.00,4.00,0.00,30.45,M,6.21,M,FEW,BKN,M,M,2800.00,3200.00,M,M,M,M,M,M,M,M,M,71.60,LFPG 121530Z 33004KT 270V010 9999 FEW028 BKN032 22/15 Q1031 NOSIG,M
LFPG,LFPG,2019-09-12 16:00,73.40,59.00,60.67,M,2.00,0.00,30.45,M,6.21,M,FEW,BKN,M,M,3200.00,4100.00,M,M,M,M,M,M,M,M,M,73.40,LFPG 121600Z VRB02KT 9999 FEW032 BKN041 23/15 Q1031 NOSIG,M
LFPG,LFPG,2019-09-12 16:30,71.60,59.00,64.48,M,2.00,0.00,30.45,M,6.21,M,FEW,BKN,M,M,3200.00,4100.00,M,M,M,M,M,M,M,M,M,71.60,LFPG 121630Z VRB02KT 9999 FEW032 BKN041 22/15 Q1031 NOSIG,M
LFPG,LFPG,2019-09-12 17:00,73.40,59.00,60.67,0.00,0.00,0.00,30.45,M,6.21,M,FEW,BKN,M,M,3900.00,4800.00,M,M,M,M,M,M,M,M,M,73.40,LFPG 121700Z 00000KT 9999 FEW039 BKN048 23/15 Q1031 NOSIG,M
LFPG,LFPG,2019-09-12 17:30,71.60,59.00,64.48,290.00,2.00,0.00,30.45,M,6.21,M,FEW,BKN,M,M,4000.00,4600.00,M,M,M,M,M,M,M,M,M,71.60,LFPG 121730Z 29002KT 9999 FEW040 BKN046 22/15 Q1031 NOSIG,M
LFPG,LFPG,2019-09-12 18:00,71.60,59.00,64.48,290.00,1.00,0.00,30.45,M,6.21,M,FEW,BKN,M,M,4000.00,4200.00,M,M,M,M,M,M,M,M,M,71.60,LFPG 121800Z 29001KT 9999 FEW040 BKN042 22/15 Q1031 NOSIG,M
LFPG,LFPG,2019-09-12 18:30,71.60,59.00,64.48,300.00,2.00,0.00,30.45,M,6.21,M,FEW,BKN,M,M,3200.00,4400.00,M,M,M,M,M,M,M,M,M,71.60,LFPG 121830Z 30002KT 9999 FEW032 BKN044 22/15 Q1031 NOSIG,M
LFPG,LFPG,2019-09-12 19:00,71.60,59.00,64.48,300.00,5.00,0.00,30.45,M,6.21,M,BKN,M,M,M,3000.00,M,M,M,M,M,M,M,M,M,M,71.60,LFPG 121900Z 30005KT 9999 BKN030 22/15 Q1031 NOSIG,M
LFPG,LFPG,2019-09-12 19:30,69.80,60.80,73.09,310.00,6.00,0.00,30.47,M,6.21,M,SCT,BKN,M,M,2900.00,4600.00,M,M,M,M,M,M,M,M,M,69.80,LFPG 121930Z 31006KT 9999 SCT029 BKN046 21/16 Q1032 NOSIG,M
LFPG,LFPG,2019-09-12 20:00,68.00,60.80,77.75,300.00,8.00,0.00,30.47,M,6.21,M,BKN,M,M,M,2900.00,M,M,M,M,M,M,M,M,M,M,68.00,LFPG 122000Z 30008KT 9999 BKN029 20/16 Q1032 NOSIG,M
LFPG,LFPG,2019-09-12 20:30,68.00,60.80,77.75,310.00,8.00,0.00,30.47,M,6.21,M,BKN,BKN,M,M,3000.00,4300.00,M,M,M,M,M,M,M,M,M,68.00,LFPG 122030Z 31008KT 9999 BKN030 BKN043 20/16 Q1032 NOSIG,M
LFPG,LFPG,2019-09-12 21:00,66.20,60.80,82.74,310.00,8.00,0.00,30.47,M,6.21,M,BKN,BKN,M,M,3000.00,4300.00,M,M,M,M,M,M,M,M,M,66.20,LFPG 122100Z 31008KT 9999 BKN030 BKN043 19/16 Q1032 NOSIG,M
LFPG,LFPG,2019-09-12 21:30,66.20,60.80,82.74,310.00,6.00,0.00,30.47,M,6.21,M,FEW,SCT,BKN,M,1300.00,3300.00,4000.00,M,M,M,M,M,M,M,M,66.20,LFPG 122130Z 31006KT 9999 FEW013 SCT033 BKN040 19/16 Q1032 NOSIG,M
LFPG,LFPG,2019-09-12 22:00,66.20,60.80,82.74,290.00,4.00,0.00,30.47,M,6.21,M,FEW,SCT,BKN,M,1300.00,3300.00,4000.00,M,M,M,M,M,M,M,M,66.20,LFPG 122200Z 29004KT 9999 FEW013 SCT033 BKN040 19/16 Q1032 NOSIG,M
LFPG,LFPG,2019-09-12 22:30,66.20,59.00,77.60,280.00,2.00,0.00,30.47,M,6.21,M,BKN,M,M,M,3600.00,M,M,M,M,M,M,M,M,M,M,66.20,LFPG 122230Z 28002KT 9999 BKN036 19/15 Q1032 NOSIG,M
LFPG,LFPG,2019-09-12 23:00,64.40,59.00,82.62,280.00,2.00,0.00,30.47,M,6.21,M,SCT,M,M,M,3600.00,M,M,M,M,M,M,M,M,M,M,64.40,LFPG 122300Z 28002KT 9999 SCT036 18/15 Q1032 NOSIG,M
LFPG,LFPG,2019-09-12 23:30,64.40,59.00,82.62,280.00,4.00,0.00,30.47,M,6.21,M,FEW,M,M,M,3600.00,M,M,M,M,M,M,M,M,M,M,64.40,LFPG 122330Z 28004KT 9999 FEW036 18/15 Q1032 NOSIG,M
LFPM,LFPM,2019-09-12 00:00,55.40,48.20,76.66,220.00,4.00,0.00,30.36,M,6.21,M,FEW,M,M,M,4300.00,M,M,M,M,M,M,M,M,M,M,55.40,LFPM 120000Z AUTO 22004KT 9999 FEW043 13/09 Q1028,M
LFPM,LFPM,2019-09-12 00:30,57.20,50.00,76.82,190.00,3.00,0.00,30.36,M,6.21,M,OVC,M,M,M,4200.00,M,M,M,M,M,M,M,M,M,M,57.20,LFPM 120030Z AUTO 19003KT 9999 OVC042 14/10 Q1028,M
LFPM,LFPM,2019-09-12 01:00,59.00,50.00,72.01,190.00,2.00,0.00,30.36,M,6.21,M,OVC,M,M,M,4200.00,M,M,M,M,M,M,M,M,M,M,59.00,LFPM 120100Z AUTO 19002KT 9999 OVC042 15/10 Q1028,M
LFPM,LFPM,2019-09-12 01:30,57.20,50.00,76.82,0.00,0.00,0.00,30.36,M,6.21,M,OVC,M,M,M,4200.00,M,M,M,M,M,M,M,M,M,M,57.20,LFPM 120130Z AUTO 00000KT 9999 OVC042 14/10 Q1028,M
LFPM,LFPM,2019-09-12 02:00,55.40,50.00,81.99,230.00,3.00,0.00,30.36,M,6.21,M,FEW,SCT,M,M,2400.00,4200.00,M,M,M,M,M,M,M,M,M,55.40,LFPM 120200Z AUTO 23003KT 9999 FEW024 SCT042 13/10 Q1028,M
LFPM,LFPM,2019-09-12 02:30,55.40,50.00,81.99,200.00,4.00,0.00,30.36,M,6.21,M,SCT,BKN,M,M,2400.00,4400.00,M,M,M,M,M,M,M,M,M,55.40,LFPM 120230Z AUTO 20004KT 9999 SCT024 BKN044 13/10 Q1028,M
LFPM,LFPM,2019-09-12 03:00,55.40,50.00,81.99,200.00,4.00,0.00,30.36,M,6.21,M,FEW,M,M,M,2300.00,M,M,M,M,M,M,M,M,M,M,55.40,LFPM 120300Z AUTO 20004KT 9999 FEW023 13/10 Q1028,M
LFPM,LFPM,2019-09-12 03:30,53.60,50.00,87.56,210.00,4.00,0.00,30.36,M,6.21,M,M,M,M,M,M,M,M,M,M,M,M,M,M,M,M,53.60,LFPM 120330Z AUTO 21004KT CAVOK 12/10 Q1028,M
LFPM,LFPM,2019-09-12 04:00,53.60,50.00,87.56,200.00,3.00,0.00,30.36,M,6.21,M,M,M,M,M,M,M,M,M,M,M,M,M,M,M,M,53.60,LFPM 120400Z AUTO 20003KT CAVOK 12/10 Q1028,M
LFPM,LFPM,2019-09-12 04:30,53.60,50.00,87.56,210.00,4.00,0.00,30.39,M,6.21,M,BKN,M,M,M,3400.00,M,M,M,M,M,M,M,M,M,M,53.60,LFPM 120430Z AUTO 21004KT 9999 BKN034 12/10 Q1029,M
LFPM,LFPM,2019-09-12 05:00,53.60,50.00,87.56,190.00,3.00,0.00,30.39,M,6.21,M,BKN,M,M,M,3400.00,M,M,M,M,M,M,M,M,M,M,53.60,LFPM 120500Z AUTO 19003KT 9999 BKN034 12/10 Q1029,M
LFPM,LFPM,2019-09-12 05:30,53.60,50.00,87.56,190.00,3.00,0.00,30.39,M,6.21,M,FEW,SCT,M,M,3300.00,4900.00,M,M,M,M,M,M,M,M,M,53.60,LFPM 120530Z AUTO 19003KT 9999 FEW033 SCT049 12/10 Q1029,M
LFPM,LFPM,2019-09-12 06:00,55.40,51.80,87.65,170.00,3.00,0.00,30.42,M,6.21,M,BKN,OVC,M,M,4300.00,4900.00,M,M,M,M,M,M,M,M,M,55.40,LFPM 120600Z AUTO 17003KT 9999 BKN043 OVC049 13/11 Q1030,M
LFPM,LFPM,2019-09-12 06:30,57.20,53.60,87.74,210.00,4.00,0.00,30.42,M,6.21,M,OVC,M,M,M,4500.00,M,M,M,M,M,M,M,M,M,M,57.20,LFPM 120630Z AUTO 21004KT 9999 OVC045 14/12 Q1030,M
LFPM,LFPM,2019-09-12 07:00,60.80,55.40,82.37,200.00,5.00,0.00,30.42,M,6.21,M,OVC,M,M,M,4400.00,M,M,M,M,M,M,M,M,M,M,60.80,LFPM 120700Z AUTO 20005KT 9999 OVC044 16/13 Q1030,M
LFPM,LFPM,2019-09-12 07:30,62.60,57.20,82.50,220.00,6.00,0.00,30.42,M,6.21,M,BKN,OVC,M,M,3900.00,5800.00,M,M,M,M,M,M,M,M,M,62.60,LFPM 120730Z AUTO 22006KT 9999 BKN039 OVC058 17/14 Q1030,M
LFPM,LFPM,2019-09-12 08:00,64.40,57.20,77.45,240.00,5.00,0.00,30.45,M,6.21,M,OVC,M,M,M,4200.00,M,M,M,M,M,M,M,M,M,M,64.40,LFPM 120800Z AUTO 24005KT 9999 OVC042 18/14 Q1031,M
LFPM,LFPM,2019-09-12 08:30,66.20,57.20,72.74,240.00,5.00,0.00,30.45,M,6.21,M,OVC,M,M,M,4300.00,M,M,M,M,M,M,M,M,M,M,66.20,LFPM 120830Z AUTO 24005KT 9999 OVC043 19/14 Q1031,M
LFPM,LFPM,2019-09-12 09:00,68.00,59.00,72.92,230.00,5.00,0.00,30.45,M,6.21,M,OVC,M,M,M,4400.00,M,M,M,M,M,M,M,M,M,M,68.00,LFPM 120900Z AUTO 23005KT 200V280 9999 OVC044 20/15 Q1031,M
LFPM,LFPM,2019-09-12 09:30,68.00,59.00,72.92,260.00,5.00,0.00,30.45,M,6.21,M,OVC,M,M,M,4300.00,M,M,M,M,M,M,M,M,M,M,68.00,LFPM 120930Z AUTO 26005KT 220V290 9999 OVC043 20/15 Q1031,M
LFPM,LFPM,2019-09-12 10:00,69.80,60.80,73.09,290.00,5.00,0.00,30.45,M,6.21,M,OVC,M,M,M,4300.00,M,M,M,M,M,M,M,M,M,M,69.80,LFPM 121000Z AUTO 29005KT 250V330 9999 OVC043 21/16 Q1031,M
LFPM,LFPM,2019-09-12 10:30,71.60,59.00,64.48,240.00,4.00,0.00,30.45,M,6.21,M,FEW,OVC,M,M,2300.00,4100.00,M,M,M,M,M,M,M,M,M,71.60,LFPM 121030Z AUTO 24004KT 200V290 9999 FEW023 OVC041 22/15 Q1031,M
LFPM,LFPM,2019-09-12 11:00,73.40,59.00,60.67,M,4.00,0.00,30.45,M,6.21,M,FEW,BKN,OVC,M,2700.00,4100.00,4700.00,M,M,M,M,M,M,M,M,73.40,LFPM 121100Z AUTO VRB04KT 9999 FEW027 BKN041 OVC047 23/15 Q1031,M
LFPM,LFPM,2019-09-12 11:30,73.40,59.00,60.67,M,3.00,0.00,30.45,M,6.21,M,BKN,OVC,M,M,2900.00,4500.00,M,M,M,M,M,M,M,M,M,73.40,LFPM 121130Z AUTO VRB03KT 9999 BKN029 OVC045 23/15 Q1031,M
LFPM,LFPM,2019-09-12 12:00,73.40,59.00,60.67,M,4.00,0.00,30.45,M,6.21,M,OVC,M,M,M,2900.00,M,M,M,M,M,M,M,M,M,M,73.40,LFPM 121200Z AUTO VRB04KT 9999 OVC029 23/15 Q1031,M
LFPM,LFPM,2019-09-12 12:30,75.20,60.80,60.90,M,4.00,0.00,30.45,M,6.21,M,OVC,M,M,M,3100.00,M,M,M,M,M,M,M,M,M,M,75.20,LFPM 121230Z AUTO VRB04KT 9999 OVC031 24/16 Q1031,M
LFPM,LFPM,2019-09-12 13:00,75.20,60.80,60.90,M,3.00,0.00,30.45,M,6.21,M,BKN,OVC,M,M,3600.00,4800.00,M,M,M,M,M,M,M,M,M,75.20,LFPM 121300Z AUTO VRB03KT 9999 BKN036 OVC048 24/16 Q1031,M
LFPM,LFPM,2019-09-12 13:30,75.20,60.80,60.90,270.00,5.00,0.00,30.45,M,6.21,M,BKN,OVC,M,M,3800.00,4500.00,M,M,M,M,M,M,M,M,M,75.20,LFPM 121330Z AUTO 27005KT 250V320 9999 BKN038 OVC045 24/16 Q1031,M
LFPM,LFPM,2019-09-12 14:00,75.20,59.00,57.12,260.00,6.00,0.00,30.45,M,6.21,M,OVC,M,M,M,4500.00,M,M,M,M,M,M,M,M,M,M,75.20,LFPM 121400Z AUTO 26006KT 230V290 9999 OVC045 24/15 Q1031,M
LFPM,LFPM,2019-09-12 14:30,75.20,59.00,57.12,230.00,5.00,0.00,30.45,M,6.21,M,OVC,M,M,M,4300.00,M,M,M,M,M,M,M,M,M,M,75.20,LFPM 121430Z AUTO 23005KT 190V260 9999 OVC043 24/15 Q1031,M
LFPM,LFPM,2019-09-12 15:00,75.20,59.00,57.12,270.00,5.00,0.00,30.45,M,6.21,M,OVC,M,M,M,4300.00,M,M,M,M,M,M,M,M,M,M,75.20,LFPM 121500Z AUTO 27005KT 220V310 9999 OVC043 24/15 Q1031,M
LFPM,LFPM,2019-09-12 15:30,75.20,59.00,57.12,280.00,5.00,0.00,30.42,M,6.21,M,OVC,M,M,M,4200.00,M,M,M,M,M,M,M,M,M,M,75.20,LFPM 121530Z AUTO 28005KT 9999 OVC042 24/15 Q1030,M
LFPM,LFPM,2019-09-12 16:00,75.20,59.00,57.12,0.00,0.00,0.00,30.42,M,6.21,M,OVC,M,M,M,4200.00,M,M,M,M,M,M,M,M,M,M,75.20,LFPM 121600Z AUTO 00000KT 9999 OVC042 24/15 Q1030,M
LFPM,LFPM,2019-09-12 16:30,75.20,59.00,57.12,300.00,4.00,0.00,30.45,M,6.21,M,OVC,M,M,M,4300.00,M,M,M,M,M,M,M,M,M,M,75.20,LFPM 121630Z AUTO 30004KT 260V330 9999 OVC043 24/15 Q1031,M
LFPM,LFPM,2019-09-12 17:00,75.20,60.80,60.90,M,2.00,0.00,30.45,M,6.21,M,OVC,M,M,M,4300.00,M,M,M,M,M,M,M,M,M,M,75.20,LFPM 121700Z AUTO VRB02KT 9999 OVC043 24/16 Q1031,M
LFPM,LFPM,2019-09-12 17:30,73.40,60.80,64.69,M,3.00,0.00,30.45,M,6.21,M,OVC,M,M,M,4300.00,M,M,M,M,M,M,M,M,M,M,73.40,LFPM 121730Z AUTO VRB03KT 9999 OVC043 23/16 Q1031,M
LFPM,LFPM,2019-09-12 18:00,73.40,60.80,64.69,M,2.00,0.00,30.45,M,6.21,M,OVC,M,M,M,4300.00,M,M,M,M,M,M,M,M,M,M,73.40,LFPM 121800Z AUTO VRB02KT 9999 OVC043 23/16 Q1031,M
LFPM,LFPM,2019-09-12 18:30,71.60,59.00,64.48,50.00,3.00,0.00,30.45,M,6.21,M,OVC,M,M,M,4300.00,M,M,M,M,M,M,M,M,M,M,71.60,LFPM 121830Z AUTO 05003KT 020V090 9999 OVC043 22/15 Q1031,M
LFPM,LFPM,2019-09-12 19:00,71.60,59.00,64.48,M,2.00,0.00,30.45,M,6.21,M,OVC,M,M,M,4400.00,M,M,M,M,M,M,M,M,M,M,71.60,LFPM 121900Z AUTO VRB02KT 9999 OVC044 22/15 Q1031,M
LFPM,LFPM,2019-09-12 19:30,69.80,60.80,73.09,50.00,2.00,0.00,30.45,M,6.21,M,OVC,M,M,M,4400.00,M,M,M,M,M,M,M,M,M,M,69.80,LFPM 121930Z AUTO 05002KT 9999 OVC044 21/16 Q1031,M
LFPM,LFPM,2019-09-12 20:00,69.80,60.80,73.09,20.00,2.00,0.00,30.45,M,6.21,M,OVC,M,M,M,4300.00,M,M,M,M,M,M,M,M,M,M,69.80,LFPM 122000Z AUTO 02002KT 9999 OVC043 21/16 Q1031,M
LFPM,LFPM,2019-09-12 20:30,69.80,60.80,73.09,350.00,6.00,0.00,30.45,M,6.21,M,OVC,M,M,M,4200.00,M,M,M,M,M,M,M,M,M,M,69.80,LFPM 122030Z AUTO 35006KT 9999 OVC042 21/16 Q1031,M
LFPM,LFPM,2019-09-12 21:00,68.00,60.80,77.75,350.00,5.00,0.00,30.45,M,6.21,M,BKN,M,M,M,4100.00,M,M,M,M,M,M,M,M,M,M,68.00,LFPM 122100Z AUTO 35005KT 9999 BKN041 20/16 Q1031,M
LFPM,LFPM,2019-09-12 21:30,66.20,59.00,77.60,340.00,5.00,0.00,30.47,M,6.21,M,FEW,M,M,M,4100.00,M,M,M,M,M,M,M,M,M,M,66.20,LFPM 122130Z AUTO 34005KT 9999 FEW041 19/15 Q1032,M
LFPM,LFPM,2019-09-12 22:00,66.20,59.00,77.60,350.00,5.00,0.00,30.47,M,6.21,M,M,M,M,M,M,M,M,M,M,M,M,M,M,M,M,66.20,LFPM 122200Z AUTO 35005KT CAVOK 19/15 Q1032,M
LFPM,LFPM,2019-09-12 22:30,64.40,59.00,82.62,350.00,4.00,0.00,30.47,M,6.21,M,M,M,M,M,M,M,M,M,M,M,M,M,M,M,M,64.40,LFPM 122230Z AUTO 35004KT CAVOK 18/15 Q1032,M
LFPM,LFPM,2019-09-12 23:00,64.40,59.00,82.62,350.00,3.00,0.00,30.47,M,6.21,M,M,M,M,M,M,M,M,M,M,M,M,M,M,M,M,64.40,LFPM 122300Z AUTO 35003KT CAVOK 18/15 Q1032,M
LFPM,LFPM,2019-09-12 23:30,62.60,59.00,88.00,350.00,4.00,0.00,30.47,M,6.21,M,M,M,M,M,M,M,M,M,M,M,M,M,M,M,M,62.60,LFPM 122330Z AUTO 35004KT CAVOK 17/15 Q1032,M
LFPN,LFPN,2019-09-12 00:00,62.60,55.40,77.29,260.00,4.00,0.00,30.36,M,6.21,M,FEW,M,M,M,4200.00,M,M,M,M,M,M,M,M,M,M,62.60,LFPN 120000Z AUTO 26004KT 9999 FEW042 17/13 Q1028,M
LFPN,LFPN,2019-09-12 00:30,60.80,55.40,82.37,270.00,4.00,0.00,30.36,M,6.21,M,M,M,M,M,M,M,M,M,M,M,M,M,M,M,M,60.80,LFPN 120030Z AUTO 27004KT CAVOK 16/13 Q1028,M
LFPN,LFPN,2019-09-12 01:00,60.80,55.40,82.37,270.00,3.00,0.00,30.36,M,6.21,M,M,M,M,M,M,M,M,M,M,M,M,M,M,M,M,60.80,LFPN 120100Z AUTO 27003KT 240V300 CAVOK 16/13 Q1028,M
LFPN,LFPN,2019-09-12 01:30,59.00,53.60,82.25,0.00,0.00,0.00,30.36,M,6.21,M,M,M,M,M,M,M,M,M,M,M,M,M,M,M,M,59.00,LFPN 120130Z AUTO 00000KT CAVOK 15/12 Q1028,M
LFPN,LFPN,2019-09-12 02:00,59.00,55.40,87.83,240.00,3.00,0.00,30.36,M,6.21,M,BKN,BKN,M,M,3000.00,13000.00,M,M,M,M,M,M,M,M,M,59.00,LFPN 120200Z AUTO 24003KT 9999 BKN030 BKN130 15/13 Q1028,M
LFPN,LFPN,2019-09-12 02:30,59.00,55.40,87.83,260.00,2.00,0.00,30.36,M,6.21,M,BKN,OVC,M,M,3100.00,13000.00,M,M,M,M,M,M,M,M,M,59.00,LFPN 120230Z AUTO 26002KT 9999 BKN031 OVC130 15/13 Q1028,M
LFPN,LFPN,2019-09-12 03:00,60.80,57.20,87.92,M,3.00,0.00,30.36,M,6.21,M,OVC,M,M,M,3400.00,M,M,M,M,M,M,M,M,M,M,60.80,LFPN 120300Z AUTO VRB03KT 9999 OVC034 16/14 Q1028,M
LFPN,LFPN,2019-09-12 03:30,60.80,57.20,87.92,240.00,6.00,0.00,30.36,M,6.21,M,OVC,M,M,M,3200.00,M,M,M,M,M,M,M,M,M,M,60.80,LFPN 120330Z AUTO 24006KT 9999 OVC032 16/14 Q1028,M
LFPN,LFPN,2019-09-12 04:00,60.80,57.20,87.92,260.00,5.00,0.00,30.36,M,6.21,M,BKN,OVC,M,M,2600.00,3300.00,M,M,M,M,M,M,M,M,M,60.80,LFPN 120400Z AUTO 26005KT 9999 BKN026 OVC033 16/14 Q1028,M
LFPN,LFPN,2019-09-12 04:30,60.80,57.20,87.92,260.00,4.00,0.00,30.39,M,6.21,M,FEW,OVC,M,M,2400.00,3600.00,M,M,M,M,M,M,M,M,M,60.80,LFPN 120430Z AUTO 26004KT 9999 FEW024 OVC036 16/14 Q1029,M
LFPN,LFPN,2019-09-12 05:00,60.80,57.20,87.92,260.00,4.00,0.00,30.39,M,6.21,M,BKN,OVC,M,M,3200.00,3900.00,M,M,M,M,M,M,M,M,M,60.80,LFPN 120500Z AUTO 26004KT 9999 BKN032 OVC039 16/14 Q1029,M
LFPN,LFPN,2019-09-12 05:30,62.60,57.20,82.50,250.00,5.00,0.00,30.39,M,6.21,M,OVC,M,M,M,3700.00,M,M,M,M,M,M,M,M,M,M,62.60,LFPN 120530Z AUTO 25005KT 9999 OVC037 17/14 Q1029 TEMPO 4000 -DZ BKN006,M
LFPN,LFPN,2019-09-12 06:00,62.60,57.20,82.50,230.00,5.00,0.00,30.39,M,6.21,M,OVC,M,M,M,3800.00,M,M,M,M,M,M,M,M,M,M,62.60,LFPN 120600Z AUTO 23005KT 9999 OVC038 17/14 Q1029 TEMPO 4000 -DZ BKN006,M
LFPN,LFPN,2019-09-12 06:30,62.60,59.00,88.00,300.00,3.00,0.00,30.42,M,6.21,M,OVC,M,M,M,4200.00,M,M,M,M,M,M,M,M,M,M,62.60,LFPN 120630Z AUTO 30003KT 9999 OVC042 17/15 Q1030 TEMPO 4000 -DZ BKN010,M
LFPN,LFPN,2019-09-12 07:00,64.40,59.00,82.62,240.00,4.00,0.00,30.42,M,6.21,M,BKN,OVC,M,M,1400.00,4100.00,M,M,M,M,M,M,M,M,M,64.40,LFPN 120700Z AUTO 24004KT 9999 BKN014 OVC041 18/15 Q1030 TEMPO 4000 -DZ BKN006,M
LFPN,LFPN,2019-09-12 07:30,64.40,59.00,82.62,270.00,5.00,0.00,30.42,M,6.21,M,OVC,M,M,M,1200.00,M,M,M,M,M,M,M,M,M,M,64.40,LFPN 120730Z AUTO 27005KT 220V320 9999 OVC012 18/15 Q1030 NOSIG,M
LFPN,LFPN,2019-09-12 08:00,66.20,59.00,77.60,290.00,7.00,0.00,30.45,M,6.21,M,OVC,M,M,M,1300.00,M,M,M,M,M,M,M,M,M,M,66.20,LFPN 120800Z AUTO 29007KT 250V310 9999 OVC013 19/15 Q1031 NOSIG,M
LFPN,LFPN,2019-09-12 08:30,68.00,59.00,72.92,280.00,7.00,0.00,30.45,M,6.21,M,BKN,OVC,M,M,1400.00,3600.00,M,M,M,M,M,M,M,M,M,68.00,LFPN 120830Z AUTO 28007KT 240V310 9999 BKN014 OVC036 20/15 Q1031 NOSIG,M
LFPN,LFPN,2019-09-12 09:00,68.00,59.00,72.92,300.00,8.00,0.00,30.45,M,6.21,M,FEW,OVC,M,M,1600.00,3600.00,M,M,M,M,M,M,M,M,M,68.00,LFPN 120900Z AUTO 30008KT 9999 FEW016 OVC036 20/15 Q1031 TEMPO BKN014,M
LFPN,LFPN,2019-09-12 09:30,68.00,60.80,77.75,290.00,8.00,0.00,30.45,M,6.21,M,BKN,OVC,M,M,1700.00,3500.00,M,M,M,M,M,M,M,M,M,68.00,LFPN 120930Z AUTO 29008KT 250V320 9999 BKN017 OVC035 20/16 Q1031 NOSIG,M
LFPN,LFPN,2019-09-12 10:00,69.80,59.00,68.55,300.00,8.00,0.00,30.47,M,6.21,M,BKN,OVC,M,M,2000.00,3500.00,M,M,M,M,M,M,M,M,M,69.80,LFPN 121000Z AUTO 30008KT 9999 BKN020 OVC035 21/15 Q1032 NOSIG,M
LFPN,LFPN,2019-09-12 10:30,69.80,60.80,73.09,290.00,7.00,0.00,30.47,M,6.21,M,BKN,OVC,M,M,2200.00,3200.00,M,M,M,M,M,M,M,M,M,69.80,LFPN 121030Z AUTO 29007KT 250V310 9999 BKN022 OVC032 21/16 Q1032 NOSIG,M
LFPN,LFPN,2019-09-12 11:00,71.60,60.80,68.75,320.00,6.00,0.00,30.45,M,6.21,M,BKN,BKN,OVC,M,2300.00,3300.00,4700.00,M,M,M,M,M,M,M,M,71.60,LFPN 121100Z AUTO 32006KT 290V350 9999 BKN023 BKN033 OVC047 22/16 Q1031 NOSIG,M
LFPN,LFPN,2019-09-12 11:30,73.40,60.80,64.69,290.00,5.00,0.00,30.45,M,6.21,M,BKN,BKN,OVC,M,2500.00,3400.00,4700.00,M,M,M,M,M,M,M,M,73.40,LFPN 121130Z AUTO 29005KT 210V330 9999 BKN025 BKN034 OVC047 23/16 Q1031 NOSIG,M
LFPN,LFPN,2019-09-12 12:00,73.40,60.80,64.69,310.00,4.00,0.00,30.45,M,6.21,M,OVC,M,M,M,2800.00,M,M,M,M,M,M,M,M,M,M,73.40,LFPN 121200Z AUTO 31004KT 260V350 9999 OVC028 23/16 Q1031 NOSIG,M
LFPN,LFPN,2019-09-12 12:30,73.40,60.80,64.69,290.00,5.00,0.00,30.45,M,6.21,M,OVC,M,M,M,2900.00,M,M,M,M,M,M,M,M,M,M,73.40,LFPN 121230Z AUTO 29005KT 240V320 9999 OVC029 23/16 Q1031 NOSIG,M
LFPN,LFPN,2019-09-12 13:00,73.40,60.80,64.69,260.00,4.00,0.00,30.45,M,6.21,M,OVC,M,M,M,3100.00,M,M,M,M,M,M,M,M,M,M,73.40,LFPN 121300Z AUTO 26004KT 210V320 9999 OVC031 23/16 Q1031 NOSIG,M
LFPN,LFPN,2019-09-12 13:30,73.40,60.80,64.69,260.00,4.00,0.00,30.45,M,6.21,M,OVC,M,M,M,3800.00,M,M,M,M,M,M,M,M,M,M,73.40,LFPN 121330Z AUTO 26004KT 240V300 9999 OVC038 23/16 Q1031 NOSIG,M
LFPN,LFPN,2019-09-12 14:00,75.20,60.80,60.90,250.00,3.00,0.00,30.45,M,6.21,M,OVC,M,M,M,3900.00,M,M,M,M,M,M,M,M,M,M,75.20,LFPN 121400Z AUTO 25003KT 200V310 9999 OVC039 24/16 Q1031 NOSIG,M
LFPN,LFPN,2019-09-12 14:30,75.20,60.80,60.90,M,3.00,0.00,30.45,M,6.21,M,OVC,M,M,M,3900.00,M,M,M,M,M,M,M,M,M,M,75.20,LFPN 121430Z AUTO VRB03KT 9999 OVC039 24/16 Q1031 NOSIG,M
LFPN,LFPN,2019-09-12 15:00,75.20,60.80,60.90,250.00,3.00,0.00,30.45,M,6.21,M,BKN,OVC,M,M,3700.00,4300.00,M,M,M,M,M,M,M,M,M,75.20,LFPN 121500Z AUTO 25003KT 210V310 9999 BKN037 OVC043 24/16 Q1031 NOSIG,M
LFPN,LFPN,2019-09-12 15:30,75.20,59.00,57.12,M,3.00,0.00,30.45,M,6.21,M,OVC,M,M,M,4000.00,M,M,M,M,M,M,M,M,M,M,75.20,LFPN 121530Z AUTO VRB03KT 9999 OVC040 24/15 Q1031 NOSIG,M
LFPN,LFPN,2019-09-12 16:00,73.40,60.80,64.69,320.00,4.00,0.00,30.45,M,6.21,M,OVC,M,M,M,3900.00,M,M,M,M,M,M,M,M,M,M,73.40,LFPN 121600Z AUTO 32004KT 290V350 9999 OVC039 23/16 Q1031 NOSIG,M
LFPN,LFPN,2019-09-12 16:30,73.40,60.80,64.69,270.00,3.00,0.00,30.45,M,6.21,M,OVC,M,M,M,4100.00,M,M,M,M,M,M,M,M,M,M,73.40,LFPN 121630Z AUTO 27003KT 9999 OVC041 23/16 Q1031 NOSIG,M
LFPN,LFPN,2019-09-12 17:00,73.40,60.80,64.69,300.00,5.00,0.00,30.45,M,6.21,M,OVC,M,M,M,4300.00,M,M,M,M,M,M,M,M,M,M,73.40,LFPN 121700Z AUTO 30005KT 9999 OVC043 23/16 Q1031 NOSIG,M
LFPN,LFPN,2019-09-12 17:30,73.40,59.00,60.67,320.00,6.00,0.00,30.45,M,6.21,M,OVC,M,M,M,4000.00,M,M,M,M,M,M,M,M,M,M,73.40,LFPN 121730Z AUTO 32006KT 9999 OVC040 23/15 Q1031 NOSIG,M
LFPN,LFPN,2019-09-12 18:00,71.60,60.80,68.75,340.00,9.00,0.00,30.45,M,6.21,M,OVC,M,M,M,3800.00,M,M,M,M,M,M,M,M,M,M,71.60,LFPN 121800Z AUTO 34009KT 9999 OVC038 22/16 Q1031 NOSIG,M
LFPN,LFPN,2019-09-12 18:30,71.60,60.80,68.75,340.00,6.00,0.00,30.45,M,6.21,M,OVC,M,M,M,3900.00,M,M,M,M,M,M,M,M,M,M,71.60,LFPN 121830Z AUTO 34006KT 9999 OVC039 22/16 Q1031 NOSIG,M
LFPN,LFPN,2019-09-12 19:00,69.80,60.80,73.09,340.00,4.00,0.00,30.45,M,6.21,M,OVC,M,M,M,3800.00,M,M,M,M,M,M,M,M,M,M,69.80,LFPN 121900Z AUTO 34004KT 9999 OVC038 21/16 Q1031 NOSIG,M
LFPN,LFPN,2019-09-12 19:30,69.80,60.80,73.09,330.00,6.00,0.00,30.45,M,6.21,M,OVC,M,M,M,3800.00,M,M,M,M,M,M,M,M,M,M,69.80,LFPN 121930Z AUTO 33006KT 9999 OVC038 21/16 Q1031 NOSIG,M
LFPN,LFPN,2019-09-12 20:00,69.80,60.80,73.09,340.00,9.00,0.00,30.47,M,6.21,M,OVC,M,M,M,3800.00,M,M,M,M,M,M,M,M,M,M,69.80,LFPN 122000Z AUTO 34009KT 9999 OVC038 21/16 Q1032 NOSIG,M
LFPN,LFPN,2019-09-12 20:30,68.00,60.80,77.75,350.00,7.00,0.00,30.47,M,6.21,M,OVC,M,M,M,3800.00,M,M,M,M,M,M,M,M,M,M,68.00,LFPN 122030Z AUTO 35007KT 9999 OVC038 20/16 Q1032 NOSIG,M
LFPN,LFPN,2019-09-12 21:00,66.20,62.60,88.18,350.00,7.00,0.00,30.47,M,6.21,M,FEW,OVC,M,M,1300.00,3700.00,M,M,M,M,M,M,M,M,M,66.20,LFPN 122100Z AUTO 35007KT 9999 FEW013 OVC037 19/17 Q1032 NOSIG,M
LFPN,LFPN,2019-09-12 21:30,66.20,60.80,82.74,360.00,6.00,0.00,30.47,M,6.21,M,FEW,OVC,M,M,1300.00,3700.00,M,M,M,M,M,M,M,M,M,66.20,LFPN 122130Z AUTO 36006KT 9999 FEW013 OVC037 19/16 Q1032 NOSIG,M
LFPN,LFPN,2019-09-12 22:00,64.40,60.80,88.09,360.00,3.00,0.00,30.47,M,6.21,M,BKN,OVC,M,M,3700.00,14000.00,M,M,M,M,M,M,M,M,M,64.40,LFPN 122200Z AUTO 36003KT 9999 BKN037 OVC140 18/16 Q1032,M
LFPN,LFPN,2019-09-12 22:30,62.60,59.00,88.00,340.00,2.00,0.00,30.47,M,6.21,M,M,M,M,M,M,M,M,M,M,M,M,M,M,M,M,62.60,LFPN 122230Z AUTO 34002KT CAVOK 17/15 Q1032,M
LFPN,LFPN,2019-09-12 23:00,62.60,59.00,88.00,320.00,3.00,0.00,30.47,M,6.21,M,M,M,M,M,M,M,M,M,M,M,M,M,M,M,M,62.60,LFPN 122300Z AUTO 32003KT CAVOK 17/15 Q1032,M
LFPN,LFPN,2019-09-12 23:30,60.80,59.00,93.79,300.00,1.00,0.00,30.47,M,6.21,M,M,M,M,M,M,M,M,M,M,M,M,M,M,M,M,60.80,LFPN 122330Z AUTO 30001KT CAVOK 16/15 Q1032,M
LFPO,LFPO,2019-09-12 00:00,62.60,55.40,77.29,230.00,6.00,0.00,30.36,M,6.21,M,BKN,M,M,M,4300.00,M,M,M,M,M,M,M,M,M,M,62.60,LFPO 120000Z 23006KT 9999 BKN043 17/13 Q1028 NOSIG,M
LFPO,LFPO,2019-09-12 00:30,62.60,55.40,77.29,230.00,6.00,0.00,30.36,M,6.21,M,BKN,M,M,M,4300.00,M,M,M,M,M,M,M,M,M,M,62.60,LFPO 120030Z 23006KT 9999 BKN043 17/13 Q1028 NOSIG,M
LFPO,LFPO,2019-09-12 01:00,64.40,57.20,77.45,230.00,6.00,0.00,30.36,M,6.21,M,BKN,M,M,M,4600.00,M,M,M,M,M,M,M,M,M,M,64.40,LFPO 120100Z 23006KT 9999 BKN046 18/14 Q1028 NOSIG,M
LFPO,LFPO,2019-09-12 01:30,62.60,57.20,82.50,250.00,4.00,0.00,30.36,M,6.21,M,FEW,M,M,M,4600.00,M,M,M,M,M,M,M,M,M,M,62.60,LFPO 120130Z 25004KT 9999 FEW046 17/14 Q1028 NOSIG,M
LFPO,LFPO,2019-09-12 02:00,60.80,55.40,82.37,M,2.00,0.00,30.36,M,6.21,M,FEW,M,M,M,4600.00,M,M,M,M,M,M,M,M,M,M,60.80,LFPO 120200Z VRB02KT 9999 FEW046 16/13 Q1028 NOSIG,M
LFPO,LFPO,2019-09-12 02:30,60.80,55.40,82.37,230.00,4.00,0.00,30.36,M,6.21,M,FEW,M,M,M,3100.00,M,M,M,M,M,M,M,M,M,M,60.80,LFPO 120230Z 23004KT 9999 FEW031 16/13 Q1028 NOSIG,M
LFPO,LFPO,2019-09-12 03:00,60.80,55.40,82.37,230.00,5.00,0.00,30.36,M,6.21,M,SCT,M,M,M,3300.00,M,M,M,M,M,M,M,M,M,M,60.80,LFPO 120300Z 23005KT 9999 SCT033 16/13 Q1028 NOSIG,M
LFPO,LFPO,2019-09-12 03:30,60.80,55.40,82.37,230.00,4.00,0.00,30.36,M,6.21,M,BKN,M,M,M,3300.00,M,M,M,M,M,M,M,M,M,M,60.80,LFPO 120330Z 23004KT 9999 BKN033 16/13 Q1028 NOSIG,M
LFPO,LFPO,2019-09-12 04:00,60.80,55.40,82.37,240.00,4.00,0.00,30.36,M,6.21,M,BKN,M,M,M,3500.00,M,M,M,M,M,M,M,M,M,M,60.80,LFPO 120400Z 24004KT 9999 BKN035 16/13 Q1028 NOSIG,M
LFPO,LFPO,2019-09-12 04:30,60.80,55.40,82.37,270.00,5.00,0.00,30.39,M,6.21,M,SCT,SCT,M,M,3500.00,4500.00,M,M,M,M,M,M,M,M,M,60.80,LFPO 120430Z 27005KT 230V290 9999 SCT035 SCT045 16/13 Q1029 NOSIG,M
LFPO,LFPO,2019-09-12 05:00,60.80,55.40,82.37,210.00,3.00,0.00,30.39,M,6.21,M,BKN,M,M,M,3600.00,M,M,M,M,M,M,M,M,M,M,60.80,LFPO 120500Z 21003KT 170V260 9999 BKN036 16/13 Q1029 NOSIG,M
LFPO,LFPO,2019-09-12 05:30,60.80,55.40,82.37,260.00,3.00,0.00,30.39,M,6.21,M,FEW,BKN,M,M,3400.00,4000.00,M,M,M,M,M,M,M,M,M,60.80,LFPO 120530Z 26003KT 210V300 9999 FEW034 BKN040 16/13 Q1029 NOSIG,M
LFPO,LFPO,2019-09-12 06:00,59.00,55.40,87.83,230.00,4.00,0.00,30.39,M,6.21,M,BKN,M,M,M,3600.00,M,M,M,M,M,M,M,M,M,M,59.00,LFPO 120600Z 23004KT 9999 BKN036 15/13 Q1029 NOSIG,M
LFPO,LFPO,2019-09-12 06:30,60.80,55.40,82.37,240.00,5.00,0.00,30.42,M,6.21,M,BKN,M,M,M,3800.00,M,M,M,M,M,M,M,M,M,M,60.80,LFPO 120630Z 24005KT 9999 BKN038 16/13 Q1030 NOSIG,M
LFPO,LFPO,2019-09-12 07:00,62.60,55.40,77.29,280.00,3.00,0.00,30.42,M,6.21,M,FEW,BKN,M,M,1600.00,3200.00,M,M,M,M,M,M,M,M,M,62.60,LFPO 120700Z 28003KT 230V350 9999 FEW016 BKN032 17/13 Q1030 TEMPO BKN012,M
LFPO,LFPO,2019-09-12 07:30,62.60,57.20,82.50,270.00,4.00,0.00,30.42,M,6.21,M,FEW,BKN,M,M,1600.00,4000.00,M,M,M,M,M,M,M,M,M,62.60,LFPO 120730Z 27004KT 220V320 9999 FEW016 BKN040 17/14 Q1030 TEMPO BKN012,M
LFPO,LFPO,2019-09-12 08:00,64.40,57.20,77.45,220.00,4.00,0.00,30.45,M,6.21,M,FEW,BKN,M,M,1500.00,4100.00,M,M,M,M,M,M,M,M,M,64.40,LFPO 120800Z 22004KT 190V290 9999 FEW015 BKN041 18/14 Q1031 TEMPO BKN012,M
LFPO,LFPO,2019-09-12 08:30,66.20,59.00,77.60,280.00,5.00,0.00,30.45,M,6.21,M,FEW,BKN,M,M,1500.00,4100.00,M,M,M,M,M,M,M,M,M,66.20,LFPO 120830Z 28005KT 250V310 9999 FEW015 BKN041 19/15 Q1031 TEMPO BKN012,M
LFPO,LFPO,2019-09-12 09:00,68.00,59.00,72.92,290.00,6.00,0.00,30.45,M,6.21,M,FEW,BKN,M,M,1600.00,3800.00,M,M,M,M,M,M,M,M,M,68.00,LFPO 120900Z 29006KT 250V320 9999 FEW016 BKN038 20/15 Q1031 TEMPO BKN012,M
LFPO,LFPO,2019-09-12 09:30,69.80,59.00,68.55,270.00,7.00,0.00,30.45,M,6.21,M,FEW,BKN,M,M,2000.00,3800.00,M,M,M,M,M,M,M,M,M,69.80,LFPO 120930Z 27007KT 230V320 9999 FEW020 BKN038 21/15 Q1031 NOSIG,M
LFPO,LFPO,2019-09-12 10:00,69.80,59.00,68.55,280.00,5.00,0.00,30.47,M,6.21,M,SCT,BKN,M,M,2100.00,3800.00,M,M,M,M,M,M,M,M,M,69.80,LFPO 121000Z 28005KT 210V020 9999 SCT021 BKN038 21/15 Q1032 NOSIG,M
LFPO,LFPO,2019-09-12 10:30,69.80,60.80,73.09,290.00,5.00,0.00,30.47,M,6.21,M,BKN,BKN,M,M,2200.00,3800.00,M,M,M,M,M,M,M,M,M,69.80,LFPO 121030Z 29005KT 250V360 9999 BKN022 BKN038 21/16 Q1032 NOSIG,M
LFPO,LFPO,2019-09-12 11:00,73.40,60.80,64.69,290.00,4.00,0.00,30.45,M,6.21,M,BKN,BKN,M,M,2400.00,3800.00,M,M,M,M,M,M,M,M,M,73.40,LFPO 121100Z 29004KT 230V040 9999 BKN024 BKN038 23/16 Q1031 NOSIG,M
LFPO,LFPO,2019-09-12 11:30,73.40,60.80,64.69,300.00,4.00,0.00,30.45,M,6.21,M,BKN,BKN,M,M,2500.00,4500.00,M,M,M,M,M,M,M,M,M,73.40,LFPO 121130Z 30004KT 250V040 9999 BKN025 BKN045 23/16 Q1031 NOSIG,M
LFPO,LFPO,2019-09-12 12:00,73.40,60.80,64.69,M,4.00,0.00,30.45,M,6.21,M,BKN,BKN,M,M,2700.00,4500.00,M,M,M,M,M,M,M,M,M,73.40,LFPO 121200Z VRB04KT 9999 BKN027 BKN045 23/16 Q1031 NOSIG,M
LFPO,LFPO,2019-09-12 12:30,73.40,59.00,60.67,310.00,3.00,0.00,30.45,M,6.21,M,BKN,BKN,M,M,3000.00,4500.00,M,M,M,M,M,M,M,M,M,73.40,LFPO 121230Z 31003KT 260V010 9999 BKN030 BKN045 23/15 Q1031 NOSIG,M
LFPO,LFPO,2019-09-12 13:00,73.40,60.80,64.69,300.00,4.00,0.00,30.45,M,6.21,M,BKN,BKN,M,M,3200.00,4500.00,M,M,M,M,M,M,M,M,M,73.40,LFPO 121300Z 30004KT 220V340 9999 BKN032 BKN045 23/16 Q1031 NOSIG,M
LFPO,LFPO,2019-09-12 13:30,73.40,60.80,64.69,240.00,4.00,0.00,30.45,M,6.21,M,BKN,BKN,M,M,3200.00,4100.00,M,M,M,M,M,M,M,M,M,73.40,LFPO 121330Z 24004KT 180V280 9999 BKN032 BKN041 23/16 Q1031 NOSIG,M
LFPO,LFPO,2019-09-12 14:00,73.40,60.80,64.69,230.00,4.00,0.00,30.45,M,6.21,M,BKN,BKN,M,M,3100.00,4100.00,M,M,M,M,M,M,M,M,M,73.40,LFPO 121400Z 23004KT 140V280 9999 BKN031 BKN041 23/16 Q1031 NOSIG,M
LFPO,LFPO,2019-09-12 14:30,77.00,60.80,57.36,260.00,4.00,0.00,30.45,M,6.21,M,BKN,BKN,M,M,3300.00,4000.00,M,M,M,M,M,M,M,M,M,77.00,LFPO 121430Z 26004KT 220V310 9999 BKN033 BKN040 25/16 Q1031 NOSIG,M
LFPO,LFPO,2019-09-12 15:00,75.20,60.80,60.90,M,2.00,0.00,30.45,M,6.21,M,BKN,BKN,M,M,3500.00,4400.00,M,M,M,M,M,M,M,M,M,75.20,LFPO 121500Z VRB02KT 9999 BKN035 BKN044 24/16 Q1031 NOSIG,M
LFPO,LFPO,2019-09-12 15:30,75.20,60.80,60.90,M,2.00,0.00,30.45,M,6.21,M,BKN,M,M,M,3600.00,M,M,M,M,M,M,M,M,M,M,75.20,LFPO 121530Z VRB02KT 9999 BKN036 24/16 Q1031 NOSIG,M
LFPO,LFPO,2019-09-12 16:00,73.40,60.80,64.69,M,2.00,0.00,30.45,M,6.21,M,BKN,M,M,M,3700.00,M,M,M,M,M,M,M,M,M,M,73.40,LFPO 121600Z VRB02KT 9999 BKN037 23/16 Q1031 NOSIG,M
LFPO,LFPO,2019-09-12 16:30,73.40,60.80,64.69,110.00,2.00,0.00,30.45,M,6.21,M,BKN,M,M,M,3700.00,M,M,M,M,M,M,M,M,M,M,73.40,LFPO 121630Z 11002KT 9999 BKN037 23/16 Q1031 NOSIG,M
LFPO,LFPO,2019-09-12 17:00,73.40,60.80,64.69,80.00,2.00,0.00,30.45,M,6.21,M,BKN,M,M,M,3800.00,M,M,M,M,M,M,M,M,M,M,73.40,LFPO 121700Z 08002KT 9999 BKN038 23/16 Q1031 NOSIG,M
LFPO,LFPO,2019-09-12 17:30,73.40,60.80,64.69,M,2.00,0.00,30.45,M,6.21,M,BKN,M,M,M,3800.00,M,M,M,M,M,M,M,M,M,M,73.40,LFPO 121730Z VRB02KT 9999 BKN038 23/16 Q1031 NOSIG,M
LFPO,LFPO,2019-09-12 18:00,73.40,60.80,64.69,0.00,0.00,0.00,30.45,M,6.21,M,BKN,M,M,M,3800.00,M,M,M,M,M,M,M,M,M,M,73.40,LFPO 121800Z 00000KT 9999 BKN038 23/16 Q1031 NOSIG,M
LFPO,LFPO,2019-09-12 18:30,71.60,60.80,68.75,360.00,4.00,0.00,30.45,M,6.21,M,BKN,M,M,M,3700.00,M,M,M,M,M,M,M,M,M,M,71.60,LFPO 121830Z 36004KT 320V110 9999 BKN037 22/16 Q1031 NOSIG,M
LFPO,LFPO,2019-09-12 19:00,71.60,60.80,68.75,330.00,7.00,0.00,30.45,M,6.21,M,BKN,M,M,M,3900.00,M,M,M,M,M,M,M,M,M,M,71.60,LFPO 121900Z 33007KT 9999 BKN039 22/16 Q1031 NOSIG,M
LFPO,LFPO,2019-09-12 19:30,71.60,60.80,68.75,330.00,6.00,0.00,30.45,M,6.21,M,BKN,M,M,M,3900.00,M,M,M,M,M,M,M,M,M,M,71.60,LFPO 121930Z 33006KT 9999 BKN039 22/16 Q1031 NOSIG,M
LFPO,LFPO,2019-09-12 20:00,71.60,60.80,68.75,340.00,6.00,0.00,30.45,M,6.21,M,BKN,M,M,M,3900.00,M,M,M,M,M,M,M,M,M,M,71.60,LFPO 122000Z 34006KT 9999 BKN039 22/16 Q1031 NOSIG,M
LFPO,LFPO,2019-09-12 20:30,71.60,60.80,68.75,340.00,9.00,0.00,30.47,M,6.21,M,BKN,M,M,M,3800.00,M,M,M,M,M,M,M,M,M,M,71.60,LFPO 122030Z 34009KT 320V020 9999 BKN038 22/16 Q1032 NOSIG,M
LFPO,LFPO,2019-09-12 21:00,69.80,60.80,73.09,340.00,9.00,0.00,30.47,M,6.21,M,BKN,M,M,M,3900.00,M,M,M,M,M,M,M,M,M,M,69.80,LFPO 122100Z 34009KT 9999 BKN039 21/16 Q1032 NOSIG,M
LFPO,LFPO,2019-09-12 21:30,68.00,60.80,77.75,350.00,9.00,0.00,30.47,M,6.21,M,BKN,M,M,M,3900.00,M,M,M,M,M,M,M,M,M,M,68.00,LFPO 122130Z 35009KT 9999 BKN039 20/16 Q1032 NOSIG,M
LFPO,LFPO,2019-09-12 22:00,68.00,60.80,77.75,360.00,5.00,0.00,30.47,M,6.21,M,SCT,M,M,M,3900.00,M,M,M,M,M,M,M,M,M,M,68.00,LFPO 122200Z 36005KT 9999 SCT039 20/16 Q1032 NOSIG,M
LFPO,LFPO,2019-09-12 22:30,66.20,60.80,82.74,350.00,3.00,0.00,30.47,M,6.21,M,FEW,M,M,M,3900.00,M,M,M,M,M,M,M,M,M,M,66.20,LFPO 122230Z 35003KT 9999 FEW039 19/16 Q1032 NOSIG,M
LFPO,LFPO,2019-09-12 23:00,64.40,59.00,82.62,320.00,3.00,0.00,30.47,M,6.21,M,FEW,M,M,M,3900.00,M,M,M,M,M,M,M,M,M,M,64.40,LFPO 122300Z 32003KT 9999 FEW039 18/15 Q1032 NOSIG,M
LFPO,LFPO,2019-09-12 23:30,62.60,59.00,88.00,320.00,3.00,0.00,30.47,M,6.21,M,M,M,M,M,M,M,M,M,M,M,M,M,M,M,M,62.60,LFPO 122330Z 32003KT CAVOK 17/15 Q1032 NOSIG,M
LFPV,LFPV,2019-09-12 00:00,62.60,55.40,77.29,240.00,6.00,0.00,30.36,M,6.21,M,BKN,M,M,M,4200.00,M,M,M,M,M,M,M,M,M,M,62.60,LFPV 120000Z AUTO 24006KT 9999 BKN042 17/13 Q1028 NOSIG,M
LFPV,LFPV,2019-09-12 00:30,60.80,57.20,87.92,260.00,7.00,0.00,30.36,M,6.21,M,M,M,M,M,M,M,M,M,M,M,M,M,M,M,M,60.80,LFPV 120030Z AUTO 26007KT CAVOK 16/14 Q1028 BECMG BKN010,M
LFPV,LFPV,2019-09-12 01:00,60.80,55.40,82.37,240.00,2.00,0.00,30.36,M,6.21,M,M,M,M,M,M,M,M,M,M,M,M,M,M,M,M,60.80,LFPV 120100Z AUTO 24002KT CAVOK 16/13 Q1028 BECMG BKN010,M
LFPV,LFPV,2019-09-12 01:30,59.00,55.40,87.83,260.00,4.00,0.00,30.36,M,6.21,M,M,M,M,M,M,M,M,M,M,M,M,M,M,M,M,59.00,LFPV 120130Z AUTO 26004KT CAVOK 15/13 Q1028 BECMG BKN010,M
LFPV,LFPV,2019-09-12 02:00,59.00,57.20,93.74,M,3.00,0.00,30.36,M,6.21,M,BKN,BKN,M,M,2700.00,7200.00,M,M,M,M,M,M,M,M,M,59.00,LFPV 120200Z AUTO VRB03KT 9999 BKN027 BKN072 15/14 Q1028,M
LFPV,LFPV,2019-09-12 02:30,59.00,57.20,93.74,260.00,4.00,0.00,30.36,M,6.21,M,OVC,M,M,M,3100.00,M,M,M,M,M,M,M,M,M,M,59.00,LFPV 120230Z AUTO 26004KT 9999 OVC031 15/14 Q1028 TEMPO BKN010,M
LFPV,LFPV,2019-09-12 03:00,60.80,57.20,87.92,230.00,4.00,0.00,30.36,M,6.21,M,OVC,M,M,M,3300.00,M,M,M,M,M,M,M,M,M,M,60.80,LFPV 120300Z AUTO 23004KT 190V250 9999 OVC033 16/14 Q1028 TEMPO BKN010,M
LFPV,LFPV,2019-09-12 03:30,60.80,57.20,87.92,270.00,6.00,0.00,30.36,M,6.21,M,FEW,OVC,M,M,1800.00,3000.00,M,M,M,M,M,M,M,M,M,60.80,LFPV 120330Z AUTO 27006KT 9999 FEW018 OVC030 16/14 Q1028 TEMPO BKN010,M
LFPV,LFPV,2019-09-12 04:00,59.00,57.20,93.74,260.00,4.00,0.00,30.36,M,6.21,M,BKN,OVC,M,M,2300.00,4500.00,M,M,M,M,M,M,M,M,M,59.00,LFPV 120400Z AUTO 26004KT 9999 BKN023 OVC045 15/14 Q1028 TEMPO BKN010,M
LFPV,LFPV,2019-09-12 04:30,60.80,57.20,87.92,250.00,4.00,0.00,30.39,M,6.21,M,FEW,OVC,M,M,2200.00,3800.00,M,M,M,M,M,M,M,M,M,60.80,LFPV 120430Z AUTO 25004KT 9999 FEW022 OVC038 16/14 Q1029 TEMPO BKN010,M
LFPV,LFPV,2019-09-12 05:00,60.80,57.20,87.92,250.00,5.00,0.00,30.39,M,6.21,M,SCT,OVC,M,M,2700.00,3800.00,M,M,M,M,M,M,M,M,M,60.80,LFPV 120500Z AUTO 25005KT 9999 SCT027 OVC038 16/14 Q1029 TEMPO BKN010,M
LFPV,LFPV,2019-09-12 05:30,62.60,59.00,88.00,260.00,8.00,0.00,30.39,M,6.21,M,FEW,OVC,M,M,2100.00,3700.00,M,M,M,M,M,M,M,M,M,62.60,LFPV 120530Z AUTO 26008KT 9999 FEW021 OVC037 17/15 Q1029 TEMPO BKN010,M
LFPV,LFPV,2019-09-12 06:00,62.60,59.00,88.00,250.00,5.00,0.00,30.39,M,6.21,M,OVC,M,M,M,3900.00,M,M,M,M,M,M,M,M,M,M,62.60,LFPV 120600Z AUTO 25005KT 9999 OVC039 17/15 Q1029 TEMPO BKN010,M
LFPV,LFPV,2019-09-12 06:30,62.60,59.00,88.00,260.00,7.00,0.00,30.42,M,6.21,M,FEW,OVC,M,M,1400.00,4000.00,M,M,M,M,M,M,M,M,M,62.60,LFPV 120630Z AUTO 26007KT 9999 FEW014 OVC040 17/15 Q1030 TEMPO BKN010,M
LFPV,LFPV,2019-09-12 07:00,64.40,59.00,82.62,280.00,7.00,0.00,30.42,M,6.21,M,BKN,OVC,M,M,1200.00,4000.00,M,M,M,M,M,M,M,M,M,64.40,LFPV 120700Z AUTO 28007KT 9999 BKN012 OVC040 18/15 Q1030 BECMG BKN020,M
LFPV,LFPV,2019-09-12 07:30,64.40,59.00,82.62,270.00,9.00,0.00,30.42,M,6.21,M,BKN,OVC,M,M,1200.00,4000.00,M,M,M,M,M,M,M,M,M,64.40,LFPV 120730Z AUTO 27009KT 9999 BKN012 OVC040 18/15 Q1030 BECMG BKN020,M
LFPV,LFPV,2019-09-12 08:00,64.40,59.00,82.62,280.00,9.00,0.00,30.45,M,6.21,M,BKN,OVC,M,M,1300.00,3900.00,M,M,M,M,M,M,M,M,M,64.40,LFPV 120800Z AUTO 28009KT 9999 BKN013 OVC039 18/15 Q1031 BECMG BKN020,M
LFPV,LFPV,2019-09-12 08:30,66.20,59.00,77.60,280.00,9.00,0.00,30.45,M,6.21,M,FEW,OVC,M,M,1400.00,3600.00,M,M,M,M,M,M,M,M,M,66.20,LFPV 120830Z AUTO 28009KT 9999 FEW014 OVC036 19/15 Q1031 NOSIG,M
LFPV,LFPV,2019-09-12 09:00,66.20,60.80,82.74,290.00,7.00,0.00,30.45,M,6.21,M,SCT,OVC,M,M,1600.00,3500.00,M,M,M,M,M,M,M,M,M,66.20,LFPV 120900Z AUTO 29007KT 260V330 9999 SCT016 OVC035 19/16 Q1031 NOSIG,M
LFPV,LFPV,2019-09-12 09:30,68.00,59.00,72.92,310.00,7.00,0.00,30.45,M,6.21,M,BKN,OVC,M,M,1700.00,3500.00,M,M,M,M,M,M,M,M,M,68.00,LFPV 120930Z AUTO 31007KT 9999 BKN017 OVC035 20/15 Q1031 NOSIG,M
LFPV,LFPV,2019-09-12 10:00,68.00,60.80,77.75,310.00,7.00,0.00,30.47,M,6.21,M,BKN,OVC,M,M,1900.00,3400.00,M,M,M,M,M,M,M,M,M,68.00,LFPV 121000Z AUTO 31007KT 260V340 9999 BKN019 OVC034 20/16 Q1032 NOSIG,M
LFPV,LFPV,2019-09-12 10:30,68.00,60.80,77.75,290.00,6.00,0.00,30.47,M,6.21,M,OVC,M,M,M,2100.00,M,M,M,M,M,M,M,M,M,M,68.00,LFPV 121030Z AUTO 29006KT 9999 OVC021 20/16 Q1032 NOSIG,M
LFPV,LFPV,2019-09-12 11:00,69.80,60.80,73.09,290.00,3.00,0.00,30.45,M,6.21,M,BKN,OVC,M,M,2200.00,3200.00,M,M,M,M,M,M,M,M,M,69.80,LFPV 121100Z AUTO 29003KT 220V350 9999 BKN022 OVC032 21/16 Q1031 NOSIG,M
LFPV,LFPV,2019-09-12 11:30,71.60,60.80,68.75,260.00,7.00,0.00,30.45,M,6.21,M,BKN,OVC,M,M,2400.00,3200.00,M,M,M,M,M,M,M,M,M,71.60,LFPV 121130Z AUTO 26007KT 230V290 9999 BKN024 OVC032 22/16 Q1031 NOSIG,M
LFPV,LFPV,2019-09-12 12:00,71.60,59.00,64.48,280.00,5.00,0.00,30.45,M,6.21,M,BKN,BKN,OVC,M,2600.00,3200.00,4600.00,M,M,M,M,M,M,M,M,71.60,LFPV 121200Z AUTO 28005KT 230V040 9999 BKN026 BKN032 OVC046 22/15 Q1031 NOSIG,M
LFPV,LFPV,2019-09-12 12:30,71.60,60.80,68.75,290.00,3.00,0.00,30.45,M,6.21,M,BKN,OVC,M,M,2900.00,3500.00,M,M,M,M,M,M,M,M,M,71.60,LFPV 121230Z AUTO 29003KT 240V030 9999 BKN029 OVC035 22/16 Q1031 NOSIG,M
LFPV,LFPV,2019-09-12 13:00,71.60,60.80,68.75,330.00,4.00,0.00,30.45,M,6.21,M,BKN,OVC,M,M,2800.00,3300.00,M,M,M,M,M,M,M,M,M,71.60,LFPV 121300Z AUTO 33004KT 300V360 9999 BKN028 OVC033 22/16 Q1031 NOSIG,M
LFPV,LFPV,2019-09-12 13:30,71.60,60.80,68.75,M,3.00,0.00,30.45,M,6.21,M,BKN,OVC,M,M,2900.00,3900.00,M,M,M,M,M,M,M,M,M,71.60,LFPV 121330Z AUTO VRB03KT 9999 BKN029 OVC039 22/16 Q1031 NOSIG,M
LFPV,LFPV,2019-09-12 14:00,73.40,60.80,64.69,M,2.00,0.00,30.45,M,6.21,M,SCT,OVC,M,M,3200.00,3900.00,M,M,M,M,M,M,M,M,M,73.40,LFPV 121400Z AUTO VRB02KT 9999 SCT032 OVC039 23/16 Q1031,M
LFPV,LFPV,2019-09-12 14:30,73.40,60.80,64.69,270.00,4.00,0.00,30.45,M,6.21,M,SCT,OVC,M,M,3300.00,4000.00,M,M,M,M,M,M,M,M,M,73.40,LFPV 121430Z AUTO 27004KT 220V340 9999 SCT033 OVC040 23/16 Q1031 NOSIG,M
LFPV,LFPV,2019-09-12 15:00,73.40,60.80,64.69,M,3.00,0.00,30.45,M,6.21,M,BKN,OVC,M,M,3500.00,4100.00,M,M,M,M,M,M,M,M,M,73.40,LFPV 121500Z AUTO VRB03KT 9999 BKN035 OVC041 23/16 Q1031 NOSIG,M
LFPV,LFPV,2019-09-12 15:30,73.40,60.80,64.69,M,2.00,0.00,30.45,M,6.21,M,BKN,OVC,M,M,3500.00,4100.00,M,M,M,M,M,M,M,M,M,73.40,LFPV 121530Z AUTO VRB02KT 9999 BKN035 OVC041 23/16 Q1031 NOSIG,M
LFPV,LFPV,2019-09-12 16:00,73.40,60.80,64.69,M,1.00,0.00,30.45,M,6.21,M,OVC,M,M,M,4000.00,M,M,M,M,M,M,M,M,M,M,73.40,LFPV 121600Z AUTO VRB01KT 9999 OVC040 23/16 Q1031 NOSIG,M
LFPV,LFPV,2019-09-12 16:30,73.40,60.80,64.69,M,3.00,0.00,30.45,M,6.21,M,OVC,M,M,M,4100.00,M,M,M,M,M,M,M,M,M,M,73.40,LFPV 121630Z AUTO VRB03KT 9999 OVC041 23/16 Q1031 NOSIG,M
LFPV,LFPV,2019-09-12 17:00,73.40,60.80,64.69,340.00,3.00,0.00,30.45,M,6.21,M,OVC,M,M,M,4100.00,M,M,M,M,M,M,M,M,M,M,73.40,LFPV 121700Z AUTO 34003KT 9999 OVC041 23/16 Q1031 NOSIG,M
LFPV,LFPV,2019-09-12 17:30,71.60,60.80,68.75,M,M,0.00,30.45,M,6.21,M,BKN,OVC,M,M,3700.00,4300.00,M,M,M,M,M,M,M,M,M,71.60,LFPV 121730Z AUTO /////KT 9999 BKN037 OVC043 22/16 Q1031,M
LFPV,LFPV,2019-09-12 18:00,71.60,60.80,68.75,M,M,0.00,30.45,M,6.21,M,OVC,M,M,M,3600.00,M,M,M,M,M,M,M,M,M,M,71.60,LFPV 121800Z AUTO /////KT 9999 OVC036 22/16 Q1031,M
LFPV,LFPV,2019-09-12 18:30,69.80,60.80,73.09,M,M,0.00,30.45,M,6.21,M,OVC,M,M,M,3800.00,M,M,M,M,M,M,M,M,M,M,69.80,LFPV 121830Z AUTO /////KT 9999 OVC038 21/16 Q1031,M
LFPV,LFPV,2019-09-12 19:00,69.80,60.80,73.09,M,M,0.00,30.45,M,6.21,M,OVC,M,M,M,3800.00,M,M,M,M,M,M,M,M,M,M,69.80,LFPV 121900Z AUTO /////KT 9999 OVC038 21/16 Q1031,M
LFPV,LFPV,2019-09-12 19:30,69.80,60.80,73.09,M,M,0.00,30.47,M,6.21,M,OVC,M,M,M,3800.00,M,M,M,M,M,M,M,M,M,M,69.80,LFPV 121930Z AUTO /////KT 9999 OVC038 21/16 Q1032,M
LFPV,LFPV,2019-09-12 20:00,68.00,60.80,77.75,M,M,0.00,30.47,M,6.21,M,OVC,M,M,M,3700.00,M,M,M,M,M,M,M,M,M,M,68.00,LFPV 122000Z AUTO /////KT 9999 OVC037 20/16 Q1032,M
LFPV,LFPV,2019-09-12 20:30,68.00,60.80,77.75,10.00,6.00,0.00,30.47,M,6.21,M,OVC,M,M,M,3800.00,M,M,M,M,M,M,M,M,M,M,68.00,LFPV 122030Z AUTO 01006KT 330V040 9999 OVC038 20/16 Q1032 NOSIG,M
LFPV,LFPV,2019-09-12 21:00,66.20,62.60,88.18,350.00,7.00,0.00,30.47,M,6.21,M,FEW,OVC,M,M,1100.00,3800.00,M,M,M,M,M,M,M,M,M,66.20,LFPV 122100Z AUTO 35007KT 9999 FEW011 OVC038 19/17 Q1032 NOSIG,M
LFPV,LFPV,2019-09-12 21:30,66.20,60.80,82.74,360.00,5.00,0.00,30.47,M,6.21,M,FEW,OVC,M,M,1000.00,3700.00,M,M,M,M,M,M,M,M,M,66.20,LFPV 122130Z AUTO 36005KT 330V030 9999 FEW010 OVC037 19/16 Q1032 NOSIG,M
LFPV,LFPV,2019-09-12 22:00,64.40,60.80,88.09,350.00,3.00,0.00,30.47,M,6.21,M,OVC,M,M,M,3600.00,M,M,M,M,M,M,M,M,M,M,64.40,LFPV 122200Z AUTO 35003KT 320V020 9999 OVC036 18/16 Q1032 NOSIG,M
LFPV,LFPV,2019-09-12 22:30,64.40,60.80,88.09,350.00,3.00,0.00,30.47,M,6.21,M,SCT,M,M,M,3600.00,M,M,M,M,M,M,M,M,M,M,64.40,LFPV 122230Z AUTO 35003KT 9999 SCT036 18/16 Q1032 NOSIG,M
LFPV,LFPV,2019-09-12 23:00,62.60,60.80,93.83,0.00,0.00,0.00,30.47,M,6.21,M,M,M,M,M,M,M,M,M,M,M,M,M,M,M,M,62.60,LFPV 122300Z AUTO 00000KT CAVOK 17/16 Q1032 NOSIG,M
LFPV,LFPV,2019-09-12 23:30,60.80,59.00,93.79,340.00,2.00,0.00,30.47,M,6.21,M,M,M,M,M,M,M,M,M,M,M,M,M,M,M,M,60.80,LFPV 122330Z AUTO 34002KT CAVOK 16/15 Q1032 NOSIG,M
LFQB,LFQB,2019-09-12 00:00,55.40,46.40,71.64,M,2.00,0.00,30.36,M,6.21,M,M,M,M,M,M,M,M,M,M,M,M,M,M,M,M,55.40,LFQB 120000Z AUTO VRB02KT CAVOK 13/08 Q1028,M
LFQB,LFQB,2019-09-12 00:30,57.20,48.20,71.83,M,3.00,0.00,30.36,M,6.21,M,M,M,M,M,M,M,M,M,M,M,M,M,M,M,M,57.20,LFQB 120030Z AUTO VRB03KT CAVOK 14/09 Q1028,M
LFQB,LFQB,2019-09-12 01:00,55.40,48.20,76.66,20.00,2.00,0.00,30.36,M,6.21,M,M,M,M,M,M,M,M,M,M,M,M,M,M,M,M,55.40,LFQB 120100Z AUTO 02002KT CAVOK 13/09 Q1028,M
LFQB,LFQB,2019-09-12 01:30,55.40,48.20,76.66,M,2.00,0.00,30.36,M,6.21,M,M,M,M,M,M,M,M,M,M,M,M,M,M,M,M,55.40,LFQB 120130Z AUTO VRB02KT CAVOK 13/09 Q1028,M
LFQB,LFQB,2019-09-12 02:00,53.60,48.20,81.87,70.00,3.00,0.00,30.39,M,6.21,M,M,M,M,M,M,M,M,M,M,M,M,M,M,M,M,53.60,LFQB 120200Z AUTO 07003KT CAVOK 12/09 Q1029,M
LFQB,LFQB,2019-09-12 02:30,53.60,48.20,81.87,80.00,3.00,0.00,30.39,M,6.21,M,M,M,M,M,M,M,M,M,M,M,M,M,M,M,M,53.60,LFQB 120230Z AUTO 08003KT CAVOK 12/09 Q1029,M
LFQB,LFQB,2019-09-12 03:00,51.80,48.20,87.47,100.00,3.00,0.00,30.39,M,6.21,M,M,M,M,M,M,M,M,M,M,M,M,M,M,M,M,51.80,LFQB 120300Z AUTO 10003KT CAVOK 11/09 Q1029,M
LFQB,LFQB,2019-09-12 03:30,51.80,46.40,81.74,100.00,2.00,0.00,30.39,M,6.21,M,M,M,M,M,M,M,M,M,M,M,M,M,M,M,M,51.80,LFQB 120330Z AUTO 10002KT CAVOK 11/08 Q1029,M
LFQB,LFQB,2019-09-12 04:00,51.80,48.20,87.47,80.00,3.00,0.00,30.39,M,6.21,M,M,M,M,M,M,M,M,M,M,M,M,M,M,M,M,51.80,LFQB 120400Z AUTO 08003KT CAVOK 11/09 Q1029,M
LFQB,LFQB,2019-09-12 04:30,50.00,44.60,81.61,M,2.00,0.00,30.39,M,6.21,M,FEW,M,M,M,3000.00,M,M,M,M,M,M,M,M,M,M,50.00,LFQB 120430Z AUTO VRB02KT 9999 FEW030 10/07 Q1029,M
LFQB,LFQB,2019-09-12 05:00,48.20,44.60,87.28,0.00,0.00,0.00,30.39,M,6.21,M,FEW,M,M,M,3000.00,M,M,M,M,M,M,M,M,M,M,48.20,LFQB 120500Z AUTO 00000KT 9999 FEW030 09/07 Q1029,M
LFQB,LFQB,2019-09-12 05:30,48.20,46.40,93.45,120.00,2.00,0.00,30.42,M,6.21,M,M,M,M,M,M,M,M,M,M,M,M,M,M,M,M,48.20,LFQB 120530Z AUTO 12002KT CAVOK 09/08 Q1030,M
LFQB,LFQB,2019-09-12 06:00,51.80,48.20,87.47,140.00,3.00,0.00,30.42,M,6.21,M,M,M,M,M,M,M,M,M,M,M,M,M,M,M,M,51.80,LFQB 120600Z AUTO 14003KT CAVOK 11/09 Q1030,M
LFQB,LFQB,2019-09-12 06:30,57.20,50.00,76.82,M,1.00,0.00,30.42,M,6.21,M,BKN,M,M,M,3800.00,M,M,M,M,M,M,M,M,M,M,57.20,LFQB 120630Z AUTO VRB01KT 9999 BKN038 14/10 Q1030,M
LFQB,LFQB,2019-09-12 07:00,60.80,50.00,67.54,160.00,3.00,0.00,30.45,M,6.21,M,FEW,M,M,M,3800.00,M,M,M,M,M,M,M,M,M,M,60.80,LFQB 120700Z AUTO 16003KT 9999 FEW038 16/10 Q1031,M
LFQB,LFQB,2019-09-12 07:30,62.60,51.80,67.75,M,3.00,0.00,30.45,M,6.21,M,M,M,M,M,M,M,M,M,M,M,M,M,M,M,M,62.60,LFQB 120730Z AUTO VRB03KT CAVOK 17/11 Q1031,M
LFQB,LFQB,2019-09-12 08:00,66.20,55.40,68.15,170.00,5.00,0.00,30.45,M,6.21,M,FEW,M,M,M,4000.00,M,M,M,M,M,M,M,M,M,M,66.20,LFQB 120800Z AUTO 17005KT 9999 FEW040 19/13 Q1031,M
LFQB,LFQB,2019-09-12 08:30,69.80,57.20,64.26,180.00,4.00,0.00,30.45,M,6.21,M,FEW,M,M,M,3800.00,M,M,M,M,M,M,M,M,M,M,69.80,LFQB 120830Z AUTO 18004KT 130V220 9999 FEW038 21/14 Q1031,M
LFQB,LFQB,2019-09-12 09:00,71.60,59.00,64.48,M,3.00,0.00,30.45,M,6.21,M,M,M,M,M,M,M,M,M,M,M,M,M,M,M,M,71.60,LFQB 120900Z AUTO VRB03KT CAVOK 22/15 Q1031,M
LFQB,LFQB,2019-09-12 09:30,73.40,59.00,60.67,280.00,4.00,0.00,30.45,M,6.21,M,M,M,M,M,M,M,M,M,M,M,M,M,M,M,M,73.40,LFQB 120930Z AUTO 28004KT 200V330 CAVOK 23/15 Q1031,M
LFQB,LFQB,2019-09-12 10:00,73.40,57.20,56.88,270.00,7.00,0.00,30.47,M,6.21,M,SCT,M,M,M,4800.00,M,M,M,M,M,M,M,M,M,M,73.40,LFQB 121000Z AUTO 27007KT 220V300 9999 SCT048 23/14 Q1032,M
LFQB,LFQB,2019-09-12 10:30,75.20,57.20,53.55,270.00,6.00,0.00,30.45,M,6.21,M,BKN,BKN,M,M,3600.00,4700.00,M,M,M,M,M,M,M,M,M,75.20,LFQB 121030Z AUTO 27006KT 200V330 9999 BKN036 BKN047 24/14 Q1031,M
LFQB,LFQB,2019-09-12 11:00,77.00,59.00,53.80,270.00,8.00,0.00,30.45,M,6.21,M,BKN,BKN,M,M,3700.00,4500.00,M,M,M,M,M,M,M,M,M,77.00,LFQB 121100Z AUTO 27008KT 210V320 9999 BKN037 BKN045 25/15 Q1031,M
LFQB,LFQB,2019-09-12 11:30,75.20,57.20,53.55,300.00,7.00,0.00,30.45,M,6.21,M,BKN,OVC,M,M,4100.00,4700.00,M,M,M,M,M,M,M,M,M,75.20,LFQB 121130Z AUTO 30007KT 210V340 9999 BKN041 OVC047 24/14 Q1031,M
LFQB,LFQB,2019-09-12 12:00,75.20,57.20,53.55,270.00,8.00,0.00,30.45,M,6.21,M,OVC,M,M,M,4300.00,M,M,M,M,M,M,M,M,M,M,75.20,LFQB 121200Z AUTO 27008KT 9999 OVC043 24/14 Q1031,M
LFQB,LFQB,2019-09-12 12:30,75.20,57.20,53.55,280.00,7.00,0.00,30.45,M,6.21,M,OVC,M,M,M,4500.00,M,M,M,M,M,M,M,M,M,M,75.20,LFQB 121230Z AUTO 28007KT 230V340 9999 OVC045 24/14 Q1031,M
LFQB,LFQB,2019-09-12 13:00,77.00,57.20,50.43,300.00,7.00,0.00,30.45,M,6.21,M,BKN,OVC,M,M,4600.00,5200.00,M,M,M,M,M,M,M,M,M,77.00,LFQB 121300Z AUTO 30007KT 270V330 9999 BKN046 OVC052 25/14 Q1031,M
LFQB,LFQB,2019-09-12 13:30,77.00,59.00,53.80,310.00,6.00,0.00,30.45,M,6.21,M,OVC,M,M,M,4400.00,M,M,M,M,M,M,M,M,M,M,77.00,LFQB 121330Z AUTO 31006KT 260V340 9999 OVC044 25/15 Q1031,M
LFQB,LFQB,2019-09-12 14:00,77.00,59.00,53.80,310.00,8.00,0.00,30.45,M,6.21,M,OVC,M,M,M,4400.00,M,M,M,M,M,M,M,M,M,M,77.00,LFQB 121400Z AUTO 31008KT 280V340 9999 OVC044 25/15 Q1031,M
LFQB,LFQB,2019-09-12 14:30,77.00,59.00,53.80,290.00,6.00,0.00,30.45,M,6.21,M,OVC,M,M,M,4900.00,M,M,M,M,M,M,M,M,M,M,77.00,LFQB 121430Z AUTO 29006KT 240V330 9999 OVC049 25/15 Q1031,M
LFQB,LFQB,2019-09-12 15:00,77.00,59.00,53.80,280.00,7.00,0.00,30.45,M,6.21,M,OVC,M,M,M,4700.00,M,M,M,M,M,M,M,M,M,M,77.00,LFQB 121500Z AUTO 28007KT 9999 OVC047 25/15 Q1031,M
LFQB,LFQB,2019-09-12 15:30,77.00,59.00,53.80,310.00,6.00,0.00,30.45,M,6.21,M,OVC,M,M,M,4500.00,M,M,M,M,M,M,M,M,M,M,77.00,LFQB 121530Z AUTO 31006KT 280V340 9999 OVC045 25/15 Q1031,M
LFQB,LFQB,2019-09-12 16:00,75.20,59.00,57.12,350.00,7.00,0.00,30.45,M,6.21,M,OVC,M,M,M,4600.00,M,M,M,M,M,M,M,M,M,M,75.20,LFQB 121600Z AUTO 35007KT 9999 OVC046 24/15 Q1031,M
LFQB,LFQB,2019-09-12 16:30,75.20,59.00,57.12,350.00,6.00,0.00,30.45,M,6.21,M,BKN,M,M,M,4700.00,M,M,M,M,M,M,M,M,M,M,75.20,LFQB 121630Z AUTO 35006KT 9999 BKN047 24/15 Q1031,M
LFQB,LFQB,2019-09-12 17:00,75.20,60.80,60.90,350.00,6.00,0.00,30.45,M,6.21,M,M,M,M,M,M,M,M,M,M,M,M,M,M,M,M,75.20,LFQB 121700Z AUTO 35006KT CAVOK 24/16 Q1031,M
LFQB,LFQB,2019-09-12 17:30,73.40,59.00,60.67,340.00,5.00,0.00,30.45,M,6.21,M,M,M,M,M,M,M,M,M,M,M,M,M,M,M,M,73.40,LFQB 121730Z AUTO 34005KT CAVOK 23/15 Q1031,M
LFQB,LFQB,2019-09-12 18:00,71.60,59.00,64.48,340.00,5.00,0.00,30.45,M,6.21,M,M,M,M,M,M,M,M,M,M,M,M,M,M,M,M,71.60,LFQB 121800Z AUTO 34005KT CAVOK 22/15 Q1031,M
LFQB,LFQB,2019-09-12 18:30,68.00,57.20,68.35,360.00,2.00,0.00,30.45,M,6.21,M,M,M,M,M,M,M,M,M,M,M,M,M,M,M,M,68.00,LFQB 121830Z AUTO 36002KT CAVOK 20/14 Q1031,M
LFQB,LFQB,2019-09-12 19:00,62.60,55.40,77.29,0.00,0.00,0.00,30.45,M,6.21,M,M,M,M,M,M,M,M,M,M,M,M,M,M,M,M,62.60,LFQB 121900Z AUTO 00000KT CAVOK 17/13 Q1031,M
LFQB,LFQB,2019-09-12 19:30,62.60,55.40,77.29,M,2.00,0.00,30.45,M,6.21,M,M,M,M,M,M,M,M,M,M,M,M,M,M,M,M,62.60,LFQB 121930Z AUTO VRB02KT CAVOK 17/13 Q1031,M
LFQB,LFQB,2019-09-12 20:00,60.80,55.40,82.37,290.00,2.00,0.00,30.45,M,6.21,M,M,M,M,M,M,M,M,M,M,M,M,M,M,M,M,60.80,LFQB 122000Z AUTO 29002KT CAVOK 16/13 Q1031,M
LFQB,LFQB,2019-09-12 20:30,60.80,57.20,87.92,290.00,3.00,0.00,30.47,M,6.21,M,M,M,M,M,M,M,M,M,M,M,M,M,M,M,M,60.80,LFQB 122030Z AUTO 29003KT CAVOK 16/14 Q1032,M
LFQB,LFQB,2019-09-12 21:00,57.20,53.60,87.74,220.00,2.00,0.00,30.47,M,4.35,M,NSC,M,M,M,M,M,M,M,M,M,M,M,M,M,M,57.20,LFQB 122100Z AUTO 22002KT 7000 NSC 14/12 Q1032,M
LFQB,LFQB,2019-09-12 21:30,57.20,53.60,87.74,170.00,5.00,0.00,30.45,M,6.21,M,M,M,M,M,M,M,M,M,M,M,M,M,M,M,M,57.20,LFQB 122130Z AUTO 17005KT CAVOK 14/12 Q1031,M
LFQB,LFQB,2019-09-12 22:00,59.00,55.40,87.83,150.00,3.00,0.00,30.47,M,6.21,M,NSC,M,M,M,M,M,M,M,BCFG,M,M,M,M,M,M,59.00,LFQB 122200Z AUTO 15003KT 9999 0800 BCFG NSC 15/13 Q1032,M
LFQB,LFQB,2019-09-12 22:30,60.80,57.20,87.92,130.00,2.00,0.00,30.45,M,6.21,M,M,M,M,M,M,M,M,M,M,M,M,M,M,M,M,60.80,LFQB 122230Z AUTO 13002KT CAVOK 16/14 Q1031,M
LFQB,LFQB,2019-09-12 23:00,57.20,53.60,87.74,140.00,2.00,0.00,30.45,M,6.21,M,M,M,M,M,M,M,M,M,M,M,M,M,M,M,M,57.20,LFQB 122300Z AUTO 14002KT CAVOK 14/12 Q1031,M
LFQB,LFQB,2019-09-12 23:30,59.00,55.40,87.83,120.00,2.00,0.00,30.45,M,6.21,M,M,M,M,M,M,M,M,M,M,M,M,M,M,M,M,59.00,LFQB 122330Z AUTO 12002KT CAVOK 15/13 Q1031,M
LFQG,LFQG,2019-09-12 06:00,44.60,41.00,87.09,0.00,0.00,0.00,30.45,M,6.21,M,M,M,M,M,M,M,M,M,M,M,M,M,M,M,M,44.60,LFQG 120600Z AUTO 00000KT CAVOK 07/05 Q1031,M
LFQG,LFQG,2019-09-12 06:30,50.00,46.40,87.37,0.00,0.00,0.00,30.45,M,6.21,M,M,M,M,M,M,M,M,M,M,M,M,M,M,M,M,50.00,LFQG 120630Z AUTO 00000KT CAVOK 10/08 Q1031,M
LFQG,LFQG,2019-09-12 07:00,53.60,46.40,76.50,0.00,0.00,0.00,30.45,M,6.21,M,M,M,M,M,M,M,M,M,M,M,M,M,M,M,M,53.60,LFQG 120700Z AUTO 00000KT CAVOK 12/08 Q1031,M
LFQG,LFQG,2019-09-12 07:30,59.00,48.20,67.33,0.00,0.00,0.00,30.47,M,6.21,M,M,M,M,M,M,M,M,M,M,M,M,M,M,M,M,59.00,LFQG 120730Z AUTO 00000KT CAVOK 15/09 Q1032,M
LFQG,LFQG,2019-09-12 08:00,62.60,48.20,59.26,0.00,0.00,0.00,30.47,M,6.21,M,M,M,M,M,M,M,M,M,M,M,M,M,M,M,M,62.60,LFQG 120800Z AUTO 00000KT CAVOK 17/09 Q1032,M
LFQG,LFQG,2019-09-12 08:30,64.40,48.20,55.63,0.00,0.00,0.00,30.47,M,6.21,M,M,M,M,M,M,M,M,M,M,M,M,M,M,M,M,64.40,LFQG 120830Z AUTO 00000KT CAVOK 18/09 Q1032,M
LFQG,LFQG,2019-09-12 09:00,68.00,48.20,49.10,0.00,0.00,0.00,30.47,M,6.21,M,M,M,M,M,M,M,M,M,M,M,M,M,M,M,M,68.00,LFQG 120900Z AUTO 00000KT CAVOK 20/09 Q1032,M
LFQG,LFQG,2019-09-12 09:30,71.60,51.80,49.64,M,2.00,0.00,30.47,M,6.21,M,M,M,M,M,M,M,M,M,M,M,M,M,M,M,M,71.60,LFQG 120930Z AUTO VRB02KT CAVOK 22/11 Q1032,M
LFQG,LFQG,2019-09-12 10:00,73.40,51.80,46.71,M,2.00,0.00,30.47,M,6.21,M,M,M,M,M,M,M,M,M,M,M,M,M,M,M,M,73.40,LFQG 121000Z AUTO VRB02KT CAVOK 23/11 Q1032,M
LFQG,LFQG,2019-09-12 10:30,73.40,50.00,43.69,M,2.00,0.00,30.47,M,6.21,M,M,M,M,M,M,M,M,M,M,M,M,M,M,M,M,73.40,LFQG 121030Z AUTO VRB02KT CAVOK 23/10 Q1032,M
LFQG,LFQG,2019-09-12 11:00,75.20,50.00,41.14,M,1.00,0.00,30.47,M,6.21,M,M,M,M,M,M,M,M,M,M,M,M,M,M,M,M,75.20,LFQG 121100Z AUTO VRB01KT CAVOK 24/10 Q1032,M
LFQG,LFQG,2019-09-12 11:30,77.00,51.80,41.42,M,2.00,0.00,30.47,M,6.21,M,M,M,M,M,M,M,M,M,M,M,M,M,M,M,M,77.00,LFQG 121130Z AUTO VRB02KT CAVOK 25/11 Q1032,M
LFQG,LFQG,2019-09-12 12:00,77.00,51.80,41.42,40.00,3.00,0.00,30.47,M,6.21,M,M,M,M,M,M,M,M,M,M,M,M,M,M,M,M,77.00,LFQG 121200Z AUTO 04003KT 310V120 CAVOK 25/11 Q1032,M
LFQG,LFQG,2019-09-12 12:30,77.00,50.00,38.74,M,3.00,0.00,30.47,M,6.21,M,M,M,M,M,M,M,M,M,M,M,M,M,M,M,M,77.00,LFQG 121230Z AUTO VRB03KT CAVOK 25/10 Q1032,M
LFQG,LFQG,2019-09-12 13:00,78.80,51.80,39.02,M,2.00,0.00,30.45,M,6.21,M,M,M,M,M,M,M,M,M,M,M,M,M,M,M,M,78.80,LFQG 121300Z AUTO VRB02KT CAVOK 26/11 Q1031,M
LFQG,LFQG,2019-09-12 13:30,80.60,51.80,36.79,M,2.00,0.00,30.45,M,6.21,M,M,M,M,M,M,M,M,M,M,M,M,M,M,M,M,80.08,LFQG 121330Z AUTO VRB02KT CAVOK 27/11 Q1031,M
LFQG,LFQG,2019-09-12 14:00,80.60,51.80,36.79,30.00,4.00,0.00,30.45,M,6.21,M,M,M,M,M,M,M,M,M,M,M,M,M,M,M,M,80.08,LFQG 121400Z AUTO 03004KT 330V110 CAVOK 27/11 Q1031,M
LFQG,LFQG,2019-09-12 14:30,80.60,50.00,34.41,M,2.00,0.00,30.45,M,6.21,M,M,M,M,M,M,M,M,M,M,M,M,M,M,M,M,79.88,LFQG 121430Z AUTO VRB02KT CAVOK 27/10 Q1031,M
LFQG,LFQG,2019-09-12 15:00,82.40,50.00,32.46,M,2.00,0.00,30.42,M,6.21,M,M,M,M,M,M,M,M,M,M,M,M,M,M,M,M,80.99,LFQG 121500Z AUTO VRB02KT CAVOK 28/10 Q1030,M
LFQG,LFQG,2019-09-12 15:30,80.60,50.00,34.41,M,1.00,0.00,30.42,M,6.21,M,NSC,M,M,M,M,M,M,M,M,M,M,M,M,M,M,79.88,LFQG 121530Z AUTO VRB01KT 9999 NSC 27/10 Q1030,M
LFQG,LFQG,2019-09-12 16:00,80.60,50.00,34.41,320.00,4.00,0.00,30.42,M,6.21,M,M,M,M,M,M,M,M,M,M,M,M,M,M,M,M,79.88,LFQG 121600Z AUTO 32004KT 250V360 CAVOK 27/10 Q1030,M
LFQG,LFQG,2019-09-12 16:30,80.60,50.00,34.41,310.00,3.00,0.00,30.42,M,6.21,M,M,M,M,M,M,M,M,M,M,M,M,M,M,M,M,79.88,LFQG 121630Z AUTO 31003KT 260V360 CAVOK 27/10 Q1030,M
LFQG,LFQG,2019-09-12 17:00,80.60,51.80,36.79,M,2.00,0.00,30.42,M,6.21,M,M,M,M,M,M,M,M,M,M,M,M,M,M,M,M,80.08,LFQG 121700Z AUTO VRB02KT CAVOK 27/11 Q1030,M
LFQG,LFQG,2019-09-12 17:30,77.00,53.60,44.25,320.00,4.00,0.00,30.42,M,6.21,M,M,M,M,M,M,M,M,M,M,M,M,M,M,M,M,77.00,LFQG 121730Z AUTO 32004KT CAVOK 25/12 Q1030,M
LFQG,LFQG,2019-09-12 18:00,75.20,51.80,43.97,320.00,3.00,0.00,30.42,M,6.21,M,M,M,M,M,M,M,M,M,M,M,M,M,M,M,M,75.20,LFQG 121800Z AUTO 32003KT CAVOK 24/11 Q1030,M
LFQQ,LFQQ,2019-09-12 00:00,62.60,62.60,100.00,230.00,9.00,0.00,30.27,M,6.21,M,BKN,BKN,OVC,M,900.00,1400.00,1900.00,M,M,M,M,M,M,M,M,62.60,LFQQ 120000Z AUTO 23009KT 9999 BKN009 BKN014 OVC019 17/17 Q1025 TEMPO 2500 DZRA BKN003 OVC012,M
LFQQ,LFQQ,2019-09-12 00:30,62.60,62.60,100.00,230.00,8.00,0.00,30.27,M,6.21,M,BKN,OVC,M,M,800.00,1300.00,M,M,M,M,M,M,M,M,M,62.60,LFQQ 120030Z AUTO 23008KT 9999 BKN008 OVC013 17/17 Q1025 TEMPO 2500 DZRA BKN003 OVC012,M
LFQQ,LFQQ,2019-09-12 01:00,62.60,62.60,100.00,220.00,8.00,0.00,30.27,M,6.21,M,BKN,OVC,M,M,700.00,1100.00,M,M,M,M,M,M,M,M,M,62.60,LFQQ 120100Z AUTO 22008KT 9999 BKN007 OVC011 17/17 Q1025 TEMPO 2500 DZRA BKN003 OVC012,M
LFQQ,LFQQ,2019-09-12 01:30,62.60,62.60,100.00,230.00,9.00,0.00,30.27,M,6.21,M,SCT,OVC,M,M,700.00,1200.00,M,M,M,M,M,M,M,M,M,62.60,LFQQ 120130Z AUTO 23009KT 9999 SCT007 OVC012 17/17 Q1025 TEMPO 2500 DZRA BKN003 OVC012,M
LFQQ,LFQQ,2019-09-12 02:00,62.60,62.60,100.00,230.00,7.00,0.00,30.27,M,6.21,M,OVC,M,M,M,800.00,M,M,M,M,M,M,M,M,M,M,62.60,LFQQ 120200Z AUTO 23007KT 9999 OVC008 17/17 Q1025 TEMPO 2500 DZRA BKN003 OVC012,M
LFQQ,LFQQ,2019-09-12 02:30,62.60,60.80,93.83,230.00,7.00,0.00,30.27,M,6.21,M,BKN,OVC,M,M,800.00,4000.00,M,M,M,M,M,M,M,M,M,62.60,LFQQ 120230Z AUTO 23007KT 9999 BKN008 OVC040 17/16 Q1025 TEMPO 2500 DZRA BKN003 OVC012,M
LFQQ,LFQQ,2019-09-12 03:00,62.60,60.80,93.83,230.00,8.00,0.00,30.27,M,6.21,M,FEW,BKN,OVC,M,900.00,3400.00,4200.00,M,M,M,M,M,M,M,M,62.60,LFQQ 120300Z AUTO 23008KT 9999 FEW009 BKN034 OVC042 17/16 Q1025 TEMPO 2500 DZRA BKN003 OVC012,M
LFQQ,LFQQ,2019-09-12 03:30,62.60,60.80,93.83,230.00,7.00,0.00,30.30,M,6.21,M,FEW,BKN,BKN,M,900.00,1700.00,2600.00,M,M,M,M,M,M,M,M,62.60,LFQQ 120330Z AUTO 23007KT 9999 FEW009 BKN017 BKN026 17/16 Q1026 TEMPO 2500 DZRA BKN003 OVC012,M
LFQQ,LFQQ,2019-09-12 04:00,62.60,60.80,93.83,230.00,6.00,0.00,30.30,M,6.21,M,FEW,OVC,M,M,1100.00,4500.00,M,M,M,M,M,M,M,M,M,62.60,LFQQ 120400Z AUTO 23006KT 9999 FEW011 OVC045 17/16 Q1026 TEMPO 2500 DZRA BKN003 OVC012,M
LFQQ,LFQQ,2019-09-12 04:30,62.60,60.80,93.83,220.00,7.00,0.00,30.30,M,6.21,M,SCT,BKN,OVC,M,1300.00,4000.00,4600.00,M,M,M,M,M,M,M,M,62.60,LFQQ 120430Z AUTO 22007KT 9999 SCT013 BKN040 OVC046 17/16 Q1026 TEMPO 2500 DZRA BKN003 OVC012,M
LFQQ,LFQQ,2019-09-12 05:00,62.60,60.80,93.83,220.00,7.00,0.00,30.30,M,6.21,M,SCT,BKN,OVC,M,2200.00,2800.00,4000.00,M,M,M,M,M,M,M,M,62.60,LFQQ 120500Z AUTO 22007KT 9999 SCT022 BKN028 OVC040 17/16 Q1026 TEMPO 2500 DZRA BKN003 OVC012,M
LFQQ,LFQQ,2019-09-12 05:30,62.60,60.80,93.83,220.00,6.00,0.00,30.30,M,6.21,M,BKN,BKN,OVC,M,1200.00,2100.00,4000.00,M,M,M,M,M,M,M,M,62.60,LFQQ 120530Z AUTO 22006KT 9999 BKN012 BKN021 OVC040 17/16 Q1026 BECMG BKN025,M
LFQQ,LFQQ,2019-09-12 06:00,62.60,60.80,93.83,220.00,6.00,0.00,30.33,M,6.21,M,FEW,BKN,M,M,1500.00,3800.00,M,M,M,M,M,M,M,M,M,62.60,LFQQ 120600Z AUTO 22006KT 9999 FEW015 BKN038 17/16 Q1027 TEMPO 4000 DZRA BKN008,M
LFQQ,LFQQ,2019-09-12 06:30,62.60,60.80,93.83,230.00,7.00,0.00,30.33,M,6.21,M,FEW,OVC,M,M,1800.00,3800.00,M,M,M,M,M,M,M,M,M,62.60,LFQQ 120630Z AUTO 23007KT 9999 FEW018 OVC038 17/16 Q1027 TEMPO 4000 DZRA BKN008,M
LFQQ,LFQQ,2019-09-12 07:00,62.60,60.80,93.83,220.00,8.00,0.00,30.33,M,6.21,M,FEW,BKN,M,M,2100.00,3700.00,M,M,M,M,M,M,M,M,M,62.60,LFQQ 120700Z AUTO 22008KT 9999 FEW021 BKN037 17/16 Q1027 TEMPO 4000 DZRA BKN008,M
LFQQ,LFQQ,2019-09-12 07:30,64.40,59.00,82.62,240.00,10.00,0.00,30.36,M,6.21,M,BKN,BKN,BKN,M,1300.00,2000.00,3700.00,M,M,M,M,M,M,M,M,64.40,LFQQ 120730Z AUTO 24010KT 9999 BKN013 BKN020 BKN037 18/15 Q1028 TEMPO 4000 DZRA BECMG BKN030,M
LFQQ,LFQQ,2019-09-12 08:00,64.40,59.00,82.62,250.00,11.00,0.00,30.36,M,6.21,M,BKN,BKN,BKN,M,1400.00,1900.00,2400.00,M,M,M,M,M,M,M,M,64.40,LFQQ 120800Z AUTO 25011KT 9999 BKN014 BKN019 BKN024 18/15 Q1028 TEMPO 4000 DZRA BECMG BKN030,M
LFQQ,LFQQ,2019-09-12 08:30,66.20,57.20,72.74,260.00,11.00,0.00,30.39,M,6.21,M,BKN,BKN,OVC,M,1800.00,2500.00,3100.00,M,M,M,M,M,M,M,M,66.20,LFQQ 120830Z AUTO 26011KT 9999 BKN018 BKN025 OVC031 19/14 Q1029 NOSIG,M
LFQQ,LFQQ,2019-09-12 09:00,66.20,55.40,68.15,270.00,15.00,0.00,30.39,M,6.21,M,BKN,BKN,M,M,2100.00,2900.00,M,M,M,M,M,M,M,M,M,66.20,LFQQ 120900Z AUTO 27015KT 9999 BKN021 BKN029 19/13 Q1029 NOSIG,M
LFQQ,LFQQ,2019-09-12 09:30,68.00,57.20,68.35,260.00,12.00,0.00,30.39,M,6.21,M,BKN,BKN,M,M,2700.00,3400.00,M,M,M,M,M,M,M,M,M,68.00,LFQQ 120930Z AUTO 26012KT 9999 BKN027 BKN034 20/14 Q1029 NOSIG,M
LFQQ,LFQQ,2019-09-12 10:00,69.80,57.20,64.26,250.00,13.00,0.00,30.39,M,6.21,M,BKN,BKN,M,M,2700.00,3400.00,M,M,M,M,M,M,M,M,M,69.80,LFQQ 121000Z AUTO 25013KT 9999 BKN027 BKN034 21/14 Q1029 NOSIG,M
LFQQ,LFQQ,2019-09-12 10:30,69.80,55.40,60.21,270.00,12.00,0.00,30.39,M,6.21,M,SCT,M,M,M,2700.00,M,M,M,M,M,M,M,M,M,M,69.80,LFQQ 121030Z AUTO 27012KT 9999 SCT027 21/13 Q1029 NOSIG,M
LFQQ,LFQQ,2019-09-12 11:00,73.40,55.40,53.29,260.00,13.00,0.00,30.39,M,6.21,M,FEW,M,M,M,100.00,M,M,M,M,M,M,M,M,M,M,73.40,LFQQ 121100Z AUTO 26013KT 9999 FEW001 23/13 Q1029 NOSIG,M
LFQQ,LFQQ,2019-09-12 11:30,73.40,55.40,53.29,260.00,12.00,0.00,30.39,M,6.21,M,FEW,M,M,M,3400.00,M,M,M,M,M,M,M,M,M,M,73.40,LFQQ 121130Z AUTO 26012KT 230V290 9999 FEW034 23/13 Q1029 NOSIG,M
LFQQ,LFQQ,2019-09-12 12:00,73.40,57.20,56.88,260.00,12.00,0.00,30.39,M,6.21,M,FEW,SCT,M,M,3600.00,6600.00,M,M,M,M,M,M,M,M,M,73.40,LFQQ 121200Z AUTO 26012KT 230V290 9999 FEW036 SCT066 23/14 Q1029 NOSIG,M
LFQQ,LFQQ,2019-09-12 12:30,73.40,57.20,56.88,270.00,13.00,0.00,30.39,M,6.21,M,BKN,BKN,M,M,4400.00,6600.00,M,M,M,M,M,M,M,M,M,73.40,LFQQ 121230Z AUTO 27013KT 9999 BKN044 BKN066 23/14 Q1029 NOSIG,M
LFQQ,LFQQ,2019-09-12 13:00,73.40,59.00,60.67,250.00,12.00,0.00,30.39,M,6.21,M,SCT,SCT,OVC,M,3000.00,3500.00,4300.00,M,M,M,M,M,M,M,M,73.40,LFQQ 121300Z AUTO 25012KT 9999 SCT030 SCT035 OVC043 23/15 Q1029 NOSIG,M
LFQQ,LFQQ,2019-09-12 13:30,71.60,59.00,64.48,250.00,12.00,0.00,30.39,M,6.21,M,SCT,OVC,M,M,2800.00,4000.00,M,M,M,M,M,M,M,M,M,71.60,LFQQ 121330Z AUTO 25012KT 9999 SCT028 OVC040 22/15 Q1029 NOSIG,M
LFQQ,LFQQ,2019-09-12 14:00,69.80,60.80,73.09,240.00,13.00,0.00,30.42,M,6.21,M,FEW,BKN,OVC,M,2500.00,3300.00,4000.00,M,M,M,M,M,M,M,M,69.80,LFQQ 121400Z AUTO 24013KT 9999 FEW025 BKN033 OVC040 21/16 Q1030 NOSIG,M
LFQQ,LFQQ,2019-09-12 14:30,69.80,60.80,73.09,250.00,12.00,0.00,30.42,M,6.21,M,SCT,BKN,BKN,M,2000.00,2800.00,3300.00,M,M,M,M,M,M,M,M,69.80,LFQQ 121430Z AUTO 25012KT 9999 SCT020 BKN028 BKN033 21/16 Q1030 NOSIG,M
LFQQ,LFQQ,2019-09-12 15:00,69.80,60.80,73.09,240.00,12.00,0.00,30.39,M,6.21,M,BKN,BKN,BKN,M,2100.00,3000.00,3600.00,M,M,M,M,M,M,M,M,69.80,LFQQ 121500Z AUTO 24012KT 9999 BKN021 BKN030 BKN036 21/16 Q1029 NOSIG,M
LFQQ,LFQQ,2019-09-12 15:30,69.80,60.80,73.09,250.00,11.00,0.00,30.39,M,6.21,M,BKN,BKN,BKN,M,2000.00,2900.00,3400.00,M,M,M,M,M,M,M,M,69.80,LFQQ 121530Z AUTO 25011KT 9999 BKN020 BKN029 BKN034 21/16 Q1029 NOSIG,M
LFQQ,LFQQ,2019-09-12 16:00,68.00,60.80,77.75,240.00,10.00,0.00,30.39,M,6.21,M,FEW,SCT,BKN,M,1600.00,2100.00,2700.00,M,M,M,M,M,M,M,M,68.00,LFQQ 121600Z AUTO 24010KT 9999 FEW016 SCT021 BKN027 20/16 Q1029 NOSIG,M
LFQQ,LFQQ,2019-09-12 16:30,69.80,62.60,77.90,250.00,10.00,0.00,30.39,M,6.21,M,FEW,BKN,M,M,1400.00,4400.00,M,M,M,M,M,M,M,M,M,69.80,LFQQ 121630Z AUTO 25010KT 9999 FEW014 BKN044 21/17 Q1029 NOSIG,M
LFQQ,LFQQ,2019-09-12 17:00,68.00,60.80,77.75,240.00,12.00,0.00,30.42,M,6.21,M,BKN,BKN,BKN,M,1800.00,2600.00,3100.00,M,M,M,M,M,M,M,M,68.00,LFQQ 121700Z AUTO 24012KT 9999 BKN018 BKN026 BKN031 20/16 Q1030 NOSIG,M
LFQQ,LFQQ,2019-09-12 17:30,68.00,60.80,77.75,240.00,13.00,0.00,30.42,M,6.21,M,SCT,OVC,M,M,1900.00,2600.00,M,M,M,M,M,M,M,M,M,68.00,LFQQ 121730Z AUTO 24013KT 9999 SCT019 OVC026 20/16 Q1030 NOSIG,M
LFQQ,LFQQ,2019-09-12 18:00,66.20,60.80,82.74,230.00,11.00,0.00,30.42,M,6.21,M,SCT,BKN,BKN,M,1700.00,2300.00,2800.00,M,M,M,M,M,M,M,M,66.20,LFQQ 121800Z AUTO 23011KT 9999 SCT017 BKN023 BKN028 19/16 Q1030 NOSIG,M
LFQQ,LFQQ,2019-09-12 18:30,66.20,59.00,77.60,230.00,13.00,0.00,30.42,M,6.21,M,FEW,OVC,M,M,1700.00,3200.00,M,M,M,M,M,M,M,M,M,66.20,LFQQ 121830Z AUTO 23013KT 9999 FEW017 OVC032 19/15 Q1030 NOSIG,M
LFQQ,LFQQ,2019-09-12 19:00,66.20,59.00,77.60,230.00,11.00,0.00,30.42,M,6.21,M,BKN,M,M,M,2800.00,M,M,M,M,M,M,M,M,M,M,66.20,LFQQ 121900Z AUTO 23011KT 9999 BKN028 19/15 Q1030 NOSIG,M
LFQQ,LFQQ,2019-09-12 19:30,64.40,57.20,77.45,230.00,13.00,0.00,30.42,M,6.21,M,FEW,M,M,M,2200.00,M,M,M,M,M,M,M,M,M,M,64.40,LFQQ 121930Z AUTO 23013KT 9999 FEW022 18/14 Q1030 NOSIG,M
LFQQ,LFQQ,2019-09-12 20:00,64.40,57.20,77.45,230.00,10.00,0.00,30.42,M,6.21,M,BKN,M,M,M,2400.00,M,M,M,M,M,M,M,M,M,M,64.40,LFQQ 122000Z AUTO 23010KT 9999 BKN024 18/14 Q1030 NOSIG,M
LFQQ,LFQQ,2019-09-12 20:30,62.60,57.20,82.50,220.00,9.00,0.00,30.42,M,6.21,M,FEW,M,M,M,2600.00,M,M,M,M,M,M,M,M,M,M,62.60,LFQQ 122030Z AUTO 22009KT 9999 FEW026 17/14 Q1030 TEMPO 3000 DZRA BKN005 OVC013,M
LFQQ,LFQQ,2019-09-12 21:00,62.60,57.20,82.50,220.00,8.00,0.00,30.42,M,6.21,M,M,M,M,M,M,M,M,M,M,M,M,M,M,M,M,62.60,LFQQ 122100Z AUTO 22008KT CAVOK 17/14 Q1030 TEMPO 3000 DZRA BKN005 OVC013,M
LFQQ,LFQQ,2019-09-12 21:30,62.60,59.00,88.00,230.00,8.00,0.00,30.42,M,6.21,M,FEW,M,M,M,1800.00,M,M,M,M,M,M,M,M,M,M,62.60,LFQQ 122130Z AUTO 23008KT 9999 FEW018 17/15 Q1030 TEMPO 3000 DZRA BKN005 OVC013,M
LFQQ,LFQQ,2019-09-12 22:00,62.60,59.00,88.00,230.00,10.00,0.00,30.42,M,6.21,M,BKN,M,M,M,1400.00,M,M,M,M,M,M,M,M,M,M,62.60,LFQQ 122200Z AUTO 23010KT 9999 BKN014 17/15 Q1030 TEMPO 3000 DZRA BKN005 OVC013,M
LFQQ,LFQQ,2019-09-12 22:30,62.60,59.00,88.00,240.00,10.00,0.00,30.42,M,6.21,M,FEW,M,M,M,1500.00,M,M,M,M,M,M,M,M,M,M,62.60,LFQQ 122230Z AUTO 24010KT 9999 FEW015 17/15 Q1030 TEMPO 3000 DZRA BKN005 OVC013,M
LFQQ,LFQQ,2019-09-12 23:00,62.60,59.00,88.00,240.00,9.00,0.00,30.42,M,6.21,M,FEW,BKN,M,M,1300.00,1900.00,M,M,M,M,M,M,M,M,M,62.60,LFQQ 122300Z AUTO 24009KT 9999 FEW013 BKN019 17/15 Q1030 TEMPO 3000 DZRA BKN005 OVC013,M
LFQQ,LFQQ,2019-09-12 23:30,62.60,59.00,88.00,240.00,10.00,0.00,30.42,M,6.21,M,OVC,M,M,M,1800.00,M,M,M,M,M,M,M,M,M,M,62.60,LFQQ 122330Z AUTO 24010KT 9999 OVC018 17/15 Q1030 TEMPO 3000 DZRA BKN005 OVC013,M
